"MNET_SHORTNAME","NWSFIREZONE","ELEV_DEM","UNITS","TIMEZONE","SGID","SHORTNAME","ELEVATION","STID","WIMS_ID","GACC","MNET_LONGNAME","STATUS","PERIOD_OF_RECORD","LONGITUDE","COUNTY","STATE","CWA","NWSZONE","ID","MNET_ID","NAME","PROVIDERS","COUNTRY","SENSOR_VARIABLES","RESTRICTED","LATITUDE"
"SDGE","SGX250","1801.2","[object Object]","America/Los_Angeles","SC08","SDGE","1802","ANESD","null","SOCC","San Diego Gas and Electric","ACTIVE","[object Object]","-116.77333","San Diego","CA","SGX","CA050","28710","139","Alpine","[object Object],[object Object]","US","[object Object]","false","32.82708"
"SDGE","SGX250","547.9","[object Object]","America/Los_Angeles","SC08","SDGE","544","AMOSD","null","SOCC","San Diego Gas and Electric","ACTIVE","[object Object]","-117.27654","San Diego","CA","SGX","CA050","28711","139","Ammo Dump","[object Object],[object Object]","US","[object Object]","false","33.35714"
"SDGE","SGX554","508.5","[object Object]","America/Los_Angeles","SC08","SDGE","486","CAPSD","null","SOCC","San Diego Gas and Electric","ACTIVE","[object Object]","-117.54741","Orange","CA","SGX","CA554","28712","139","Bell Canyon","[object Object],[object Object]","US","[object Object]","false","33.55754"
"SDGE","SGX258","3218.5","[object Object]","America/Los_Angeles","SC11","SDGE","3212","CMNSD","null","SOCC","San Diego Gas and Electric","INACTIVE","[object Object]","-116.47076","San Diego","CA","SGX","CA058","28713","139","Cameron","[object Object],[object Object]","US","[object Object]","false","32.71464"
"SDGE","SGX243","442.9","[object Object]","America/Los_Angeles","SC08","SDGE","444","MPESD","null","SOCC","San Diego Gas and Electric","ACTIVE","[object Object]","-117.11908","San Diego","CA","SGX","CA043","28714","139","Camp Elliot","[object Object],[object Object]","US","[object Object]","false","32.85217"
"SDGE","SGX258","3402.2","[object Object]","America/Los_Angeles","SC11","SDGE","3393","DENSD","null","SOCC","San Diego Gas and Electric","INACTIVE","[object Object]","-116.61182","San Diego","CA","SGX","CA058","28715","139","Descanso","[object Object],[object Object]","US","[object Object]","false","32.85883"
"SDGE","SGX250","1532.2","[object Object]","America/Los_Angeles","SC08","SDGE","1536","GOSSD","null","SOCC","San Diego Gas and Electric","ACTIVE","[object Object]","-116.84494","San Diego","CA","SGX","CA050","28716","139","Goose Valley","[object Object],[object Object]","US","[object Object]","false","33.07279"
"SDGE","SGX258","4199.5","[object Object]","America/Los_Angeles","SC11","SDGE","4196","JULSD","null","SOCC","San Diego Gas and Electric","ACTIVE","[object Object]","-116.59080","San Diego","CA","SGX","CA058","28717","139","Julian","[object Object],[object Object]","US","[object Object]","false","33.07656"
"SDGE","SGX258","5780.8","[object Object]","America/Los_Angeles","SC11","SDGE","5775","MLGSD","null","SOCC","San Diego Gas and Electric","ACTIVE","[object Object]","-116.42443","San Diego","CA","SGX","CA058","28718","139","Mt. Laguna","[object Object],[object Object]","US","[object Object]","false","32.87833"
"SDGE","SGX258","5485.6","[object Object]","America/Los_Angeles","SC11","SDGE","5483","PAMSD","null","SOCC","San Diego Gas and Electric","ACTIVE","[object Object]","-116.86286","San Diego","CA","SGX","CA058","28719","139","Mt. Palomar","[object Object],[object Object]","US","[object Object]","false","33.35214"
"SDGE","SGX258","2762.5","[object Object]","America/Los_Angeles","SC11","SDGE","2762","OGVSD","null","SOCC","San Diego Gas and Electric","ACTIVE","[object Object]","-116.78822","San Diego","CA","SGX","CA058","28720","139","Oak Grove","[object Object],[object Object]","US","[object Object]","false","33.39185"
"SDGE","SGX258","4065","[object Object]","America/Los_Angeles","SC11","SDGE","4058","PIHSD","null","SOCC","San Diego Gas and Electric","ACTIVE","[object Object]","-116.63691","San Diego","CA","SGX","CA058","28721","139","Pine Hills","[object Object],[object Object]","US","[object Object]","false","33.04940"
"SDGE","SGX250","2772.3","[object Object]","America/Los_Angeles","SC11","SDGE","2776","POTSD","null","SOCC","San Diego Gas and Electric","ACTIVE","[object Object]","-116.576878","San Diego","CA","SGX","CA050","28722","139","Potrero","[object Object],[object Object]","US","[object Object]","false","32.606357"
"SDGE","SGX258","4120.7","[object Object]","America/Los_Angeles","SC11","SDGE","4116","RCHSD","null","SOCC","San Diego Gas and Electric","ACTIVE","[object Object]","-116.50926","San Diego","CA","SGX","CA058","28723","139","Ranchita","[object Object],[object Object]","US","[object Object]","false","33.21024"
"SDGE","SGX243","488.8","[object Object]","America/Los_Angeles","SC08","SDGE","489","MIGSD","null","SOCC","San Diego Gas and Electric","ACTIVE","[object Object]","-116.98091","San Diego","CA","SGX","CA043","28724","139","San Miguel","[object Object],[object Object]","US","[object Object]","false","32.68478"
"SDGE","SGX250","1204.1","[object Object]","America/Los_Angeles","SC08","SDGE","1213","TLGSD","null","SOCC","San Diego Gas and Electric","ACTIVE","[object Object]","-117.48515","San Diego","CA","SGX","CA050","28725","139","Talega","[object Object],[object Object]","US","[object Object]","false","33.47846"
"SDGE","SGX250","1453.4","[object Object]","America/Los_Angeles","SC08","SDGE","1454","VLCSD","null","SOCC","San Diego Gas and Electric","ACTIVE","[object Object]","-117.00765","San Diego","CA","SGX","CA050","28726","139","Valley Center","[object Object],[object Object]","US","[object Object]","false","33.23567"
"SDGE","SGX250","741.5","[object Object]","America/Los_Angeles","SC08","SDGE","750","COCSD","null","SOCC","San Diego Gas and Electric","ACTIVE","[object Object]","-116.89553","San Diego","CA","SGX","CA050","28727","139","Los Coches","[object Object],[object Object]","US","[object Object]","false","32.85100"
"SDGE","SGX243","259.2","[object Object]","America/Los_Angeles","SC08","SDGE","252","RSFSD","null","SOCC","San Diego Gas and Electric","ACTIVE","[object Object]","-117.19461","San Diego","CA","SGX","CA043","28728","139","Rancho Santa Fe","[object Object],[object Object]","US","[object Object]","false","33.03636"
"SDGE","PSR232","652.9","[object Object]","America/Los_Angeles","SC11","SDGE","636","IMPSD","null","SOCC","San Diego Gas and Electric","ACTIVE","[object Object]","-116.03765","Imperial","CA","PSR","CA562","28729","139","Imperial Valley","[object Object],[object Object]","US","[object Object]","false","32.74489"
"SDGE","SGX262","3211.9","[object Object]","America/Los_Angeles","SC11","SDGE","3218","IKPSD","null","SOCC","San Diego Gas and Electric","ACTIVE","[object Object]","-116.11834","San Diego","CA","SGX","CA062","28730","139","In Ko Pah","[object Object],[object Object]","US","[object Object]","false","32.63601"
"SDGE","SGX250","1040","[object Object]","America/Los_Angeles","SC08","SDGE","1040","JAMSD","null","SOCC","San Diego Gas and Electric","ACTIVE","[object Object]","-116.86987","San Diego","CA","SGX","CA050","28731","139","Jamul","[object Object],[object Object]","US","[object Object]","false","32.71391"
"SDGE","SGX250","1023.6","[object Object]","America/Los_Angeles","SC08","SDGE","1021","SYCSD","null","SOCC","San Diego Gas and Electric","ACTIVE","[object Object]","-117.02959","San Diego","CA","SGX","CA050","28732","139","Sycamore Canyon","[object Object],[object Object]","US","[object Object]","false","32.91468"
"SDGE","SGX250","433.1","[object Object]","America/Los_Angeles","SC08","SDGE","436","ELMSD","null","SOCC","San Diego Gas and Electric","ACTIVE","[object Object]","-116.89600","San Diego","CA","SGX","CA050","28733","139","El Monte Road","[object Object],[object Object]","US","[object Object]","false","32.86707"
"SDGE","SGX250","675.9","[object Object]","America/Los_Angeles","SC08","SDGE","670","RIOSD","null","SOCC","San Diego Gas and Electric","ACTIVE","[object Object]","-116.88113","San Diego","CA","SGX","CA050","28734","139","Rios Canyon","[object Object],[object Object]","US","[object Object]","false","32.84329"
"SDGE","SGX258","3543.3","[object Object]","America/Los_Angeles","SC11","SDGE","3539","TDSSD","null","SOCC","San Diego Gas and Electric","ACTIVE","[object Object]","-116.34693","San Diego","CA","SGX","CA058","28735","139","Tierra Del Sol","[object Object],[object Object]","US","[object Object]","false","32.64455"
"SDGE","SGX250","1479.7","[object Object]","America/Los_Angeles","SC08","SDGE","1482","CSTSD","null","SOCC","San Diego Gas and Electric","ACTIVE","[object Object]","-116.85432","San Diego","CA","SGX","CA050","28736","139","Crest","[object Object],[object Object]","US","[object Object]","false","32.81150"
"SDGE","SGX258","3093.8","[object Object]","America/Los_Angeles","SC11","SDGE","3090","MORSD","null","SOCC","San Diego Gas and Electric","ACTIVE","[object Object]","-116.51244","San Diego","CA","SGX","CA058","28737","139","Morena","[object Object],[object Object]","US","[object Object]","false","32.68833"
"SDGE","SGX250","981","[object Object]","America/Los_Angeles","SC08","SDGE","991","HARSD","null","SOCC","San Diego Gas and Electric","ACTIVE","[object Object]","-116.82888","San Diego","CA","SGX","CA050","28738","139","Harbison Canyon","[object Object],[object Object]","US","[object Object]","false","32.82225"
"SDGE","SGX250","1164.7","[object Object]","America/Los_Angeles","SC08","SDGE","1168","BVYSD","null","SOCC","San Diego Gas and Electric","ACTIVE","[object Object]","-116.84305","San Diego","CA","SGX","CA050","28739","139","Blossom Valley","[object Object],[object Object]","US","[object Object]","false","32.86780"
"SDGE","SGX250","1729","[object Object]","America/Los_Angeles","SC08","SDGE","1731","SPPSD","null","SOCC","San Diego Gas and Electric","ACTIVE","[object Object]","-116.78931","San Diego","CA","SGX","CA050","28740","139","Spangler Peak","[object Object],[object Object]","US","[object Object]","false","32.99733"
"SDGE","SGX250","1322.2","[object Object]","America/Los_Angeles","SC08","SDGE","1316","BNASD","null","SOCC","San Diego Gas and Electric","ACTIVE","[object Object]","-116.87602","San Diego","CA","SGX","CA050","28741","139","Barona","[object Object],[object Object]","US","[object Object]","false","32.93442"
"SDGE","SGX250","524.9","[object Object]","America/Los_Angeles","SC08","SDGE","533","SVCSD","null","SOCC","San Diego Gas and Electric","ACTIVE","[object Object]","-116.95211","San Diego","CA","SGX","CA050","28742","139","San Vicente","[object Object],[object Object]","US","[object Object]","false","32.91248"
"SDGE","SGX250","1499.3","[object Object]","America/Los_Angeles","SC08","SDGE","1505","ARHSD","null","SOCC","San Diego Gas and Electric","ACTIVE","[object Object]","-116.95927","San Diego","CA","SGX","CA050","28743","139","Archie Moore","[object Object],[object Object]","US","[object Object]","false","33.04025"
"SDGE","SGX250","1361.5","[object Object]","America/Los_Angeles","SC08","SDGE","1365","HVYSD","null","SOCC","San Diego Gas and Electric","ACTIVE","[object Object]","-116.93604","San Diego","CA","SGX","CA050","28744","139","Highland Valley","[object Object],[object Object]","US","[object Object]","false","33.02931"
"SDGE","SGX250","1601","[object Object]","America/Los_Angeles","SC08","SDGE","1602","MGRSD","null","SOCC","San Diego Gas and Electric","ACTIVE","[object Object]","-116.90868","San Diego","CA","SGX","CA050","28745","139","Mussey Grade","[object Object],[object Object]","US","[object Object]","false","32.98635"
"SDGE","SGX250","1692.9","[object Object]","America/Los_Angeles","SC08","SDGE","1694","CGDSD","null","SOCC","San Diego Gas and Electric","ACTIVE","[object Object]","-117.01553","San Diego","CA","SGX","CA050","28746","139","Cole Grade","[object Object],[object Object]","US","[object Object]","false","33.28464"
"SDGE","SGX250","1286.1","[object Object]","America/Los_Angeles","SC08","SDGE","1304","LLCSD","null","SOCC","San Diego Gas and Electric","ACTIVE","[object Object]","-117.069299","San Diego","CA","SGX","CA050","28747","139","Lilac","[object Object],[object Object]","US","[object Object]","false","33.277111"
"SDGE","SGX250","2345.8","[object Object]","America/Los_Angeles","SC11","SDGE","2337","VJSSD","null","SOCC","San Diego Gas and Electric","ACTIVE","[object Object]","-116.70622","San Diego","CA","SGX","CA050","28748","139","Viejas","[object Object],[object Object]","US","[object Object]","false","32.84547"
"SDGE","SGX250","1820.9","[object Object]","America/Los_Angeles","SC08","SDGE","1835","PVDSD","null","SOCC","San Diego Gas and Electric","ACTIVE","[object Object]","-116.73408","San Diego","CA","SGX","CA050","28749","139","Palo Verde","[object Object],[object Object]","US","[object Object]","false","32.81310"
"SDGE","SGX250","1804.5","[object Object]","America/Los_Angeles","SC11","SDGE","1806","CRVSD","null","SOCC","San Diego Gas and Electric","ACTIVE","[object Object]","-116.72300","San Diego","CA","SGX","CA050","28750","139","Carveacre","[object Object],[object Object]","US","[object Object]","false","32.78356"
"SDGE","SGX250","1433.7","[object Object]","America/Los_Angeles","SC08","SDGE","1438","ESCSD","null","SOCC","San Diego Gas and Electric","ACTIVE","[object Object]","-117.05148","San Diego","CA","SGX","CA050","28751","139","Escondido","[object Object],[object Object]","US","[object Object]","false","33.17157"
"SDGE","SGX250","1683.1","[object Object]","America/Los_Angeles","SC08","SDGE","1686","LKWSD","null","SOCC","San Diego Gas and Electric","ACTIVE","[object Object]","-116.99561","San Diego","CA","SGX","CA050","28752","139","Lake Wohlford","[object Object],[object Object]","US","[object Object]","false","33.17818"
"SDGE","SGX250","2509.8","[object Object]","America/Los_Angeles","SC08","SDGE","2517","WCKSD","null","SOCC","San Diego Gas and Electric","ACTIVE","[object Object]","-116.73794","San Diego","CA","SGX","CA050","28753","139","Witch Creek","[object Object],[object Object]","US","[object Object]","false","33.07272"
"SDGE","SGX258","3697.5","[object Object]","America/Los_Angeles","SC11","SDGE","3706","BOCSD","null","SOCC","San Diego Gas and Electric","INACTIVE","[object Object]","-116.63668","San Diego","CA","SGX","CA058","28754","139","Boulder Creek","[object Object],[object Object]","US","[object Object]","false","32.94035"
"SDGE","SGX258","3333.3","[object Object]","America/Los_Angeles","SC11","SDGE","3342","MGDSD","null","SOCC","San Diego Gas and Electric","ACTIVE","[object Object]","-116.75928","San Diego","CA","SGX","CA058","28755","139","Mesa Grande","[object Object],[object Object]","US","[object Object]","false","33.16760"
"SDGE","SGX258","4114.2","[object Object]","America/Los_Angeles","SC11","SDGE","4088","CWDSD","null","SOCC","San Diego Gas and Electric","ACTIVE","[object Object]","-116.368300","San Diego","CA","SGX","CA058","28756","139","Crestwood","[object Object],[object Object]","US","[object Object]","false","32.700800"
"SDGE","SGX258","5032.8","[object Object]","America/Los_Angeles","SC11","SDGE","5037","LAGSD","null","SOCC","San Diego Gas and Electric","ACTIVE","[object Object]","-116.47223","San Diego","CA","SGX","CA058","28757","139","Laguna","[object Object],[object Object]","US","[object Object]","false","32.84530"
"SDGE","SGX258","4025.6","[object Object]","America/Los_Angeles","SC11","SDGE","4010","SRHSD","null","SOCC","San Diego Gas and Electric","ACTIVE","[object Object]","-116.50830","San Diego","CA","SGX","CA058","28758","139","Sunrise Hwy","[object Object],[object Object]","US","[object Object]","false","32.80849"
"SDGE","SGX258","2437.7","[object Object]","America/Los_Angeles","SC11","SDGE","2433","CPOSD","null","SOCC","San Diego Gas and Electric","ACTIVE","[object Object]","-116.49292","San Diego","CA","SGX","CA058","28759","139","Campo","[object Object],[object Object]","US","[object Object]","false","32.59898"
"SDGE","SGX250","2598.4","[object Object]","America/Los_Angeles","SC08","SDGE","2635","RPOSD","null","SOCC","San Diego Gas and Electric","ACTIVE","[object Object]","-116.63145","San Diego","CA","SGX","CA050","28760","139","Round Potrero","[object Object],[object Object]","US","[object Object]","false","32.64791"
"SDGE","SGX250","2299.9","[object Object]","America/Los_Angeles","SC11","SDGE","2302","WPTSD","null","SOCC","San Diego Gas and Electric","ACTIVE","[object Object]","-116.61333","San Diego","CA","SGX","CA050","28761","139","West Potrero","[object Object],[object Object]","US","[object Object]","false","32.61225"
"SDGE","SGX250","2378.6","[object Object]","America/Los_Angeles","SC08","SDGE","2385","DHVSD","null","SOCC","San Diego Gas and Electric","ACTIVE","[object Object]","-116.76221","San Diego","CA","SGX","CA050","28762","139","Deerhorn Valley","[object Object],[object Object]","US","[object Object]","false","32.68695"
"SDGE","SGX250","1801.2","[object Object]","America/Los_Angeles","SC08","SDGE","1818","LLDSD","null","SOCC","San Diego Gas and Electric","ACTIVE","[object Object]","-116.78876","San Diego","CA","SGX","CA050","28763","139","Loveland","[object Object],[object Object]","US","[object Object]","false","32.80831"
"SDGE","SGX250","1581.4","[object Object]","America/Los_Angeles","SC08","SDGE","1585","LSVSD","null","SOCC","San Diego Gas and Electric","ACTIVE","[object Object]","-116.82352","San Diego","CA","SGX","CA050","28764","139","Lawson Valley","[object Object],[object Object]","US","[object Object]","false","32.73594"
"SDGE","SGX250","754.6","[object Object]","America/Los_Angeles","SC08","SDGE","762","DEHSD","null","SOCC","San Diego Gas and Electric","ACTIVE","[object Object]","-116.83534","San Diego","CA","SGX","CA050","28765","139","Dehesa","[object Object],[object Object]","US","[object Object]","false","32.78691"
"SDGE","SGX554","1086","[object Object]","America/Los_Angeles","SC08","SDGE","1080","ORTSD","null","SOCC","San Diego Gas and Electric","ACTIVE","[object Object]","-117.51384","Orange","CA","SGX","CA554","28766","139","Ortega","[object Object],[object Object]","US","[object Object]","false","33.56957"
"SDGE","SGX250","1276.2","[object Object]","America/Los_Angeles","SC08","SDGE","1292","PTMSD","null","SOCC","San Diego Gas and Electric","ACTIVE","[object Object]","-117.08186","San Diego","CA","SGX","CA050","28767","139","Pala Temecula","[object Object],[object Object]","US","[object Object]","false","33.41921"
"SDGE","SGX250","613.5","[object Object]","America/Los_Angeles","SC08","SDGE","606","DLZSD","null","SOCC","San Diego Gas and Electric","ACTIVE","[object Object]","-117.29733","San Diego","CA","SGX","CA050","28768","139","De Luz","[object Object],[object Object]","US","[object Object]","false","33.45840"
"SDGE","SGX250","1056.4","[object Object]","America/Los_Angeles","SC08","SDGE","1058","RNBSD","null","SOCC","San Diego Gas and Electric","ACTIVE","[object Object]","-117.14413","San Diego","CA","SGX","CA050","28769","139","Rainbow","[object Object],[object Object]","US","[object Object]","false","33.41892"
"SDGE","SGX250","1768.4","[object Object]","America/Los_Angeles","SC08","SDGE","1752","RBHSD","null","SOCC","San Diego Gas and Electric","ACTIVE","[object Object]","-117.12369","San Diego","CA","SGX","CA050","28770","139","Rainbow Heights","[object Object],[object Object]","US","[object Object]","false","33.40561"
"SDGE","SGX250","1086","[object Object]","America/Los_Angeles","SC08","SDGE","1087","RBVSD","null","SOCC","San Diego Gas and Electric","ACTIVE","[object Object]","-117.170167","San Diego","CA","SGX","CA050","28771","139","Rainbow Valley","[object Object],[object Object]","US","[object Object]","false","33.401221"
"SDGE","SGX250","1023.6","[object Object]","America/Los_Angeles","SC08","SDGE","1017","KCKSD","null","SOCC","San Diego Gas and Electric","ACTIVE","[object Object]","-117.08583","San Diego","CA","SGX","CA050","28772","139","Keyes Creek","[object Object],[object Object]","US","[object Object]","false","33.31311"
"SDGE","SGX250","1423.9","[object Object]","America/Los_Angeles","SC08","SDGE","1423","HIDSD","null","SOCC","San Diego Gas and Electric","ACTIVE","[object Object]","-117.04609","San Diego","CA","SGX","CA050","28773","139","Hideaway Lake","[object Object],[object Object]","US","[object Object]","false","33.24001"
"SDGE","SGX250","1059.7","[object Object]","America/Los_Angeles","SC08","SDGE","1065","RINSD","null","SOCC","San Diego Gas and Electric","ACTIVE","[object Object]","-116.95642","San Diego","CA","SGX","CA050","28774","139","Rincon","[object Object],[object Object]","US","[object Object]","false","33.28779"
"SDGE","SGX258","2844.5","[object Object]","America/Los_Angeles","SC11","SDGE","2843","WARSD","null","SOCC","San Diego Gas and Electric","ACTIVE","[object Object]","-116.69729","San Diego","CA","SGX","CA058","28775","139","Warners","[object Object],[object Object]","US","[object Object]","false","33.24792"
"SDGE","SGX258","3799.2","[object Object]","America/Los_Angeles","SC11","SDGE","3810","COYSD","null","SOCC","San Diego Gas and Electric","ACTIVE","[object Object]","-116.58539","San Diego","CA","SGX","CA058","28776","139","Los Coyotes","[object Object],[object Object]","US","[object Object]","false","33.25823"
"SDGE","SGX258","2805.1","[object Object]","America/Los_Angeles","SC11","SDGE","2820","MGYSD","null","SOCC","San Diego Gas and Electric","ACTIVE","[object Object]","-116.69967","San Diego","CA","SGX","CA058","28777","139","Mataguay","[object Object],[object Object]","US","[object Object]","false","33.22330"
"SDGE","SGX554","354.3","[object Object]","America/Los_Angeles","SC08","SDGE","352","CRISD","null","SOCC","San Diego Gas and Electric","ACTIVE","[object Object]","-117.55057","Orange","CA","SGX","CA554","28778","139","Cristianitos","[object Object],[object Object]","US","[object Object]","false","33.47412"
"SDGE","SGX250","767.7","[object Object]","America/Los_Angeles","SC08","SDGE","767","TWOSD","null","SOCC","San Diego Gas and Electric","ACTIVE","[object Object]","-117.15301","San Diego","CA","SGX","CA050","28779","139","Twins Oaks","[object Object],[object Object]","US","[object Object]","false","33.19377"
"SDGE","SGX250","1236.9","[object Object]","America/Los_Angeles","SC08","SDGE","1233","TLKSD","null","SOCC","San Diego Gas and Electric","ACTIVE","[object Object]","-117.07575","San Diego","CA","SGX","CA050","28780","139","Turner Lake","[object Object],[object Object]","US","[object Object]","false","33.22613"
"SDGE","SGX250","669.3","[object Object]","America/Los_Angeles","SC08","SDGE","654","CIRSD","null","SOCC","San Diego Gas and Electric","ACTIVE","[object Object]","-117.14574","San Diego","CA","SGX","CA050","28781","139","Circle R","[object Object],[object Object]","US","[object Object]","false","33.28556"
"SDGE","SGX250","1364.8","[object Object]","America/Los_Angeles","SC08","SDGE","1361","HMDSD","null","SOCC","San Diego Gas and Electric","ACTIVE","[object Object]","-117.09415","San Diego","CA","SGX","CA050","28782","139","Hidden Meadows","[object Object],[object Object]","US","[object Object]","false","33.22651"
"SDGE","SGX250","397","[object Object]","America/Los_Angeles","SC08","SDGE","411","PAUSD","null","SOCC","San Diego Gas and Electric","ACTIVE","[object Object]","-117.07894","San Diego","CA","SGX","CA050","28783","139","Pauma Valley","[object Object],[object Object]","US","[object Object]","false","33.37111"
"SDGE","SGX250","1804.5","[object Object]","America/Los_Angeles","SC08","SDGE","1849","CESSD","null","SOCC","San Diego Gas and Electric","ACTIVE","[object Object]","-116.79285","San Diego","CA","SGX","CA050","28784","139","Country Estates","[object Object],[object Object]","US","[object Object]","false","33.02870"
"SDGE","SGX250","1437","[object Object]","America/Los_Angeles","SC08","SDGE","1441","CLMSD","null","SOCC","San Diego Gas and Electric","ACTIVE","[object Object]","-116.87093","San Diego","CA","SGX","CA050","28785","139","Creelman","[object Object],[object Object]","US","[object Object]","false","33.01569"
"SDGE","SGX258","4124","[object Object]","America/Los_Angeles","SC11","SDGE","4125","WYNSD","null","SOCC","San Diego Gas and Electric","ACTIVE","[object Object]","-116.60244","San Diego","CA","SGX","CA058","28786","139","Wynola","[object Object],[object Object]","US","[object Object]","false","33.10464"
"SDGE","SGX250","741.5","[object Object]","America/Los_Angeles","SC08","SDGE","746","PMASD","null","SOCC","San Diego Gas and Electric","ACTIVE","[object Object]","-117.00349","San Diego","CA","SGX","CA050","28787","139","Pauma","[object Object],[object Object]","US","[object Object]","false","33.31236"
"SDGE","SGX250","938.3","[object Object]","America/Los_Angeles","SC08","SDGE","941","FBKSD","null","SOCC","San Diego Gas and Electric","ACTIVE","[object Object]","-117.16740","San Diego","CA","SGX","CA050","28788","139","Fallbrook","[object Object],[object Object]","US","[object Object]","false","33.35467"
"SDGE","SGX250","928.5","[object Object]","America/Los_Angeles","SC08","SDGE","925","RCRSD","null","SOCC","San Diego Gas and Electric","ACTIVE","[object Object]","-116.95705","San Diego","CA","SGX","CA050","28789","139","Rincon Reservation","[object Object],[object Object]","US","[object Object]","false","33.25147"
"SDGE","SGX250","1824.1","[object Object]","America/Los_Angeles","SC08","SDGE","1835","FTVSD","null","SOCC","San Diego Gas and Electric","ACTIVE","[object Object]","-116.98201","San Diego","CA","SGX","CA050","28790","139","Fruitvale","[object Object],[object Object]","US","[object Object]","false","33.25614"
"SDGE","SGX250","1502.6","[object Object]","America/Los_Angeles","SC08","SDGE","1514","RAMSD","null","SOCC","San Diego Gas and Electric","ACTIVE","[object Object]","-116.85802","San Diego","CA","SGX","CA050","28791","139","Ramona","[object Object],[object Object]","US","[object Object]","false","33.07300"
"SDGE","SGX250","2319.6","[object Object]","America/Los_Angeles","SC08","SDGE","2337","SSOSD","null","SOCC","San Diego Gas and Electric","ACTIVE","[object Object]","-116.81370","San Diego","CA","SGX","CA050","28792","139","Sunset Oaks","[object Object],[object Object]","US","[object Object]","false","33.07452"
"SDGE","SGX250","839.9","[object Object]","America/Los_Angeles","SC08","SDGE","863","OTYSD","null","SOCC","San Diego Gas and Electric","ACTIVE","[object Object]","-116.92783","San Diego","CA","SGX","CA050","28793","139","Otay","[object Object],[object Object]","US","[object Object]","false","32.72022"
"SDGE","SGX250","1893","[object Object]","America/Los_Angeles","SC08","SDGE","1897","BLCSD","null","SOCC","San Diego Gas and Electric","ACTIVE","[object Object]","-116.82758","San Diego","CA","SGX","CA050","28794","139","Black Canyon","[object Object],[object Object]","US","[object Object]","false","33.09856"
"SDGE","SGX250","1568.2","[object Object]","America/Los_Angeles","SC08","SDGE","1577","WALSD","null","SOCC","San Diego Gas and Electric","ACTIVE","[object Object]","-116.79952","San Diego","CA","SGX","CA050","28795","139","West Alpine","[object Object],[object Object]","US","[object Object]","false","32.83010"
"SDGE","SGX258","3654.9","[object Object]","America/Los_Angeles","SC11","SDGE","3404","BVDSD","null","SOCC","San Diego Gas and Electric","ACTIVE","[object Object]","-116.28888","San Diego","CA","SGX","CA058","28901","139","Boulevard West","[object Object],[object Object]","US","[object Object]","false","32.66213"
"SDGE","SGX258","3028.2","[object Object]","America/Los_Angeles","SC11","SDGE","3028","YSASD","null","SOCC","San Diego Gas and Electric","ACTIVE","[object Object]","-116.67168","San Diego","CA","SGX","CA058","28902","139","Santa Ysabel North","[object Object],[object Object]","US","[object Object]","false","33.11317"
"SDGE","SGX250","652.9","[object Object]","America/Los_Angeles","SC08","SDGE","657","AVOSD","null","SOCC","San Diego Gas and Electric","ACTIVE","[object Object]","-117.25465","San Diego","CA","SGX","CA050","31034","139","Avocado","[object Object],[object Object]","US","[object Object]","false","33.39255"
"SDGE","SGX258","3264.4","[object Object]","America/Los_Angeles","SC11","SDGE","3253","BMSSD","null","SOCC","San Diego Gas and Electric","ACTIVE","[object Object]","-116.48866","San Diego","CA","SGX","CA058","31035","139","Buckman Springs","[object Object],[object Object]","US","[object Object]","false","32.76188"
"SDGE","SGX250","1187.7","[object Object]","America/Los_Angeles","SC11","SDGE","1207","BRJSD","null","SOCC","San Diego Gas and Electric","ACTIVE","[object Object]","-116.68458","San Diego","CA","SGX","CA050","31036","139","Barrett Junction","[object Object],[object Object]","US","[object Object]","false","32.60177"
"SDGE","SGX250","2529.5","[object Object]","America/Los_Angeles","SC08","SDGE","2513","CCRSD","null","SOCC","San Diego Gas and Electric","ACTIVE","[object Object]","-116.912993","San Diego","CA","SGX","CA050","31037","139","Cuca Ranch","[object Object],[object Object]","US","[object Object]","false","33.301305"
"SDGE","SGX250","1443.6","[object Object]","America/Los_Angeles","SC08","SDGE","1449","DZRSD","null","SOCC","San Diego Gas and Electric","ACTIVE","[object Object]","-116.75807","San Diego","CA","SGX","CA050","31038","139","Dulzura","[object Object],[object Object]","US","[object Object]","false","32.61490"
"SDGE","SGX258","3881.2","[object Object]","America/Los_Angeles","SC11","SDGE","3903","GTYSD","null","SOCC","San Diego Gas and Electric","ACTIVE","[object Object]","-116.57427","San Diego","CA","SGX","CA058","31039","139","Guatay","[object Object],[object Object]","US","[object Object]","false","32.85524"
"SDGE","SGX258","4012.5","[object Object]","America/Los_Angeles","SC11","SDGE","4012","LPTSD","null","SOCC","San Diego Gas and Electric","INACTIVE","[object Object]","-116.40482","San Diego","CA","SGX","CA058","31040","139","La Posta","[object Object],[object Object]","US","[object Object]","false","32.71158"
"SDGE","SGX258","2867.5","[object Object]","America/Los_Angeles","SC11","SDGE","2859","CMCSD","null","SOCC","San Diego Gas and Electric","ACTIVE","[object Object]","-116.49688","San Diego","CA","SGX","CA058","31071","139","Cameron Corners","[object Object],[object Object]","US","[object Object]","false","32.64739"
"SDGE","SGX258","4852.4","[object Object]","America/Los_Angeles","SC11","SDGE","4868","HRPSD","null","SOCC","San Diego Gas and Electric","ACTIVE","[object Object]","-116.56062","San Diego","CA","SGX","CA058","31072","139","Harrison Park","[object Object],[object Object]","US","[object Object]","false","33.03958"
"SDGE","SGX258","4799.9","[object Object]","America/Los_Angeles","SC11","SDGE","4800","LCMSD","null","SOCC","San Diego Gas and Electric","ACTIVE","[object Object]","-116.59517","San Diego","CA","SGX","CA058","31073","139","Lake Cuyamaca","[object Object],[object Object]","US","[object Object]","false","32.99738"
"SDGE","SGX258","4773.6","[object Object]","America/Los_Angeles","SC11","SDGE","4740","LFRSD","null","SOCC","San Diego Gas and Electric","ACTIVE","[object Object]","-116.528","San Diego","CA","SGX","CA058","31074","139","Lucky Five Ranch","[object Object],[object Object]","US","[object Object]","false","32.9331"
"SDGE","SGX250","1837.3","[object Object]","America/Los_Angeles","SC08","SDGE","1813","NHGSD","null","SOCC","San Diego Gas and Electric","ACTIVE","[object Object]","-116.96190","San Diego","CA","SGX","CA050","31075","139","Nate Harrison Grade","[object Object],[object Object]","US","[object Object]","false","33.32223"
"SDGE","SGX250","3336.6","[object Object]","America/Los_Angeles","SC08","SDGE","3361","OTMSD","null","SOCC","San Diego Gas and Electric","ACTIVE","[object Object]","-116.84342","San Diego","CA","SGX","CA050","31076","139","Otay Mountain","[object Object],[object Object]","US","[object Object]","false","32.59926"
"SDGE","SGX258","2897","[object Object]","America/Los_Angeles","SC11","SDGE","2887","STTSD","null","SOCC","San Diego Gas and Electric","ACTIVE","[object Object]","-116.42356","San Diego","CA","SGX","CA058","31077","139","Shockey Truck Trail","[object Object],[object Object]","US","[object Object]","false","32.63393"
"SDGE","SGX250","2221.1","[object Object]","America/Los_Angeles","SC11","SDGE","2236","SVLSD","null","SOCC","San Diego Gas and Electric","ACTIVE","[object Object]","-116.70239","San Diego","CA","SGX","CA050","31078","139","Skye Valley","[object Object],[object Object]","US","[object Object]","false","32.72077"
"SDGE","SGX258","3910.8","[object Object]","America/Los_Angeles","SC11","SDGE","3877","WDCSD","null","SOCC","San Diego Gas and Electric","ACTIVE","[object Object]","-116.62993","San Diego","CA","SGX","CA058","31079","139","West Descanso","[object Object],[object Object]","US","[object Object]","false","32.85019"
"SDGE","SGX250","748","[object Object]","America/Los_Angeles","SC08","SDGE","744","WRBSD","null","SOCC","San Diego Gas and Electric","ACTIVE","[object Object]","-117.12233","San Diego","CA","SGX","CA050","31080","139","West Rancho Bernardo","[object Object],[object Object]","US","[object Object]","false","33.03120"
"SDGE","SGX258","3307.1","[object Object]","America/Los_Angeles","SC11","SDGE","3305","WSYSD","null","SOCC","San Diego Gas and Electric","ACTIVE","[object Object]","-116.68974","San Diego","CA","SGX","CA058","31081","139","West Santa Ysabel","[object Object],[object Object]","US","[object Object]","false","33.0868"
"SDGE","SGX258","4357","[object Object]","America/Los_Angeles","SC11","SDGE","4358","CHHSD","null","SOCC","San Diego Gas and Electric","ACTIVE","[object Object]","-116.66077","San Diego","CA","SGX","CA058","31163","139","Chihuahua Valley","[object Object],[object Object]","US","[object Object]","false","33.38622"
"SDGE","SGX258","3996.1","[object Object]","America/Los_Angeles","SC11","SDGE","4009","CTMSD","null","SOCC","San Diego Gas and Electric","ACTIVE","[object Object]","-116.54971","San Diego","CA","SGX","CA058","31164","139","Corte Madera","[object Object],[object Object]","US","[object Object]","false","32.78287"
"SDGE","SGX258","3234.9","[object Object]","America/Los_Angeles","SC11","SDGE","3242","EWNSD","null","SOCC","San Diego Gas and Electric","ACTIVE","[object Object]","-116.62074","San Diego","CA","SGX","CA058","31165","139","East Warners","[object Object],[object Object]","US","[object Object]","false","33.22648"
"SDGE","SGX250","406.8","[object Object]","America/Los_Angeles","SC08","SDGE","417","HDMSD","null","SOCC","San Diego Gas and Electric","ACTIVE","[object Object]","-117.13483","San Diego","CA","SGX","CA050","31166","139","Hodges Dam","[object Object],[object Object]","US","[object Object]","false","33.04294"
"SDGE","SGX258","3244.8","[object Object]","America/Los_Angeles","SC11","SDGE","3248","NBCSD","null","SOCC","San Diego Gas and Electric","INACTIVE","[object Object]","-116.66323","San Diego","CA","SGX","CA058","31167","139","North Boulder Creek","[object Object],[object Object]","US","[object Object]","false","32.98037"
"SDGE","SGX258","3336.6","[object Object]","America/Los_Angeles","SC11","SDGE","3378","NDCSD","null","SOCC","San Diego Gas and Electric","ACTIVE","[object Object]","-116.64653","San Diego","CA","SGX","CA058","31168","139","North Descanso","[object Object],[object Object]","US","[object Object]","false","32.88323"
"SDGE","SGX250","2519.7","[object Object]","America/Los_Angeles","SC11","SDGE","2535","NPTSD","null","SOCC","San Diego Gas and Electric","ACTIVE","[object Object]","-116.58486","San Diego","CA","SGX","CA050","31169","139","North Potrero","[object Object],[object Object]","US","[object Object]","false","32.62981"
"SDGE","SGX262","987.5","[object Object]","America/Los_Angeles","SC11","SDGE","978","NRWSD","null","SOCC","San Diego Gas and Electric","ACTIVE","[object Object]","-116.29431","San Diego","CA","SGX","CA062","31170","139","Narrows Sub","[object Object],[object Object]","US","[object Object]","false","33.13714"
"SDGE","SGX250","1164.7","[object Object]","America/Los_Angeles","SC08","SDGE","1167","OLVSD","null","SOCC","San Diego Gas and Electric","ACTIVE","[object Object]","-117.12961","San Diego","CA","SGX","CA050","31171","139","Olivenhain","[object Object],[object Object]","US","[object Object]","false","33.08014"
"SDGE","SGX258","3261.2","[object Object]","America/Los_Angeles","SC11","SDGE","3268","SSSSD","null","SOCC","San Diego Gas and Electric","ACTIVE","[object Object]","-116.73171","San Diego","CA","SGX","CA058","31172","139","Sunshine Summit","[object Object],[object Object]","US","[object Object]","false","33.34320"
"SDGE","SGX250","2936.4","[object Object]","America/Los_Angeles","SC11","SDGE","2943","SYRSD","null","SOCC","San Diego Gas and Electric","ACTIVE","[object Object]","-116.686","San Diego","CA","SGX","CA050","31173","139","Santa Ysabel Ranch","[object Object],[object Object]","US","[object Object]","false","33.1322"
"SDGE","SGX250","2532.8","[object Object]","America/Los_Angeles","SC08","SDGE","2529","WCVSD","null","SOCC","San Diego Gas and Electric","ACTIVE","[object Object]","-116.76183","San Diego","CA","SGX","CA050","31174","139","Wisecarver","[object Object],[object Object]","US","[object Object]","false","32.73277"
"SDGE","SGX258","3599.1","[object Object]","America/Los_Angeles","SC11","SDGE","3593","WWYSD","null","SOCC","San Diego Gas and Electric","ACTIVE","[object Object]","-116.65293","San Diego","CA","SGX","CA058","31175","139","West Wynola","[object Object],[object Object]","US","[object Object]","false","33.10511"
"SDGE","SGX262","534.8","[object Object]","America/Los_Angeles","SC12","SDGE","544","BRGSD","null","SOCC","San Diego Gas and Electric","ACTIVE","[object Object]","-116.34817","San Diego","CA","SGX","CA062","31639","139","Borrego","[object Object],[object Object]","US","[object Object]","false","33.26246"
"SDGE","SGX243","328.1","[object Object]","America/Los_Angeles","SC08","SDGE","371","MSDSD","null","SOCC","San Diego Gas and Electric","ACTIVE","[object Object]","-117.24086","San Diego","CA","SGX","CA043","31640","139","Mt. Soledad","[object Object],[object Object]","US","[object Object]","false","32.81417"
"SDGE","SGX243","265.7","[object Object]","America/Los_Angeles","SC08","SDGE","264","MVNSD","null","SOCC","San Diego Gas and Electric","ACTIVE","[object Object]","-117.13757","San Diego","CA","SGX","CA043","31641","139","Mission Valley North","[object Object],[object Object]","US","[object Object]","false","32.78141"
"SDGE","SGX243","275.6","[object Object]","America/Los_Angeles","SC08","SDGE","302","DMHSD","null","SOCC","San Diego Gas and Electric","ACTIVE","[object Object]","-117.22284","San Diego","CA","SGX","CA043","31642","139","Del Mar Heights","[object Object],[object Object]","US","[object Object]","false","32.96404"
"SDGE","SGX250","1919.3","[object Object]","America/Los_Angeles","SC08","SDGE","1925","BRMSD","null","SOCC","San Diego Gas and Electric","ACTIVE","[object Object]","-116.78030","San Diego","CA","SGX","CA050","34145","139","Barona Mesa","[object Object],[object Object]","US","[object Object]","false","32.97770"
"SDGE","SGX250","1148.3","[object Object]","America/Los_Angeles","SC08","SDGE","1139","HVWSD","null","SOCC","San Diego Gas and Electric","ACTIVE","[object Object]","-116.99011","San Diego","CA","SGX","CA050","34146","139","Highland Valley West","[object Object],[object Object]","US","[object Object]","false","33.06714"
"SDGE","SGX258","3067.6","[object Object]","America/Los_Angeles","SC11","SDGE","3048","HTRSD","null","SOCC","San Diego Gas and Electric","INACTIVE","[object Object]","-116.65220","San Diego","CA","SGX","CA058","34147","139","Horsethief Ridge","[object Object],[object Object]","US","[object Object]","false","32.78490"
"SDGE","SGX258","3313.6","[object Object]","America/Los_Angeles","SC11","SDGE","3314","IJPSD","null","SOCC","San Diego Gas and Electric","INACTIVE","[object Object]","-116.66570","San Diego","CA","SGX","CA058","34148","139","Inaja Park","[object Object],[object Object]","US","[object Object]","false","33.09503"
"SDGE","SGX250","2844.5","[object Object]","America/Los_Angeles","SC11","SDGE","2834","JVRSD","null","SOCC","San Diego Gas and Electric","ACTIVE","[object Object]","-116.66790","San Diego","CA","SGX","CA050","34149","139","Japatul Valley Rd","[object Object],[object Object]","US","[object Object]","false","32.77570"
"SDGE","SGX250","416.7","[object Object]","America/Los_Angeles","SC08","SDGE","421","SPVSD","null","SOCC","San Diego Gas and Electric","ACTIVE","[object Object]","-116.95480","San Diego","CA","SGX","CA050","34150","139","San Pasqual Valley","[object Object],[object Object]","US","[object Object]","false","33.09300"
"SDGE","SGX258","5301.8","[object Object]","America/Los_Angeles","SC11","SDGE","5327","VCMSD","null","SOCC","San Diego Gas and Electric","ACTIVE","[object Object]","-116.57924","San Diego","CA","SGX","CA058","34576","139","Volcan Mountain","[object Object],[object Object]","US","[object Object]","false","33.10159"
"SDGE","SGX258","5567.6","[object Object]","America/Los_Angeles","SC11","SDGE","5155","CLNSD","null","SOCC","San Diego Gas and Electric","ACTIVE","[object Object]","-116.854808","San Diego","CA","SGX","CA058","34577","139","Crestline","[object Object],[object Object]","US","[object Object]","false","33.30793"
"SDGE","SGX250","895.7","[object Object]","America/Los_Angeles","SC08","SDGE","902","MTLSD","null","SOCC","San Diego Gas and Electric","ACTIVE","[object Object]","-117.056411","San Diego","CA","SGX","CA050","34578","139","Mission Trails","[object Object],[object Object]","US","[object Object]","false","32.842286"
"SDGE","SGX250","2979","[object Object]","America/Los_Angeles","SC08","SDGE","2998","DYESD","null","SOCC","San Diego Gas and Electric","ACTIVE","[object Object]","-116.709897","San Diego","CA","SGX","CA050","34579","139","Dye Mountain","[object Object],[object Object]","US","[object Object]","false","33.068817"
"SDGE","SGX258","3549.9","[object Object]","America/Los_Angeles","SC11","SDGE","3556","SILSD","null","SOCC","San Diego Gas and Electric","ACTIVE","[object Object]","-116.642846","San Diego","CA","SGX","CA058","34693","139","Sill Hill","[object Object],[object Object]","US","[object Object]","false","32.954055"
"SDGE","SGX243","554.5","[object Object]","America/Los_Angeles","SC08","SDGE","566","OMBSD","null","SOCC","San Diego Gas and Electric","ACTIVE","[object Object]","-116.900453","San Diego","CA","SGX","CA043","34694","139","Otay Mesa Border","[object Object],[object Object]","US","[object Object]","false","32.558135"
"SDGE","SGX250","1994.8","[object Object]","America/Los_Angeles","SC11","SDGE","2001","HHCSD","null","SOCC","San Diego Gas and Electric","ACTIVE","[object Object]","-116.92354","San Diego","CA","SGX","CA050","35774","139","Hellhole Canyon","[object Object],[object Object]","US","[object Object]","false","33.22441"
"SDGE","SGX554","820.2","[object Object]","America/Los_Angeles","SC08","SDGE","824","SCRSD","null","SOCC","San Diego Gas and Electric","ACTIVE","[object Object]","-117.58988","Orange","CA","SGX","CA554","35775","139","San Clemente Ridge","[object Object],[object Object]","US","[object Object]","false","33.43622"
"SDGE","SGX243","68.9","[object Object]","America/Los_Angeles","SC08","SDGE","72","CBDSD","null","SOCC","San Diego Gas and Electric","ACTIVE","[object Object]","-117.32715","San Diego","CA","SGX","CA043","35776","139","Carlsbad","[object Object],[object Object]","US","[object Object]","false","33.13737"
"SDGE","SGX243","0","[object Object]","America/Los_Angeles","SC08","SDGE","13","SOBSD","null","SOCC","San Diego Gas and Electric","ACTIVE","[object Object]","-117.27623","San Diego","CA","SGX","CA043","35777","139","Solana Beach","[object Object],[object Object]","US","[object Object]","false","33.00731"
"SDGE","SGX258","4307.7","[object Object]","America/Los_Angeles","SC11","SDGE","4284","SHCSD","null","SOCC","San Diego Gas and Electric","ACTIVE","[object Object]","-116.64126","San Diego","CA","SGX","CA058","41898","139","School House Canyon","[object Object],[object Object]","US","[object Object]","false","33.14563"
"SDGE","SGX258","3248","[object Object]","America/Los_Angeles","SC11","SDGE","3236","VGDSD","null","SOCC","San Diego Gas and Electric","ACTIVE","[object Object]","-116.66234","San Diego","CA","SGX","CA058","41899","139","Viejas Grade","[object Object],[object Object]","US","[object Object]","false","32.86402"
"SDGE","SGX250","1017.1","[object Object]","America/Los_Angeles","SC08","SDGE","1010","POVSD","null","SOCC","San Diego Gas and Electric","ACTIVE","[object Object]","-116.84805","San Diego","CA","SGX","CA050","41900","139","Pamo Valley","[object Object],[object Object]","US","[object Object]","false","33.14342"
"SDGE","SGX250","2739.5","[object Object]","America/Los_Angeles","SC11","SDGE","2731","EWRSD","null","SOCC","San Diego Gas and Electric","ACTIVE","[object Object]","-116.68253","San Diego","CA","SGX","CA050","41969","139","East Willows Rd","[object Object],[object Object]","US","[object Object]","false","32.83698"
"SDGE","SGX258","3736.9","[object Object]","America/Los_Angeles","SC11","SDGE","3738","HOSSD","null","SOCC","San Diego Gas and Electric","ACTIVE","[object Object]","-116.65725","San Diego","CA","SGX","CA058","41970","139","Hoskings Ranch","[object Object],[object Object]","US","[object Object]","false","33.08265"
"SDGE","SGX250","2178.5","[object Object]","America/Los_Angeles","SC08","SDGE","2196","RHSSD","null","SOCC","San Diego Gas and Electric","ACTIVE","[object Object]","-117.05716","San Diego","CA","SGX","CA050","44633","139","Rancho Heights","[object Object],[object Object]","US","[object Object]","false","33.41121"
"SDGE","SGX250","2578.7","[object Object]","America/Los_Angeles","SC08","SDGE","2604","STVSD","null","SOCC","San Diego Gas and Electric","ACTIVE","[object Object]","-116.76175","San Diego","CA","SGX","CA050","44634","139","Santa Teresa Valley","[object Object],[object Object]","US","[object Object]","false","33.06877"
"SDGE","SGX250","2244.1","[object Object]","America/Los_Angeles","SC11","SDGE","2262","LCKSD","null","SOCC","San Diego Gas and Electric","ACTIVE","[object Object]","-116.73212","San Diego","CA","SGX","CA050","44635","139","Lawson Creek","[object Object],[object Object]","US","[object Object]","false","32.74333"
"SDGE","SGX250","1030.2","[object Object]","America/Los_Angeles","SC08","SDGE","1032","PCKSD","null","SOCC","San Diego Gas and Electric","ACTIVE","[object Object]","-116.98093","San Diego","CA","SGX","CA050","44636","139","Pauma Creek","[object Object],[object Object]","US","[object Object]","false","33.32888"
"SDGE","SGX250","1604.3","[object Object]","America/Los_Angeles","SC08","SDGE","1602","PTZSD","null","SOCC","San Diego Gas and Electric","ACTIVE","[object Object]","-116.76796","San Diego","CA","SGX","CA050","44637","139","Peutz Valley","[object Object],[object Object]","US","[object Object]","false","32.85940"
"SDGE","SGX243","134.5","[object Object]","America/Los_Angeles","SC08","SDGE","134","CVXSD","null","SOCC","San Diego Gas and Electric","ACTIVE","[object Object]","-117.05801","San Diego","CA","SGX","CA043","44638","139","Chula Vista","[object Object],[object Object]","US","[object Object]","false","32.60159"
"SDGE","SGX250","439.6","[object Object]","America/Los_Angeles","SC08","SDGE","436","ECJSD","null","SOCC","San Diego Gas and Electric","ACTIVE","[object Object]","-116.97274","San Diego","CA","SGX","CA050","44639","139","El Cajon","[object Object],[object Object]","US","[object Object]","false","32.79547"
"SDGE","SGX243","400.3","[object Object]","America/Los_Angeles","SC08","SDGE","409","LJHSD","null","SOCC","San Diego Gas and Electric","ACTIVE","[object Object]","-117.23973","San Diego","CA","SGX","CA043","44640","139","La Jolla Heights","[object Object],[object Object]","US","[object Object]","false","32.84426"
"SDGE","SGX250","833.3","[object Object]","America/Los_Angeles","SC08","SDGE","830","RPQSD","null","SOCC","San Diego Gas and Electric","ACTIVE","[object Object]","-117.11731","San Diego","CA","SGX","CA050","44641","139","Rancho Penasquitos","[object Object],[object Object]","US","[object Object]","false","32.97163"
"SDGE","SGX243","262.5","[object Object]","America/Los_Angeles","SC08","SDGE","273","TCNSD","null","SOCC","San Diego Gas and Electric","ACTIVE","[object Object]","-117.18410","San Diego","CA","SGX","CA043","44642","139","Tecolote Canyon","[object Object],[object Object]","US","[object Object]","false","32.79116"
"SDGE","SGX243","344.5","[object Object]","America/Los_Angeles","SC08","SDGE","337","VISSD","null","SOCC","San Diego Gas and Electric","ACTIVE","[object Object]","-117.25390","San Diego","CA","SGX","CA043","44643","139","Vista","[object Object],[object Object]","US","[object Object]","false","33.20547"
"SDGE","SGX250","534.8","[object Object]","America/Los_Angeles","SC08","SDGE","531","SMCSD","null","SOCC","San Diego Gas and Electric","ACTIVE","[object Object]","-117.19226","San Diego","CA","SGX","CA050","44644","139","San Marcos","[object Object],[object Object]","US","[object Object]","false","33.12903"
"SDGE","SGX250","899","[object Object]","America/Los_Angeles","SC08","SDGE","896","RCESD","null","SOCC","San Diego Gas and Electric","ACTIVE","[object Object]","-116.94604","San Diego","CA","SGX","CA050","44648","139","Rincon Central","[object Object],[object Object]","US","[object Object]","false","33.27067"
"SDGE","SGX250","1791.3","[object Object]","America/Los_Angeles","SC08","SDGE","1807","SQTSD","null","SOCC","San Diego Gas and Electric","ACTIVE","[object Object]","-116.77925","San Diego","CA","SGX","CA050","44704","139","Sequan Truck Trail","[object Object],[object Object]","US","[object Object]","false","32.79767"
"SDGE","SGX250","790.7","[object Object]","America/Los_Angeles","SC08","SDGE","771","POWSD","null","SOCC","San Diego Gas and Electric","ACTIVE","[object Object]","-117.03985","San Diego","CA","SGX","CA050","44821","139","Poway","[object Object],[object Object]","US","[object Object]","false","32.98202"
"SDGE","SGX243","13.1","[object Object]","America/Los_Angeles","SC08","SDGE","12","NATSD","null","SOCC","San Diego Gas and Electric","ACTIVE","[object Object]","-117.09669","San Diego","CA","SGX","CA043","44822","139","National City","[object Object],[object Object]","US","[object Object]","false","32.65434"
"SDGE","SGX258","3405.5","[object Object]","America/Los_Angeles","SC11","SDGE","3394","SWRSD","null","SOCC","San Diego Gas and Electric","ACTIVE","[object Object]","-116.62835","San Diego","CA","SGX","CA058","44823","139","Sweetwater River","[object Object],[object Object]","US","[object Object]","false","32.83174"
"SDGE","SGX250","2440.9","[object Object]","America/Los_Angeles","SC11","SDGE","2471","POMSD","null","SOCC","San Diego Gas and Electric","ACTIVE","[object Object]","-116.87322","San Diego","CA","SGX","CA050","46166","139","Poomacha","[object Object],[object Object]","US","[object Object]","false","33.27618"
"SDGE","SGX243","482.3","[object Object]","America/Los_Angeles","SC08","SDGE","448","CHOSD","null","SOCC","San Diego Gas and Electric","ACTIVE","[object Object]","-117.06659","San Diego","CA","SGX","CA043","46167","139","Chollas Lake","[object Object],[object Object]","US","[object Object]","false","32.73604"
"SDGE","SGX243","315","[object Object]","America/Los_Angeles","SC08","SDGE","328","BFDSD","null","SOCC","San Diego Gas and Electric","ACTIVE","[object Object]","-117.09673","San Diego","CA","SGX","CA043","46168","139","Border Field","[object Object],[object Object]","US","[object Object]","false","32.54197"
"SDGE","SGX258","3953.4","[object Object]","America/Los_Angeles","SC11","SDGE","3939","PIVSD","null","SOCC","San Diego Gas and Electric","ACTIVE","[object Object]","-116.52085","San Diego","CA","SGX","CA058","47139","139","Pine Valley","[object Object],[object Object]","US","[object Object]","false","32.81744"
"SDGE","SGX250","2667.3","[object Object]","America/Los_Angeles","SC08","SDGE","2667","AVYSD","null","SOCC","San Diego Gas and Electric","ACTIVE","[object Object]","-116.74797","San Diego","CA","SGX","CA050","47140","139","Anderson Valley","[object Object],[object Object]","US","[object Object]","false","32.86468"
"SDGE","SGX258","3605.6","[object Object]","America/Los_Angeles","SC11","SDGE","3609","SHVSD","null","SOCC","San Diego Gas and Electric","INACTIVE","[object Object]","-116.62022","San Diego","CA","SGX","CA058","47141","139","Sherilton Valley","[object Object],[object Object]","US","[object Object]","false","32.91448"
"SDGE","SGX250","2185","[object Object]","America/Los_Angeles","SC08","SDGE","2210","ROCSD","null","SOCC","San Diego Gas and Electric","ACTIVE","[object Object]","-116.96861","San Diego","CA","SGX","CA050","71640","139","Rockwood","[object Object],[object Object]","US","[object Object]","false","33.14219"
"SDGE","SGX250","2319.6","[object Object]","America/Los_Angeles","SC08","SDGE","2321","VICSD","null","SOCC","San Diego Gas and Electric","ACTIVE","[object Object]","-116.75248","San Diego","CA","SGX","CA050","71641","139","Victoria","[object Object],[object Object]","US","[object Object]","false","32.84564"
"SDGE","SGX250","1929.1","[object Object]","America/Los_Angeles","SC08","SDGE","1924","GURSD","null","SOCC","San Diego Gas and Electric","ACTIVE","[object Object]","-116.95466","San Diego","CA","SGX","CA050","71782","139","Guejito Ranch","[object Object],[object Object]","US","[object Object]","false","33.16673"
"SDGE","SGX250","2637.8","[object Object]","America/Los_Angeles","SC08","SDGE","2630","VMTSD","null","SOCC","San Diego Gas and Electric","ACTIVE","[object Object]","-116.74240","San Diego","CA","SGX","CA050","71783","139","Viejas Mtn Trail","[object Object],[object Object]","US","[object Object]","false","32.85393"
"SDGE","SGX250","1837.3","[object Object]","America/Los_Angeles","SC08","SDGE","1848","LHCSD","null","SOCC","San Diego Gas and Electric","ACTIVE","[object Object]","-116.95927","San Diego","CA","SGX","CA050","71796","139","Lower Hellhole Canyon","[object Object],[object Object]","US","[object Object]","false","33.22037"
"SDGE","SGX250","695.5","[object Object]","America/Los_Angeles","SC08","SDGE","699","MCNSD","null","SOCC","San Diego Gas and Electric","ACTIVE","[object Object]","-117.04018","San Diego","CA","SGX","CA050","71837","139","Marion Canyon","[object Object],[object Object]","US","[object Object]","false","33.36878"
"SDGE","SGX250","2217.8","[object Object]","America/Los_Angeles","SC11","SDGE","2213","PMTSD","null","SOCC","San Diego Gas and Electric","ACTIVE","[object Object]","-116.92968","San Diego","CA","SGX","CA050","71838","139","Paradise Mountain","[object Object],[object Object]","US","[object Object]","false","33.20319"
"SDGE","SGX250","1345.1","[object Object]","America/Los_Angeles","SC08","SDGE","1383","COHSD","null","SOCC","San Diego Gas and Electric","ACTIVE","[object Object]","-117.15330","San Diego","CA","SGX","CA050","94301","139","Coronado Hills","[object Object],[object Object]","US","[object Object]","false","33.11431"
"SDGE","SGX250","1594.5","[object Object]","America/Los_Angeles","SC08","SDGE","1610","IMTSD","null","SOCC","San Diego Gas and Electric","ACTIVE","[object Object]","-116.97297","San Diego","CA","SGX","CA050","94302","139","Iron Mountain Trail","[object Object],[object Object]","US","[object Object]","false","32.97623"
"SDGE","SGX250","1423.9","[object Object]","America/Los_Angeles","SC08","SDGE","1447","HVLSD","null","SOCC","San Diego Gas and Electric","ACTIVE","[object Object]","-116.99221","San Diego","CA","SGX","CA050","94316","139","High Valley","[object Object],[object Object]","US","[object Object]","false","32.99661"
"SDGE","SGX258","2795.3","[object Object]","America/Los_Angeles","SC11","SDGE","2804","PCTSD","null","SOCC","San Diego Gas and Electric","ACTIVE","[object Object]","-116.46690","San Diego","CA","SGX","CA058","94332","139","Pacific Crest Trail","[object Object],[object Object]","US","[object Object]","false","32.59418"
"SDGE","SGX243","216.5","[object Object]","America/Los_Angeles","SC08","SDGE","248","SDRSD","null","SOCC","San Diego Gas and Electric","ACTIVE","[object Object]","-117.16920","San Diego","CA","SGX","CA043","94342","139","San Dieguito River","[object Object],[object Object]","US","[object Object]","false","33.02311"
"SDGE","SGX243","318.2","[object Object]","America/Los_Angeles","SC08","SDGE","308","DDHSD","null","SOCC","San Diego Gas and Electric","ACTIVE","[object Object]","-117.16545","San Diego","CA","SGX","CA043","94351","139","Del Dios Highway","[object Object],[object Object]","US","[object Object]","false","33.03718"
"SDGE","SGX258","3989.5","[object Object]","America/Los_Angeles","SC11","SDGE","3989","WSTSD","null","SOCC","San Diego Gas and Electric","ACTIVE","[object Object]","-116.31861","San Diego","CA","SGX","CA058","94363","139","White Star","[object Object],[object Object]","US","[object Object]","false","32.64434"
"SDGE","SGX250","757.9","[object Object]","America/Los_Angeles","SC08","SDGE","806","BLUSD","null","SOCC","San Diego Gas and Electric","ACTIVE","[object Object]","-117.00505","San Diego","CA","SGX","CA050","94368","139","Blue Sky","[object Object],[object Object]","US","[object Object]","false","33.01508"
"SDGE","SGX243","646.3","[object Object]","America/Los_Angeles","SC08","SDGE","658","BMRSD","null","SOCC","San Diego Gas and Electric","ACTIVE","[object Object]","-117.13289","San Diego","CA","SGX","CA043","94369","139","Black Mountain Ranch","[object Object],[object Object]","US","[object Object]","false","32.99489"
"SDGE","SGX243","639.8","[object Object]","America/Los_Angeles","SC08","SDGE","675","ELFSD","null","SOCC","San Diego Gas and Electric","ACTIVE","[object Object]","-117.19144","San Diego","CA","SGX","CA043","94370","139","Elfin Forest","[object Object],[object Object]","US","[object Object]","false","33.07573"
"SDGE","SGX243","347.8","[object Object]","America/Los_Angeles","SC08","SDGE","345","LDCSD","null","SOCC","San Diego Gas and Electric","ACTIVE","[object Object]","-117.22809","San Diego","CA","SGX","CA043","94371","139","Linea del Cielo","[object Object],[object Object]","US","[object Object]","false","32.99739"
"SDGE","SGX250","767.7","[object Object]","America/Los_Angeles","SC08","SDGE","751","EUCSD","null","SOCC","San Diego Gas and Electric","ACTIVE","[object Object]","-116.93170","San Diego","CA","SGX","CA050","94566","139","Eucalyptus Hills","[object Object],[object Object]","US","[object Object]","false","32.87530"
"SDGE","SGX250","587.3","[object Object]","America/Los_Angeles","SC08","SDGE","624","MADSD","null","SOCC","San Diego Gas and Electric","ACTIVE","[object Object]","-117.02958","San Diego","CA","SGX","CA050","94567","139","Maderas","[object Object],[object Object]","US","[object Object]","false","33.04076"
"SDGE","SGX243","13.1","[object Object]","America/Los_Angeles","SC08","SDGE","17","DJZSD","null","SOCC","San Diego Gas and Electric","ACTIVE","[object Object]","-117.11030","San Diego","CA","SGX","CA043","104947","139","Living Coast","[object Object],[object Object]","US","[object Object]","false","32.64190"
"SDGE","SGX250","null","[object Object]","America/Los_Angeles","SC08","SDGE","1190","OLDSD","null","SOCC","San Diego Gas and Electric","ACTIVE","[object Object]","-117.08567","San Diego","CA","SGX","CA050","154831","139","Old Castle","[object Object]","US","[object Object]","false","33.26262"
"SDGE","SGX250","1561.7","[object Object]","America/Los_Angeles","SC08","SDGE","1597","CDVSD","null","SOCC","San Diego Gas and Electric","ACTIVE","[object Object]","-117.02318","San Diego","CA","SGX","CA050","155284","139","Calle De Vista","[object Object]","US","[object Object]","false","33.21975"
"SDGE","SGX258","3671.3","[object Object]","America/Los_Angeles","SC11","SDGE","3673","PVCSD","null","SOCC","San Diego Gas and Electric","ACTIVE","[object Object]","-116.53133","San Diego","CA","SGX","CA058","155472","139","Pine Valley Creek","[object Object]","US","[object Object]","false","32.84137"
"SDGE","SGX250","1807.7","[object Object]","America/Los_Angeles","SC08","SDGE","1789","TAVSD","null","SOCC","San Diego Gas and Electric","ACTIVE","[object Object]","-116.78553","San Diego","CA","SGX","CA050","155473","139","Tavern","[object Object]","US","[object Object]","false","32.84581"
"SDGE","SGX250","1469.8","[object Object]","America/Los_Angeles","SC08","SDGE","1468","VCHSD","null","SOCC","San Diego Gas and Electric","ACTIVE","[object Object]","-117.03938","San Diego","CA","SGX","CA050","155481","139","Valley Center Hilltop","[object Object]","US","[object Object]","false","33.27412"
"SDGE","SGX250","1607.6","[object Object]","America/Los_Angeles","SC08","SDGE","1611","VHPSD","null","SOCC","San Diego Gas and Electric","ACTIVE","[object Object]","-117.01066","San Diego","CA","SGX","CA050","155482","139","Valley Center High Point","[object Object]","US","[object Object]","false","33.24840"
"SDGE","SGX250","570.9","[object Object]","America/Los_Angeles","SC08","SDGE","581","HAGSD","null","SOCC","San Diego Gas and Electric","ACTIVE","[object Object]","-117.13047","San Diego","CA","SGX","CA050","155502","139","Harmony Grove","[object Object]","US","[object Object]","false","33.09775"
"SDGE","SGX250","1371.4","[object Object]","America/Los_Angeles","SC08","SDGE","1370","MATSD","null","SOCC","San Diego Gas and Electric","ACTIVE","[object Object]","-117.03036","San Diego","CA","SGX","CA050","155503","139","Matics Field","[object Object]","US","[object Object]","false","33.23845"
"SDGE","SGX250","1565","[object Object]","America/Los_Angeles","SC08","SDGE","1550","NMRSD","null","SOCC","San Diego Gas and Electric","ACTIVE","[object Object]","-117.03376","San Diego","CA","SGX","CA050","155504","139","North Miller Road","[object Object]","US","[object Object]","false","33.25586"
"SDGE","SGX250","1686.4","[object Object]","America/Los_Angeles","SC08","SDGE","1717","MWGSD","null","SOCC","San Diego Gas and Electric","ACTIVE","[object Object]","-116.97203","San Diego","CA","SGX","CA050","155829","139","Mt Woodson GC","[object Object]","US","[object Object]","false","33.01683"
"SDGE","SGX250","708.7","[object Object]","America/Los_Angeles","SC08","SDGE","706","WINSD","null","SOCC","San Diego Gas and Electric","ACTIVE","[object Object]","-117.20539","San Diego","CA","SGX","CA050","155830","139","Winterwarm","[object Object]","US","[object Object]","false","33.34318"
"SDGE","SGX258","3635.2","[object Object]","America/Los_Angeles","SC11","SDGE","3656","DESSD","null","SOCC","San Diego Gas and Electric","ACTIVE","[object Object]","-116.63367","San Diego","CA","SGX","CA058","155845","139","Descanso Sub","[object Object]","US","[object Object]","false","32.86494"
"SDGE","SGX250","1610.9","[object Object]","America/Los_Angeles","SC08","SDGE","1614","TNTSD","null","SOCC","San Diego Gas and Electric","ACTIVE","[object Object]","-116.97296","San Diego","CA","SGX","CA050","155846","139","Thundernut","[object Object]","US","[object Object]","false","33.23539"
"SDGE","SGX250","390.4","[object Object]","America/Los_Angeles","SC08","SDGE","400","DLCSD","null","SOCC","San Diego Gas and Electric","ACTIVE","[object Object]","-117.32389","San Diego","CA","SGX","CA050","155863","139","De Luz Creek","[object Object]","US","[object Object]","false","33.42922"
"SDGE","SGX250","1630.6","[object Object]","America/Los_Angeles","SC08","SDGE","1674","LOGSD","null","SOCC","San Diego Gas and Electric","ACTIVE","[object Object]","-116.87477","San Diego","CA","SGX","CA050","155864","139","Longs Gulch","[object Object]","US","[object Object]","false","32.96015"
"SDGE","SGX250","1647","[object Object]","America/Los_Angeles","SC08","SDGE","1640","UDRSD","null","SOCC","San Diego Gas and Electric","ACTIVE","[object Object]","-117.04219","San Diego","CA","SGX","CA050","155865","139","Upper Daily Ranch","[object Object]","US","[object Object]","false","33.20197"
"SDGE","SGX250","1788.1","[object Object]","America/Los_Angeles","SC08","SDGE","1802","CVYSD","null","SOCC","San Diego Gas and Electric","ACTIVE","[object Object]","-116.99353","San Diego","CA","SGX","CA050","155879","139","Cool Valley","[object Object]","US","[object Object]","false","33.26532"
"SDGE","SGX258","3494.1","[object Object]","America/Los_Angeles","SC11","SDGE","3498","DCOSD","null","SOCC","San Diego Gas and Electric","ACTIVE","[object Object]","-116.60053","San Diego","CA","SGX","CA058","155880","139","Descanso","[object Object]","US","[object Object]","false","32.85472"
"SDGE","SGX250","826.8","[object Object]","America/Los_Angeles","SC08","SDGE","822","DLRSD","null","SOCC","San Diego Gas and Electric","ACTIVE","[object Object]","-117.28370","San Diego","CA","SGX","CA050","155886","139","De Luz Road","[object Object]","US","[object Object]","false","33.41351"
"SDGE","SGX250","482.3","[object Object]","America/Los_Angeles","SC08","SDGE","494","DDSSD","null","SOCC","San Diego Gas and Electric","ACTIVE","[object Object]","-117.12175","San Diego","CA","SGX","CA050","155890","139","Del Dios South","[object Object]","US","[object Object]","false","33.05950"
"SDGE","SGX250","3169.3","[object Object]","America/Los_Angeles","SC11","SDGE","3189","HAUSD","null","SOCC","San Diego Gas and Electric","ACTIVE","[object Object]","-116.55734","San Diego","CA","SGX","CA050","155891","139","Hauser Mountain","[object Object]","US","[object Object]","false","32.65819"
"SDGE","SGX250","1669.9","[object Object]","America/Los_Angeles","SC08","SDGE","1665","ROVSD","null","SOCC","San Diego Gas and Electric","ACTIVE","[object Object]","-116.98667","San Diego","CA","SGX","CA050","155894","139","Rim of the Valley","[object Object]","US","[object Object]","false","33.28636"
"SDGE","SGX250","1939","[object Object]","America/Los_Angeles","SC08","SDGE","1970","SOSSD","null","SOCC","San Diego Gas and Electric","ACTIVE","[object Object]","-116.82778","San Diego","CA","SGX","CA050","155895","139","Simon Open Space","[object Object]","US","[object Object]","false","33.03044"
"SDGE","SGX250","1535.4","[object Object]","America/Los_Angeles","SC08","SDGE","1549","NRASD","null","SOCC","San Diego Gas and Electric","ACTIVE","[object Object]","-116.88125","San Diego","CA","SGX","CA050","156024","139","North Ramona","[object Object]","US","[object Object]","false","33.05973"
"SDGE","SGX258","3973.1","[object Object]","America/Los_Angeles","SC11","SDGE","3984","GVYSD","null","SOCC","San Diego Gas and Electric","ACTIVE","[object Object]","-116.57491","San Diego","CA","SGX","CA058","156025","139","Green Valley","[object Object]","US","[object Object]","false","32.90898"
"SDGE","SGX258","3047.9","[object Object]","America/Los_Angeles","SC11","SDGE","3078","DAMSD","null","SOCC","San Diego Gas and Electric","ACTIVE","[object Object]","-116.54622","San Diego","CA","SGX","CA058","156181","139","Morena Dam","[object Object]","US","[object Object]","false","32.68524"
"SDGE","SGX250","2670.6","[object Object]","America/Los_Angeles","SC11","SDGE","2671","BOBSD","null","SOCC","San Diego Gas and Electric","ACTIVE","[object Object]","-116.70134","San Diego","CA","SGX","CA050","156215","139","Bob Owens Canyon","[object Object]","US","[object Object]","false","32.67326"
"SDGE","SGX250","1292.7","[object Object]","America/Los_Angeles","SC08","SDGE","1312","DLHSD","null","SOCC","San Diego Gas and Electric","ACTIVE","[object Object]","-117.28068","San Diego","CA","SGX","CA050","156225","139","De Luz Heights","[object Object]","US","[object Object]","false","33.43111"
"SDGE","SGX250","1578.1","[object Object]","America/Los_Angeles","SC08","SDGE","1596","RCCSD","null","SOCC","San Diego Gas and Electric","ACTIVE","[object Object]","-117.12155","San Diego","CA","SGX","CA050","156226","139","Rainbow Conservation Camp","[object Object]","US","[object Object]","false","33.42652"
"SDGE","SGX250","1660.1","[object Object]","America/Los_Angeles","SC08","SDGE","1656","GAVSD","null","SOCC","San Diego Gas and Electric","ACTIVE","[object Object]","-117.21244","San Diego","CA","SGX","CA050","156566","139","Gavilan Mountain","[object Object]","US","[object Object]","false","33.43179"
"SDGE","SGX257","2890.4","[object Object]","America/Los_Angeles","SC08","SDGE","2903","BUBSD","null","SOCC","San Diego Gas and Electric","ACTIVE","[object Object]","-117.38291","San Diego","CA","SGX","CA057","156819","139","Buffalo Bump","[object Object]","US","[object Object]","false","33.42939"
"SDGE","SGX250","741.5","[object Object]","America/Los_Angeles","SC08","SDGE","749","CABSD","null","SOCC","San Diego Gas and Electric","ACTIVE","[object Object]","-117.03329","San Diego","CA","SGX","CA050","168293","139","Caballo Park","[object Object]","US","[object Object]","false","33.15813"
"undefined","SGX250","787.4","[object Object]","America/Los_Angeles","SC08","SDGE","784","NOESD","null","SOCC","undefined","ACTIVE","[object Object]","-117.08323","San Diego","CA","SGX","CA050","177390","139","North Escondido","[object Object]","US","[object Object]","false","33.15406"