"MNET_SHORTNAME","NWSFIREZONE","ELEV_DEM","UNITS","TIMEZONE","SGID","SHORTNAME","ELEVATION","STID","WIMS_ID","GACC","MNET_LONGNAME","STATUS","PERIOD_OF_RECORD","LONGITUDE","COUNTY","STATE","CWA","NWSZONE","ID","MNET_ID","NAME","PROVIDERS","COUNTRY","SENSOR_VARIABLES","RESTRICTED","LATITUDE"
"PACIFICORP","MFR281","3389.1","[object Object]","America/Los_Angeles","NC06","PACIFICORP","3400","PC001","null","NOCC","PacifiCorp","ACTIVE","[object Object]","-122.42590","Siskiyou","CA","MFR","CA081","92648","247","SW Weed","[object Object],[object Object]","US","[object Object]","false","41.40356"
"PACIFICORP","MFR281","3215.2","[object Object]","America/Los_Angeles","NC06","PACIFICORP","3213","PC002","null","NOCC","PacifiCorp","ACTIVE","[object Object]","-122.38815","Siskiyou","CA","MFR","CA081","92649","247","North Weed","[object Object],[object Object]","US","[object Object]","false","41.46678"
"PACIFICORP","MFR281","3654.9","[object Object]","America/Los_Angeles","NC06","PACIFICORP","3003","PC003","null","NOCC","PacifiCorp","ACTIVE","[object Object]","-122.46566","Siskiyou","CA","MFR","CA081","92678","247","West Weed","[object Object],[object Object]","US","[object Object]","false","41.46472"
"PACIFICORP","MFR282","3320.2","[object Object]","America/Los_Angeles","NC04","PACIFICORP","3315","PC004","null","NOCC","PacifiCorp","ACTIVE","[object Object]","-122.31658","Siskiyou","CA","MFR","CA082","92716","247","Lake Siskiyou","[object Object],[object Object]","US","[object Object]","false","41.28025"
"PACIFICORP","MFR282","3805.8","[object Object]","America/Los_Angeles","NC04","PACIFICORP","3793","PC005","null","NOCC","PacifiCorp","ACTIVE","[object Object]","-122.31572","Siskiyou","CA","MFR","CA082","92717","247","North Mt Shasta City","[object Object],[object Object]","US","[object Object]","false","41.33149"
"PACIFICORP","MFR282","2670.6","[object Object]","America/Los_Angeles","NC04","PACIFICORP","2598","PC006","null","NOCC","PacifiCorp","ACTIVE","[object Object]","-122.28697","Siskiyou","CA","MFR","CA082","92718","247","Dunsmuir","[object Object],[object Object]","US","[object Object]","false","41.19179"
"PACIFICORP","MFR282","4822.8","[object Object]","America/Los_Angeles","NC04","PACIFICORP","4812","PC007","null","NOCC","PacifiCorp","ACTIVE","[object Object]","-122.24060","Siskiyou","CA","MFR","CA082","92719","247","Snowbrush","[object Object],[object Object]","US","[object Object]","false","41.28811"
"PACIFICORP","MFR280","1099.1","[object Object]","America/Los_Angeles","NC04","PACIFICORP","1097","PC008","null","NOCC","PacifiCorp","ACTIVE","[object Object]","-123.36732","Siskiyou","CA","MFR","CA080","92773","247","Happy Camp","[object Object],[object Object]","US","[object Object]","false","41.80217"
"PACIFICORP","MFR280","1387.8","[object Object]","America/Los_Angeles","NC04","PACIFICORP","1378","PC009","null","NOCC","PacifiCorp","ACTIVE","[object Object]","-123.20894","Siskiyou","CA","MFR","CA080","93119","247","West Seiad","[object Object],[object Object]","US","[object Object]","false","41.83871"
"PACIFICORP","SLC479","6479.7","[object Object]","America/Denver","GB26","PACIFICORP","6435","PC010","null","GBCC","PacifiCorp","ACTIVE","[object Object]","-111.58691","Utah","UT","SLC","UT111","94309","247","Sundance","[object Object],[object Object]","US","[object Object]","false","40.39643"
"PACIFICORP","STO213","1722.4","[object Object]","America/Los_Angeles","NC04","PACIFICORP","1712","PC011","null","NOCC","PacifiCorp","ACTIVE","[object Object]","-122.41337","Shasta","CA","STO","CA013","94318","247","Pollard Flat","[object Object],[object Object]","US","[object Object]","false","41.00992"
"PACIFICORP","MFR620","1043.3","[object Object]","America/Los_Angeles","NW04","PACIFICORP","1041","PC012","null","NWCC","PacifiCorp","ACTIVE","[object Object]","-123.41488","Josephine","OR","MFR","OR024","94319","247","East Merlin","[object Object],[object Object]","US","[object Object]","false","42.51880"
"PACIFICORP","MFR621","3563","[object Object]","America/Los_Angeles","NW04","PACIFICORP","3545","PC013","null","NWCC","PacifiCorp","ACTIVE","[object Object]","-122.64347","Jackson","OR","MFR","OR028","94320","247","Colestin","[object Object],[object Object]","US","[object Object]","false","42.04713"
"PACIFICORP","MFR620","1145","[object Object]","America/Los_Angeles","NW04","PACIFICORP","1142","PC014","null","NWCC","PacifiCorp","ACTIVE","[object Object]","-123.16805","Jackson","OR","MFR","OR026","94321","247","West Wimer","[object Object],[object Object]","US","[object Object]","false","42.53859"
"PACIFICORP","MFR620","1017.1","[object Object]","America/Los_Angeles","NW04","PACIFICORP","1018","PC015","null","NWCC","PacifiCorp","ACTIVE","[object Object]","-123.16347","Jackson","OR","MFR","OR026","94322","247","Rogue River","[object Object],[object Object]","US","[object Object]","false","42.41448"
"PACIFICORP","SLC496","5885.8","[object Object]","America/Denver","GB33","PACIFICORP","6010","PC016","null","GBCC","PacifiCorp","ACTIVE","[object Object]","-113.12444","Iron","UT","SLC","UT122","94323","247","Cross Hollow (Cedar City)","[object Object],[object Object]","US","[object Object]","false","37.64600"
"PACIFICORP","MFR623","4701.4","[object Object]","America/Los_Angeles","NW04","PACIFICORP","4650","PC017","null","NWCC","PacifiCorp","ACTIVE","[object Object]","-122.42092","Jackson","OR","MFR","OR028","94324","247","Howard Prairie","[object Object],[object Object]","US","[object Object]","false","42.21383"
"PACIFICORP","SLC479","8169.3","[object Object]","America/Denver","GB26","PACIFICORP","8147","PC018","null","GBCC","PacifiCorp","ACTIVE","[object Object]","-111.51211","Summit","UT","SLC","UT111","94335","247","Park City Mountain Resort","[object Object],[object Object]","US","[object Object]","false","40.63207"
"PACIFICORP","PDT639","816.9","[object Object]","America/Los_Angeles","NW06","PACIFICORP","815","PC019","null","NWCC","PacifiCorp","ACTIVE","[object Object]","-121.53446","Hood River","OR","PQR","OR014","94338","247","Odell","[object Object],[object Object]","US","[object Object]","false","45.64363"
"PACIFICORP","PDT695","2290","[object Object]","America/Los_Angeles","NW05","PACIFICORP","2293","PC020","null","NWCC","PacifiCorp","ACTIVE","[object Object]","-121.03805","Yakima","WA","PDT","WA523","94352","247","Upper Nile","[object Object],[object Object]","US","[object Object]","false","46.91442"
"PACIFICORP","SLC479","5305.1","[object Object]","America/Denver","GB26","PACIFICORP","5258","PC021","null","GBCC","PacifiCorp","ACTIVE","[object Object]","-111.77283","Salt Lake","UT","SLC","UT111","94353","247","Mill Creek Canyon","[object Object],[object Object]","US","[object Object]","false","40.69061"
"PACIFICORP","SLC478","5511.8","[object Object]","America/Denver","GB25","PACIFICORP","5523","PC022","null","GBCC","PacifiCorp","ACTIVE","[object Object]","-111.73931","Salt Lake","UT","SLC","UT110","94354","247","Mount Aire Canyon","[object Object],[object Object]","US","[object Object]","false","40.74044"
"PACIFICORP","SLC479","6847.1","[object Object]","America/Denver","GB26","PACIFICORP","6851","PC023","null","GBCC","PacifiCorp","ACTIVE","[object Object]","-111.43188","Wasatch","UT","SLC","UT108","94355","247","North Jordanelle","[object Object],[object Object]","US","[object Object]","false","40.66852"
"PACIFICORP","SLC479","6250","[object Object]","America/Denver","GB26","PACIFICORP","6246","PC024","null","GBCC","PacifiCorp","ACTIVE","[object Object]","-111.51312","Wasatch","UT","SLC","UT111","94356","247","NW Midway","[object Object],[object Object]","US","[object Object]","false","40.54886"
"PACIFICORP","SLC479","6811","[object Object]","America/Denver","GB26","PACIFICORP","6661","PC025","null","GBCC","PacifiCorp","ACTIVE","[object Object]","-111.70368","Salt Lake","UT","SLC","UT111","94364","247","Big Cottonwood","[object Object],[object Object]","US","[object Object]","false","40.63426"
"PACIFICORP","MFR620","921.9","[object Object]","America/Los_Angeles","NW04","PACIFICORP","921","PC026","null","NWCC","PacifiCorp","ACTIVE","[object Object]","-123.45535","Josephine","OR","MFR","OR024","100238","247","Wilderville","[object Object],[object Object]","US","[object Object]","false","42.38288"
"PACIFICORP","MFR616","1624","[object Object]","America/Los_Angeles","NW04","PACIFICORP","1623","PC027","null","NWCC","PacifiCorp","INACTIVE","[object Object]","-123.25630","Douglas","OR","MFR","OR023","100290","247","NE Azalea","[object Object],[object Object]","US","[object Object]","false","42.79568"
"PACIFICORP","MFR623","2611.5","[object Object]","America/Los_Angeles","NW04","PACIFICORP","2605","PC028","null","NWCC","PacifiCorp","ACTIVE","[object Object]","-122.48310","Jackson","OR","MFR","OR026","100295","247","Prospect","[object Object],[object Object]","US","[object Object]","false","42.75582"
"PACIFICORP","MFR622","1827.4","[object Object]","America/Los_Angeles","NW04","PACIFICORP","1827","PC029","null","NWCC","PacifiCorp","ACTIVE","[object Object]","-122.83114","Jackson","OR","MFR","OR026","100296","247","North Shady Cove","[object Object],[object Object]","US","[object Object]","false","42.67449"
"PACIFICORP","MFR620","1568.2","[object Object]","America/Los_Angeles","NW04","PACIFICORP","1573","PC030","null","NWCC","PacifiCorp","ACTIVE","[object Object]","-123.56169","Josephine","OR","MFR","OR024","100297","247","East Cave Junction","[object Object],[object Object]","US","[object Object]","false","42.15831"
"PACIFICORP","MFR616","485.6","[object Object]","America/Los_Angeles","NW03","PACIFICORP","483","PC031","null","NWCC","PacifiCorp","ACTIVE","[object Object]","-123.40179","Douglas","OR","MFR","OR023","100298","247","Happy Valley","[object Object],[object Object]","US","[object Object]","false","43.16292"
"PACIFICORP","SLC479","6961.9","[object Object]","America/Denver","GB26","PACIFICORP","6946","PC032","null","GBCC","PacifiCorp","ACTIVE","[object Object]","-111.60952","Summit","UT","SLC","UT110","104991","247","Summit Park","[object Object]","US","[object Object]","false","40.75151"
"PACIFICORP","SLC479","5718.5","[object Object]","America/Denver","GB26","PACIFICORP","5662","PC033","null","GBCC","PacifiCorp","ACTIVE","[object Object]","-111.76306","Salt Lake","UT","SLC","UT111","104992","247","Little Cottonwood","[object Object]","US","[object Object]","false","40.57182"
"PACIFICORP","SLC479","5210","[object Object]","America/Denver","GB26","PACIFICORP","5182","PC034","null","GBCC","PacifiCorp","ACTIVE","[object Object]","-111.60450","Utah","UT","SLC","UT111","104993","247","Provo Canyon","[object Object]","US","[object Object]","false","40.34086"
"PACIFICORP","LOX366","4622.7","[object Object]","America/Los_Angeles","SC08","PACIFICORP","75","P056C","null","SOCC","PacifiCorp","INACTIVE","[object Object]","-118.31082","Los Angeles","CA","LOX","CA366","151176","247","MWS 9959","[object Object],[object Object]","US","[object Object]","false","33.83900"
"PACIFICORP","LOX366","2001.3","[object Object]","America/Los_Angeles","SC08","PACIFICORP","52","P057C","null","SOCC","PacifiCorp","INACTIVE","[object Object]","-118.31074","Los Angeles","CA","LOX","CA366","151177","247","MWS 6145","[object Object],[object Object]","US","[object Object]","false","33.83909"
"PACIFICORP","MFR615","13.1","[object Object]","America/Los_Angeles","NW03","PACIFICORP","8","PC035","null","NWCC","PacifiCorp","ACTIVE","[object Object]","-124.14771","Coos","OR","MFR","OR021","155505","247","Eastside","[object Object]","US","[object Object]","false","43.36272"
"PACIFICORP","MFR285","4803.1","[object Object]","America/Los_Angeles","NC06","PACIFICORP","4806","PC036","null","NOCC","PacifiCorp","ACTIVE","[object Object]","-120.54345","Modoc","CA","MFR","CA085","155506","247","Alturas","[object Object]","US","[object Object]","false","41.52265"
"PACIFICORP","MFR620","1410.8","[object Object]","America/Los_Angeles","NW04","PACIFICORP","1396","PC037","null","NWCC","PacifiCorp","ACTIVE","[object Object]","-123.55796","Josephine","OR","MFR","OR024","155507","247","Deer Creek - OR","[object Object]","US","[object Object]","false","42.26617"
"PACIFICORP","MFR620","1400.9","[object Object]","America/Los_Angeles","NW04","PACIFICORP","1369","PC038","null","NWCC","PacifiCorp","ACTIVE","[object Object]","-123.60828","Josephine","OR","MFR","OR024","155508","247","Takilma-Micro","[object Object]","US","[object Object]","false","42.13390"
"PACIFICORP","MFR620","876","[object Object]","America/Los_Angeles","NW04","PACIFICORP","874","PC039","null","NWCC","PacifiCorp","INACTIVE","[object Object]","-123.41970","Josephine","OR","MFR","OR024","155509","247","Upper River Rd","[object Object]","US","[object Object]","false","42.43574"
"PACIFICORP","MFR616","751.3","[object Object]","America/Los_Angeles","NW04","PACIFICORP","502","PC040","null","NWCC","PacifiCorp","ACTIVE","[object Object]","-123.18685","Douglas","OR","MFR","OR023","155510","247","Days Creek","[object Object]","US","[object Object]","false","42.97735"
"PACIFICORP","PQR612","4439","[object Object]","America/Los_Angeles","NW02","PACIFICORP","510","PC041","null","NWCC","PacifiCorp","ACTIVE","[object Object]","-123.95406","Lincoln","OR","PQR","OR002","155511","247","Salmon River","[object Object]","US","[object Object]","false","45.00128"
"PACIFICORP","PDT645","4439","[object Object]","America/Los_Angeles","NW11","PACIFICORP","4460","PC042","null","NWCC","PacifiCorp","ACTIVE","[object Object]","-117.23088","Wallowa","OR","PDT","OR050","155512","247","Wallowa Lake","[object Object]","US","[object Object]","false","45.32619"
"PACIFICORP","MFR282","3412.1","[object Object]","America/Los_Angeles","NC04","PACIFICORP","3400","PC043","null","NOCC","PacifiCorp","ACTIVE","[object Object]","-122.12260","Siskiyou","CA","MFR","CA082","155513","247","McCloud","[object Object]","US","[object Object]","false","41.26672"
"PACIFICORP","MFR280","2864.2","[object Object]","America/Los_Angeles","NC04","PACIFICORP","2901","PC044","null","NOCC","PacifiCorp","ACTIVE","[object Object]","-122.82221","Siskiyou","CA","MFR","CA080","155514","247","Fort Jones","[object Object]","US","[object Object]","false","41.63147"
"PACIFICORP","MFR282","7631.2","[object Object]","America/Los_Angeles","NC04","PACIFICORP","7612","PC045","null","NOCC","PacifiCorp","INACTIVE","[object Object]","-122.20690","Siskiyou","CA","MFR","CA082","155515","247","Ski Bowl","[object Object]","US","[object Object]","false","41.35875"
"PACIFICORP","MFR281","2792","[object Object]","America/Los_Angeles","NC06","PACIFICORP","2788","PC046","null","NOCC","PacifiCorp","ACTIVE","[object Object]","-122.36342","Siskiyou","CA","MFR","CA081","155516","247","Harry Cash","[object Object]","US","[object Object]","false","41.65405"
"PACIFICORP","MFR281","2139.1","[object Object]","America/Los_Angeles","NC06","PACIFICORP","2197","PC047","null","NOCC","PacifiCorp","ACTIVE","[object Object]","-122.53946","Siskiyou","CA","MFR","CA081","155517","247","Hornbrook","[object Object]","US","[object Object]","false","41.89935"
"PACIFICORP","PDT691","656.2","[object Object]","America/Los_Angeles","NW10","PACIFICORP","656","PC048","null","NWCC","PacifiCorp","ACTIVE","[object Object]","-118.75296","Walla Walla","WA","PDT","WA028","155518","247","Nine Mile Hill","[object Object]","US","[object Object]","false","46.06549"
"PACIFICORP","PDT690","2253.9","[object Object]","America/Los_Angeles","NW05","PACIFICORP","2255","PC049","null","NWCC","PacifiCorp","ACTIVE","[object Object]","-120.77552","Yakima","WA","PDT","WA523","155519","247","Upper Wenas","[object Object]","US","[object Object]","false","46.86618"
"PACIFICORP","MFR620","1774.9","[object Object]","America/Los_Angeles","NW04","PACIFICORP","1731","PC050","null","NWCC","PacifiCorp","INACTIVE","[object Object]","-123.72094","Del Norte","CA","EKA","CA102","155520","247","Ca. Inspection Station","[object Object]","US","[object Object]","false","41.99497"
"PACIFICORP","EKA203","2070.2","[object Object]","America/Los_Angeles","NC04","PACIFICORP","2070","PC051","null","NOCC","PacifiCorp","ACTIVE","[object Object]","-123.86472","Del Norte","CA","EKA","CA102","155521","247","Patrick's Creek","[object Object]","US","[object Object]","false","41.88136"
"PACIFICORP","MFR280","2221.1","[object Object]","America/Los_Angeles","NC04","PACIFICORP","2239","PC052","null","NOCC","PacifiCorp","ACTIVE","[object Object]","-122.99985","Siskiyou","CA","MFR","CA080","155522","247","Scott Bar","[object Object]","US","[object Object]","false","41.74793"
"PACIFICORP","SLC496","4921.3","[object Object]","America/Denver","GB33","PACIFICORP","4914","PC053","null","GBCC","PacifiCorp","ACTIVE","[object Object]","-113.26052","Washington","UT","SLC","UT122","157151","247","New Harmony","[object Object]","US","[object Object]","false","37.43949"
"PACIFICORP","SLC496","9688.3","[object Object]","America/Denver","GB34","PACIFICORP","9676","PC054","null","GBCC","PacifiCorp","ACTIVE","[object Object]","-112.84441","Iron","UT","SLC","UT125","157157","247","Brian Head","[object Object]","US","[object Object]","false","37.69796"
"PACIFICORP","SLC495","5269","[object Object]","America/Denver","GB33","PACIFICORP","5261","PC055","null","GBCC","PacifiCorp","ACTIVE","[object Object]","-113.64269","Washington","UT","SLC","UT125","157235","247","Red Butte","[object Object]","US","[object Object]","false","37.41193"
"PACIFICORP","SLC479","8681.1","[object Object]","America/Denver","GB26","PACIFICORP","8693","PC056","null","GBCC","PacifiCorp","ACTIVE","[object Object]","-111.57895","Salt Lake","UT","SLC","UT111","157259","247","Brighton","[object Object]","US","[object Object]","false","40.61074"
"PACIFICORP","SLC478","5328.1","[object Object]","America/Denver","GB25","PACIFICORP","5314","PC058","null","GBCC","PacifiCorp","ACTIVE","[object Object]","-111.76723","Salt Lake","UT","SLC","UT110","157376","247","Emigration Canyon","[object Object]","US","[object Object]","false","40.76722"
"PACIFICORP","SLC479","5830.1","[object Object]","America/Denver","GB26","PACIFICORP","5824","PC057","null","GBCC","PacifiCorp","ACTIVE","[object Object]","-111.39899","Summit","UT","SLC","UT108","157377","247","Wanship","[object Object]","US","[object Object]","false","40.84912"
"PACIFICORP","SLC479","6712.6","[object Object]","America/Denver","GB26","PACIFICORP","6706","PC059","null","GBCC","PacifiCorp","ACTIVE","[object Object]","-111.49195","Summit","UT","SLC","UT108","157574","247","Silver Summit","[object Object]","US","[object Object]","false","40.76275"
"PACIFICORP","SLC479","5177.2","[object Object]","America/Denver","GB26","PACIFICORP","5179","PC060","null","GBCC","PacifiCorp","ACTIVE","[object Object]","-111.86498","Weber","UT","SLC","UT108","157575","247","Eden","[object Object]","US","[object Object]","false","41.31870"
"PACIFICORP","SLC479","6325.5","[object Object]","America/Denver","GB26","PACIFICORP","6331","PC061","null","GBCC","PacifiCorp","ACTIVE","[object Object]","-111.43150","Wasatch","UT","SLC","UT108","157994","247","Jordanelle Reservoir","[object Object]","US","[object Object]","false","40.59892"
"PACIFICORP","SLC479","5469.2","[object Object]","America/Denver","GB26","PACIFICORP","5475","PC062","null","GBCC","PacifiCorp","ACTIVE","[object Object]","-111.53900","Wasatch","UT","SLC","UT108","157995","247","Deer Creek - UT","[object Object]","US","[object Object]","false","40.40076"
"PACIFICORP","LOX366","59.1","[object Object]","America/Los_Angeles","SC08","PACIFICORP","72","P059C","null","SOCC","PacifiCorp","INACTIVE","[object Object]","-118.31082","Los Angeles","CA","LOX","CA366","161110","247","MWS 7930","[object Object],[object Object]","US","[object Object]","false","33.83904"
"PACIFICORP","LOX366","59.1","[object Object]","America/Los_Angeles","SC08","PACIFICORP","39","P060C","null","SOCC","PacifiCorp","INACTIVE","[object Object]","-118.31099","Los Angeles","CA","LOX","CA366","161111","247","MWS 0703","[object Object],[object Object]","US","[object Object]","false","33.83911"
"PACIFICORP","LOX366","6138.5","[object Object]","America/Los_Angeles","SC08","PACIFICORP","43","P061C","null","SOCC","PacifiCorp","INACTIVE","[object Object]","-118.31074","Los Angeles","CA","LOX","CA366","161112","247","MWS 4330","[object Object],[object Object]","US","[object Object]","false","33.83911"
"PACIFICORP","MFR282","3861.5","[object Object]","America/Los_Angeles","NC04","PACIFICORP","3872","P062C","null","NOCC","PacifiCorp","INACTIVE","[object Object]","-122.25586","Siskiyou","CA","MFR","CA082","163184","247","MWS 5049","[object Object]","US","[object Object]","false","41.22823"
"PACIFICORP","SLC479","6617.5","[object Object]","America/Denver","GB26","PACIFICORP","6623","PC063","null","GBCC","PacifiCorp","ACTIVE","[object Object]","-111.43043","Summit","UT","SLC","UT108","165591","247","Brown's Canyon","[object Object]","US","[object Object]","false","40.70101"
"PACIFICORP","SLC479","9032.2","[object Object]","America/Denver","GB26","PACIFICORP","9026","PC064","null","GBCC","PacifiCorp","INACTIVE","[object Object]","-111.62444","Salt Lake","UT","SLC","UT111","165627","247","Albion Basin","[object Object]","US","[object Object]","false","40.59291"
"PACIFICORP","SLC479","7496.7","[object Object]","America/Denver","GB26","PACIFICORP","7481","PC065","null","GBCC","PacifiCorp","ACTIVE","[object Object]","-111.48971","Summit","UT","SLC","UT108","165628","247","Aerie","[object Object]","US","[object Object]","false","40.65327"
"PACIFICORP","SLC479","8743.4","[object Object]","America/Denver","GB26","PACIFICORP","8738","PC066","null","GBCC","PacifiCorp","ACTIVE","[object Object]","-111.11708","Summit","UT","SLC","UT112","165920","247","Porcupine Mountain","[object Object]","US","[object Object]","false","41.02112"
"PACIFICORP","SLC478","5000","[object Object]","America/Denver","GB25","PACIFICORP","5000","PC067","null","GBCC","PacifiCorp","ACTIVE","[object Object]","-111.81652","Utah","UT","SLC","UT106","165921","247","Highland","[object Object]","US","[object Object]","false","40.44887"
"PACIFICORP","SLC479","5876","[object Object]","America/Denver","GB26","PACIFICORP","5872","PC068","null","GBCC","PacifiCorp","INACTIVE","[object Object]","-111.51628","Utah","UT","SLC","UT111","165922","247","South Fork","[object Object]","US","[object Object]","false","40.32636"
"PACIFICORP","SLC489","6532.2","[object Object]","America/Denver","GB31","PACIFICORP","6522","PC069","null","GBCC","PacifiCorp","ACTIVE","[object Object]","-110.38604","Carbon","UT","SLC","UT120","165923","247","East Carbon","[object Object]","US","[object Object]","false","39.55097"
"PACIFICORP","SLC496","5485.6","[object Object]","America/Denver","GB33","PACIFICORP","5481","PC070","null","GBCC","PacifiCorp","ACTIVE","[object Object]","-113.16915","Iron","UT","SLC","UT122","165947","247","West Cedar","[object Object]","US","[object Object]","false","37.65189"
"PACIFICORP","SLC496","5931.8","[object Object]","America/Denver","GB33","PACIFICORP","5932","PC071","null","GBCC","PacifiCorp","ACTIVE","[object Object]","-113.04717","Iron","UT","SLC","UT125","166050","247","Cedar Canyon","[object Object]","US","[object Object]","false","37.67413"
"PACIFICORP","SLC496","6811","[object Object]","America/Denver","GB34","PACIFICORP","6807","PC072","null","GBCC","PacifiCorp","ACTIVE","[object Object]","-113.06366","Iron","UT","SLC","UT125","166051","247","Cedar Highlands","[object Object]","US","[object Object]","false","37.64101"
"PACIFICORP","STO213","2001.3","[object Object]","America/Los_Angeles","NC04","PACIFICORP","1978","PC073","null","NOCC","PacifiCorp","ACTIVE","[object Object]","-122.44448","Shasta","CA","STO","CA013","170942","247","Slate Creek","[object Object]","US","[object Object]","false","40.96752"
"PACIFICORP","STO213","2677.2","[object Object]","America/Los_Angeles","NC04","PACIFICORP","2439","PC074","null","NOCC","PacifiCorp","ACTIVE","[object Object]","-122.32461","Shasta","CA","STO","CA013","170943","247","Castella","[object Object]","US","[object Object]","false","41.14071"
"PACIFICORP","MFR282","3861.5","[object Object]","America/Los_Angeles","NC04","PACIFICORP","3844","PC075","null","NOCC","PacifiCorp","ACTIVE","[object Object]","-122.25589","Siskiyou","CA","MFR","CA082","171052","247","Dunsmuir NE","[object Object]","US","[object Object]","false","41.22822"
"PACIFICORP","MFR282","4399.6","[object Object]","America/Los_Angeles","NC06","PACIFICORP","4399","PC076","null","NOCC","PacifiCorp","ACTIVE","[object Object]","-122.33010","Siskiyou","CA","MFR","CA082","171057","247","Black Butte Saddle","[object Object]","US","[object Object]","false","41.37482"
"PACIFICORP","MFR282","4124","[object Object]","America/Los_Angeles","NC06","PACIFICORP","4125","PC077","null","NOCC","PacifiCorp","ACTIVE","[object Object]","-122.34530","Siskiyou","CA","MFR","CA082","171062","247","SE Weed","[object Object]","US","[object Object]","false","41.40396"
"PACIFICORP","MFR280","3323.5","[object Object]","America/Los_Angeles","NC04","PACIFICORP","3321","PC078","null","NOCC","PacifiCorp","ACTIVE","[object Object]","-122.88493","Siskiyou","CA","MFR","CA080","171174","247","Etna","[object Object]","US","[object Object]","false","41.44701"
"PACIFICORP","MFR281","6138.5","[object Object]","America/Los_Angeles","NC04","PACIFICORP","6135","PC079","null","NOCC","PacifiCorp","ACTIVE","[object Object]","-122.77670","Siskiyou","CA","MFR","CA081","171175","247","Gunsight Peak","[object Object]","US","[object Object]","false","41.73815"
"PACIFICORP","MFR620","5387.1","[object Object]","America/Los_Angeles","NW04","PACIFICORP","5390","PC080","null","NWCC","PacifiCorp","ACTIVE","[object Object]","-123.53715","Siskiyou","CA","EKA","CA102","171176","247","Little Grayback","[object Object]","US","[object Object]","false","41.97046"
"PACIFICORP","MFR280","1427.2","[object Object]","America/Los_Angeles","NC04","PACIFICORP","1421","PC081","null","NOCC","PacifiCorp","ACTIVE","[object Object]","-123.40847","Siskiyou","CA","MFR","CA080","171183","247","Indian Creek Canyon","[object Object]","US","[object Object]","false","41.87198"
"PACIFICORP","MFR280","4675.2","[object Object]","America/Los_Angeles","NC04","PACIFICORP","4670","PC082","null","NOCC","PacifiCorp","ACTIVE","[object Object]","-123.35339","Siskiyou","CA","MFR","CA080","171192","247","Slater Butte","[object Object]","US","[object Object]","false","41.85813"
"PACIFICORP","MFR281","2637.8","[object Object]","America/Los_Angeles","NC06","PACIFICORP","2633","PC083","null","NOCC","PacifiCorp","ACTIVE","[object Object]","-122.50125","Siskiyou","CA","MFR","CA081","171194","247","Johns Road","[object Object]","US","[object Object]","false","41.82610"
"PACIFICORP","MFR280","3074.1","[object Object]","America/Los_Angeles","NC04","PACIFICORP","3066","PC084","null","NOCC","PacifiCorp","ACTIVE","[object Object]","-122.93682","Siskiyou","CA","MFR","CA080","171279","247","Quartz Valley Road","[object Object]","US","[object Object]","false","41.56643"
"PACIFICORP","MFR281","2687","[object Object]","America/Los_Angeles","NC06","PACIFICORP","2678","PC085","null","NOCC","PacifiCorp","ACTIVE","[object Object]","-122.60176","Siskiyou","CA","MFR","CA081","171301","247","Hawkinsville","[object Object]","US","[object Object]","false","41.77955"
"PACIFICORP","MFR282","null","[object Object]","America/Los_Angeles","NC04","PACIFICORP","3682","PC086","null","NOCC","PacifiCorp","ACTIVE","[object Object]","-122.34311","Siskiyou","CA","MFR","CA082","171809","247","Upton","[object Object]","US","[object Object]","false","41.33541"
"PACIFICORP","MFR281","null","[object Object]","America/Los_Angeles","NC06","PACIFICORP","3192","PC087","null","NOCC","PacifiCorp","ACTIVE","[object Object]","-122.37153","Siskiyou","CA","MFR","CA081","171814","247","Camelback","[object Object]","US","[object Object]","false","41.71127"
"PACIFICORP","MFR284","null","[object Object]","America/Los_Angeles","NC06","PACIFICORP","4931","PC088","null","NOCC","PacifiCorp","ACTIVE","[object Object]","-122.05801","Siskiyou","CA","MFR","CA083","171833","247","Tenant Road","[object Object]","US","[object Object]","false","41.64775"
"PACIFICORP","MFR280","null","[object Object]","America/Los_Angeles","NC04","PACIFICORP","3776","PC089","null","NOCC","PacifiCorp","ACTIVE","[object Object]","-122.74223","Siskiyou","CA","MFR","CA080","171866","247","Piney Ridge","[object Object]","US","[object Object]","false","41.59799"
"PACIFICORP","SLC496","null","[object Object]","America/Denver","GB33","PACIFICORP","7443","PC094","null","GBCC","PacifiCorp","ACTIVE","[object Object]","-113.37432","Iron","UT","SLC","UT125","172121","247","Iron Mountain","[object Object]","US","[object Object]","false","37.64121"
"PACIFICORP","SLC497","null","[object Object]","America/Denver","GB35","PACIFICORP","4859","PC095","null","GBCC","PacifiCorp","ACTIVE","[object Object]","-113.82390","Washington","UT","SLC","UT125","172130","247","Old Highway 91","[object Object]","US","[object Object]","false","37.10089"
"PACIFICORP","SLC495","null","[object Object]","America/Denver","GB33","PACIFICORP","7317","PC090","null","GBCC","PacifiCorp","ACTIVE","[object Object]","-112.65913","Beaver","UT","SLC","UT125","172168","247","Gillies Hill","[object Object]","US","[object Object]","false","38.45005"
"PACIFICORP","SLC495","null","[object Object]","America/Denver","GB33","PACIFICORP","5777","PC091","null","GBCC","PacifiCorp","ACTIVE","[object Object]","-112.72667","Iron","UT","SLC","UT122","172195","247","Upper Parowan Valley","[object Object]","US","[object Object]","false","38.02526"
"PACIFICORP","SLC496","null","[object Object]","America/Denver","GB33","PACIFICORP","5996","PC092","null","GBCC","PacifiCorp","ACTIVE","[object Object]","-113.22402","Iron","UT","SLC","UT122","172196","247","Kanarraville West","[object Object]","US","[object Object]","false","37.53106"
"PACIFICORP","SLC498","null","[object Object]","America/Denver","GB35","PACIFICORP","4128","PC093","null","GBCC","PacifiCorp","ACTIVE","[object Object]","-113.03411","Washington","UT","SLC","UT124","172197","247","Rockville","[object Object]","US","[object Object]","false","37.15272"
"PACIFICORP","SLC495","null","[object Object]","America/Denver","GB33","PACIFICORP","6280","PC096","null","GBCC","PacifiCorp","ACTIVE","[object Object]","-112.83939","Iron","UT","SLC","UT125","172210","247","Parowan","[object Object]","US","[object Object]","false","37.82948"
"PACIFICORP","SLC493","null","[object Object]","America/Denver","GB28","PACIFICORP","5177","PC097","null","GBCC","PacifiCorp","ACTIVE","[object Object]","-111.83035","Sevier","UT","SLC","UT119","172216","247","Salina Gunnison AP","[object Object]","US","[object Object]","false","39.02798"
"PACIFICORP","SLC492","null","[object Object]","America/Denver","GB27","PACIFICORP","5886","PC098","null","GBCC","PacifiCorp","ACTIVE","[object Object]","-111.71448","Sanpete","UT","SLC","UT117","172218","247","Gunnison Reservior","[object Object]","US","[object Object]","false","39.23814"
"PACIFICORP","SLC493","null","[object Object]","America/Denver","GB28","PACIFICORP","6366","PC099","null","GBCC","PacifiCorp","ACTIVE","[object Object]","-112.22081","Piute","UT","SLC","UT126","172228","247","Piute Reservoir","[object Object]","US","[object Object]","false","38.34447"
"PACIFICORP","SLC492","null","[object Object]","America/Denver","GB27","PACIFICORP","6238","PC100","null","GBCC","PacifiCorp","ACTIVE","[object Object]","-111.44969","Sanpete","UT","SLC","UT118","172288","247","Spring City East","[object Object]","US","[object Object]","false","39.49226"
"PACIFICORP","GJT486","null","[object Object]","America/Denver","GB29","PACIFICORP","5855","PC101","null","GBCC","PacifiCorp","ACTIVE","[object Object]","-109.60627","Uintah","UT","GJT","UT024","172295","247","Dry Fork Canyon","[object Object]","US","[object Object]","false","40.52349"
"PACIFICORP","SLC479","null","[object Object]","America/Denver","GB26","PACIFICORP","5048","PC102","null","GBCC","PacifiCorp","ACTIVE","[object Object]","-111.89198","Davis","UT","SLC","UT110","172306","247","Shepard Creek","[object Object]","US","[object Object]","false","41.01589"
"PACIFICORP","SLC478","null","[object Object]","America/Denver","GB25","PACIFICORP","5213","PC103","null","GBCC","PacifiCorp","ACTIVE","[object Object]","-112.35541","Tooele","UT","SLC","UT102","172311","247","Stockton North","[object Object]","US","[object Object]","false","40.46657"
"PACIFICORP","SLC478","null","[object Object]","America/Denver","GB25","PACIFICORP","4630","PC104","null","GBCC","PacifiCorp","ACTIVE","[object Object]","-112.47788","Tooele","UT","SLC","UT102","172324","247","Grantsville South","[object Object]","US","[object Object]","false","40.56358"
"PACIFICORP","SLC478","null","[object Object]","America/Denver","GB25","PACIFICORP","4842","PC105","null","GBCC","PacifiCorp","ACTIVE","[object Object]","-111.85528","Salt Lake","UT","SLC","UT105","172410","247","Upper Avenues","[object Object]","US","[object Object]","false","40.77934"
"PACIFICORP","SLC478","null","[object Object]","America/Denver","GB25","PACIFICORP","4674","PC106","null","GBCC","PacifiCorp","ACTIVE","[object Object]","-111.88601","Salt Lake","UT","SLC","UT105","172428","247","Capitol Hill","[object Object]","US","[object Object]","false","40.78153"
"PACIFICORP","SLC478","null","[object Object]","America/Denver","GB25","PACIFICORP","5173","PC107","null","GBCC","PacifiCorp","ACTIVE","[object Object]","-111.87043","Salt Lake","UT","SLC","UT105","172436","247","Bonneville Shoreline","[object Object]","US","[object Object]","false","40.79238"
"PACIFICORP","SLC478","null","[object Object]","America/Denver","GB25","PACIFICORP","4866","PC108","null","GBCC","PacifiCorp","ACTIVE","[object Object]","-111.79710","Salt Lake","UT","SLC","UT105","172478","247","Cottonwood Heights","[object Object]","US","[object Object]","false","40.62118"
"PACIFICORP","SLC478","null","[object Object]","America/Denver","GB25","PACIFICORP","4793","PC109","null","GBCC","PacifiCorp","ACTIVE","[object Object]","-111.80669","Salt Lake","UT","SLC","UT105","172479","247","Holladay Cottonwood","[object Object]","US","[object Object]","false","40.65307"
"PACIFICORP","SLC478","null","[object Object]","America/Denver","GB25","PACIFICORP","4350","PC110","null","GBCC","PacifiCorp","ACTIVE","[object Object]","-112.07387","Salt Lake","UT","SLC","UT105","172482","247","Herriman West","[object Object]","US","[object Object]","false","40.49734"
"PACIFICORP","SLC479","null","[object Object]","America/Denver","GB26","PACIFICORP","4808","PC111","null","GBCC","PacifiCorp","ACTIVE","[object Object]","-111.92483","Weber","UT","SLC","UT110","172484","247","Ogden Canyon","[object Object]","US","[object Object]","false","41.23721"
"PACIFICORP","SLC479","null","[object Object]","America/Denver","GB26","PACIFICORP","5084","PC112","null","GBCC","PacifiCorp","ACTIVE","[object Object]","-111.70311","Weber","UT","SLC","UT110","172514","247","Huntsville East","[object Object]","US","[object Object]","false","41.26108"
"PACIFICORP","SLC479","null","[object Object]","America/Denver","GB26","PACIFICORP","5163","PC113","null","GBCC","PacifiCorp","INACTIVE","[object Object]","-111.77973","Cache","UT","SLC","UT110","172515","247","Smithfield Canyon","[object Object]","US","[object Object]","false","41.86677"
"PACIFICORP","SLC479","null","[object Object]","America/Denver","GB26","PACIFICORP","4982","PC114","null","GBCC","PacifiCorp","ACTIVE","[object Object]","-111.78191","Cache","UT","SLC","UT107","172519","247","North Logan","[object Object]","US","[object Object]","false","41.76777"
"PACIFICORP","SLC479","null","[object Object]","America/Denver","GB26","PACIFICORP","5890","PC115","null","GBCC","PacifiCorp","ACTIVE","[object Object]","-111.95311","Box Elder","UT","SLC","UT110","172520","247","Sardine Summit","[object Object]","US","[object Object]","false","41.54938"
"PACIFICORP","SLC479","null","[object Object]","America/Denver","GB26","PACIFICORP","4391","PC116","null","GBCC","PacifiCorp","ACTIVE","[object Object]","-112.05471","Box Elder","UT","SLC","UT103","172529","247","Honeyville South","[object Object]","US","[object Object]","false","41.61027"
"PACIFICORP","PIH413","4465.2","[object Object]","America/Boise","GB08","PACIFICORP","4467","PC117","null","GBCC","PacifiCorp","ACTIVE","[object Object]","-112.22878","Oneida","ID","PIH","ID059","172781","247","Malad City South","[object Object]","US","[object Object]","false","42.11887"
"PACIFICORP","RIW277","null","[object Object]","America/Denver","RM07","PACIFICORP","6570","PC118","null","RMCC","PacifiCorp","ACTIVE","[object Object]","-110.86664","Lincoln","WY","RIW","WY027","172797","247","Cokeville East","[object Object]","US","[object Object]","false","42.10019"
"PACIFICORP","PIH413","null","[object Object]","America/Boise","GB09","PACIFICORP","6026","PC119","null","GBCC","PacifiCorp","ACTIVE","[object Object]","-111.54097","Caribou","ID","PIH","ID062","172808","247","Soda Spring East","[object Object]","US","[object Object]","false","42.65241"
"PACIFICORP","PIH413","null","[object Object]","America/Boise","GB08","PACIFICORP","5482","PC120","null","GBCC","PacifiCorp","ACTIVE","[object Object]","-111.95490","Bannock","ID","PIH","ID058","172809","247","Fish Creek","[object Object]","US","[object Object]","false","42.61730"
"PACIFICORP","SLC478","5019.7","[object Object]","America/Denver","GB25","PACIFICORP","5000","PC121","null","GBCC","PacifiCorp","ACTIVE","[object Object]","-111.83884","Salt Lake","UT","SLC","UT105","172848","247","Federal Heights","[object Object]","US","[object Object]","false","40.77588"
"PACIFICORP","SLC479","null","[object Object]","America/Denver","GB26","PACIFICORP","5222","PC122","null","GBCC","PacifiCorp","INACTIVE","[object Object]","-111.65610","Cache","UT","SLC","UT110","172874","247","Logan Canyon","[object Object]","US","[object Object]","false","41.77261"
"PACIFICORP","SLC479","null","[object Object]","America/Denver","GB26","PACIFICORP","5686","PC123","null","GBCC","PacifiCorp","ACTIVE","[object Object]","-111.95217","Cache","UT","SLC","UT110","172891","247","Murray's Hill","[object Object]","US","[object Object]","false","41.61157"
"PACIFICORP","SLC479","null","[object Object]","America/Denver","GB26","PACIFICORP","5629","PC124","null","GBCC","PacifiCorp","ACTIVE","[object Object]","-111.80970","Cache","UT","SLC","UT110","172896","247","Crow Mountain","[object Object]","US","[object Object]","false","41.87201"
"PACIFICORP","PDT639","null","[object Object]","America/Los_Angeles","NW02","PACIFICORP","1298","PC125","null","NWCC","PacifiCorp","ACTIVE","[object Object]","-121.62404","Hood River","OR","PQR","OR014","172897","247","Dee Flat","[object Object]","US","[object Object]","false","45.56733"
"PACIFICORP","PDT639","null","[object Object]","America/Los_Angeles","NW02","PACIFICORP","1498","PC126","null","NWCC","PacifiCorp","ACTIVE","[object Object]","-121.60632","Hood River","OR","PQR","OR016","172898","247","Oak Grove","[object Object]","US","[object Object]","false","45.66670"
"PACIFICORP","PQR606","null","[object Object]","America/Los_Angeles","NW03","PACIFICORP","861","PC127","null","NWCC","PacifiCorp","ACTIVE","[object Object]","-122.69971","Linn","OR","PQR","OR010","173126","247","Lacomb","[object Object]","US","[object Object]","false","44.58986"
"PACIFICORP","PDT639","null","[object Object]","America/Los_Angeles","NW06","PACIFICORP","1973","PC128","null","NWCC","PacifiCorp","ACTIVE","[object Object]","-121.46481","Hood River","OR","PQR","OR016","173127","247","Hood River East","[object Object]","US","[object Object]","false","45.68110"
"PACIFICORP","PQR606","721.8","[object Object]","America/Los_Angeles","NW03","PACIFICORP","716","PC129","null","NWCC","PacifiCorp","ACTIVE","[object Object]","-122.66684","Linn","OR","PQR","OR010","173128","247","Albany-Lyons Highway","[object Object]","US","[object Object]","false","44.75625"
"PACIFICORP","PIH413","4904.9","[object Object]","America/Boise","GB08","PACIFICORP","4910","PC130","null","GBCC","PacifiCorp","ACTIVE","[object Object]","-111.79590","Franklin","ID","PIH","ID059","173141","247","Cub River","[object Object]","US","[object Object]","false","42.05607"
"PACIFICORP","PQR606","1666.7","[object Object]","America/Los_Angeles","NW03","PACIFICORP","1605","PC131","null","NWCC","PacifiCorp","INACTIVE","[object Object]","-122.53975","Linn","OR","PQR","OR010","173142","247","Cascadia West","[object Object]","US","[object Object]","false","44.38511"
"PACIFICORP","MFR282","3599.1","[object Object]","America/Los_Angeles","NC04","PACIFICORP","3593","PC132","null","NOCC","PacifiCorp","ACTIVE","[object Object]","-121.99718","Siskiyou","CA","MFR","CA082","173162","247","Middle Falls","[object Object]","US","[object Object]","false","41.25813"
"PACIFICORP","PIH413","null","[object Object]","America/Boise","GB08","PACIFICORP","5286","PC133","null","GBCC","PacifiCorp","ACTIVE","[object Object]","-112.01205","Caribou","ID","PIH","ID058","173170","247","Pebble","[object Object]","US","[object Object]","false","42.74454"
"PACIFICORP","PIH410","null","[object Object]","America/Boise","GB09","PACIFICORP","5741","PC134","null","GBCC","PacifiCorp","ACTIVE","[object Object]","-111.59599","Bonneville","ID","PIH","ID063","173190","247","Moss Avery","[object Object]","US","[object Object]","false","43.56148"
"PACIFICORP","MFR281","null","[object Object]","America/Los_Angeles","NC06","PACIFICORP","3167","PC135","null","NOCC","PacifiCorp","ACTIVE","[object Object]","-122.62872","Siskiyou","CA","MFR","CA081","173191","247","Butcher Hill","[object Object]","US","[object Object]","false","41.72484"
"PACIFICORP","PIH410","null","[object Object]","America/Boise","GB08","PACIFICORP","4799","PC136","null","GBCC","PacifiCorp","ACTIVE","[object Object]","-112.26207","Jefferson","ID","PIH","ID052","173334","247","Refuge","[object Object]","US","[object Object]","false","43.96481"
"PACIFICORP","MFR280","null","[object Object]","America/Los_Angeles","NC04","PACIFICORP","2865","PC137","null","NOCC","PacifiCorp","ACTIVE","[object Object]","-122.98141","Siskiyou","CA","MFR","CA080","173335","247","Quartz Valley","[object Object]","US","[object Object]","false","41.60723"
"PACIFICORP","PQR603","null","[object Object]","America/Los_Angeles","NW02","PACIFICORP","757","PC138","null","NWCC","PacifiCorp","ACTIVE","[object Object]","-123.39557","Polk","OR","PQR","OR007","173336","247","Barnhart Road","[object Object]","US","[object Object]","false","44.88393"
"PACIFICORP","PIH410","5895.7","[object Object]","America/Boise","GB08","PACIFICORP","5885","PC139","null","GBCC","PacifiCorp","ACTIVE","[object Object]","-112.18374","Clark","ID","PIH","ID067","173345","247","Spencer","[object Object]","US","[object Object]","false","44.35742"
"PACIFICORP","PQR606","1122","[object Object]","America/Los_Angeles","NW03","PACIFICORP","1127","PC140","null","NWCC","PacifiCorp","ACTIVE","[object Object]","-122.35910","Linn","OR","PQR","OR010","173346","247","Niagara","[object Object]","US","[object Object]","false","44.75311"
"PACIFICORP","PIH410","6246.7","[object Object]","America/Boise","GB08","PACIFICORP","6236","PC141","null","GBCC","PacifiCorp","ACTIVE","[object Object]","-111.42080","Madison","ID","PIH","ID064","173347","247","Canyon Creek","[object Object]","US","[object Object]","false","43.81309"
"PACIFICORP","PQR606","836.6","[object Object]","America/Los_Angeles","NW03","PACIFICORP","849","PC142","null","NWCC","PacifiCorp","ACTIVE","[object Object]","-122.46195","Linn","OR","PQR","OR010","173348","247","Mill City","[object Object]","US","[object Object]","false","44.75198"
"PACIFICORP","MFR280","2742.8","[object Object]","America/Los_Angeles","NC04","PACIFICORP","2739","PC143","null","NOCC","PacifiCorp","ACTIVE","[object Object]","-122.90801","Siskiyou","CA","MFR","CA080","173359","247","Oro Fino Creek","[object Object]","US","[object Object]","false","41.59976"
"PACIFICORP","MFR280","4379.9","[object Object]","America/Los_Angeles","NC04","PACIFICORP","4392","PC144","null","NOCC","PacifiCorp","ACTIVE","[object Object]","-122.80520","Siskiyou","CA","MFR","CA080","173360","247","Danny Point","[object Object]","US","[object Object]","false","41.44101"
"PACIFICORP","MFR280","2824.8","[object Object]","America/Los_Angeles","NC04","PACIFICORP","2825","PC145","null","NOCC","PacifiCorp","ACTIVE","[object Object]","-122.90898","Siskiyou","CA","MFR","CA080","173365","247","Kidder Creek","[object Object]","US","[object Object]","false","41.54032"
"PACIFICORP","MFR282","null","[object Object]","America/Los_Angeles","NC06","PACIFICORP","3801","PC146","null","NOCC","PacifiCorp","ACTIVE","[object Object]","-122.38235","Siskiyou","CA","MFR","CA082","173368","247","Deetz","[object Object]","US","[object Object]","false","41.36410"
"PACIFICORP","MFR281","null","[object Object]","America/Los_Angeles","NC06","PACIFICORP","2874","PC147","null","NOCC","PacifiCorp","ACTIVE","[object Object]","-122.60412","Siskiyou","CA","MFR","CA081","173371","247","Hilt South","[object Object]","US","[object Object]","false","41.96432"
"PACIFICORP","PQR603","null","[object Object]","America/Los_Angeles","NW02","PACIFICORP","693","PC148","null","NWCC","PacifiCorp","ACTIVE","[object Object]","-123.36275","Polk","OR","PQR","OR007","173372","247","Lauterman","[object Object]","US","[object Object]","false","44.91837"
"PACIFICORP","MFR281","2539.4","[object Object]","America/Los_Angeles","NC06","PACIFICORP","2534","PC149","null","NOCC","PacifiCorp","ACTIVE","[object Object]","-122.53575","Siskiyou","CA","MFR","CA081","173375","247","Montague","[object Object]","US","[object Object]","false","41.71794"
"PACIFICORP","SLC489","6066.3","[object Object]","America/Denver","GB31","PACIFICORP","6058","PC150","null","GBCC","PacifiCorp","ACTIVE","[object Object]","-110.40058","Carbon","UT","SLC","UT120","173384","247","Columbia","[object Object]","US","[object Object]","false","39.52142"
"PACIFICORP","SLC489","7670.6","[object Object]","America/Denver","GB31","PACIFICORP","7665","PC151","null","GBCC","PacifiCorp","ACTIVE","[object Object]","-110.61875","Emery","UT","SLC","UT121","173385","247","Cedar Mountain","[object Object]","US","[object Object]","false","39.17127"
"PACIFICORP","MFR280","2897","[object Object]","America/Los_Angeles","NC04","PACIFICORP","2881","PC152","null","NOCC","PacifiCorp","ACTIVE","[object Object]","-122.86537","Siskiyou","CA","MFR","CA080","173386","247","French Creek","[object Object]","US","[object Object]","false","41.40334"
"PACIFICORP","MFR281","3034.8","[object Object]","America/Los_Angeles","NC06","PACIFICORP","3023","PC153","null","NOCC","PacifiCorp","ACTIVE","[object Object]","-122.62407","Siskiyou","CA","MFR","CA081","173482","247","Yreka South","[object Object]","US","[object Object]","false","41.70071"
"PACIFICORP","SLC488","6768.4","[object Object]","America/Denver","GB31","PACIFICORP","6751","PC154","null","GBCC","PacifiCorp","ACTIVE","[object Object]","-111.11027","Emery","UT","SLC","UT117","173487","247","Bear Valley Canyon","[object Object]","US","[object Object]","false","39.39874"
"PACIFICORP","SLC489","6473.1","[object Object]","America/Denver","GB31","PACIFICORP","6463","PC155","null","GBCC","PacifiCorp","ACTIVE","[object Object]","-110.80757","Carbon","UT","SLC","UT120","173488","247","Kenilworth","[object Object]","US","[object Object]","false","39.68524"
"PACIFICORP","MFR284","3225.1","[object Object]","America/Los_Angeles","NC06","PACIFICORP","3220","PC156","null","NOCC","PacifiCorp","ACTIVE","[object Object]","-122.28767","Siskiyou","CA","MFR","CA083","173489","247","Pluto's Cave","[object Object]","US","[object Object]","false","41.57968"
"PACIFICORP","PQR606","731.6","[object Object]","America/Los_Angeles","NW03","PACIFICORP","736","PC157","null","NWCC","PacifiCorp","ACTIVE","[object Object]","-122.57357","Linn","OR","PQR","OR010","173490","247","Lyons East","[object Object]","US","[object Object]","false","44.76326"
"PACIFICORP","MFR281","2732.9","[object Object]","America/Los_Angeles","NC06","PACIFICORP","2729","PC158","null","NOCC","PacifiCorp","ACTIVE","[object Object]","-122.52741","Siskiyou","CA","MFR","CA081","173491","247","Gazelle","[object Object]","US","[object Object]","false","41.53812"
"PACIFICORP","MFR281","null","[object Object]","America/Los_Angeles","NC04","PACIFICORP","3308","PC159","null","NOCC","PacifiCorp","ACTIVE","[object Object]","-122.76128","Siskiyou","CA","MFR","CA081","173508","247","Costa Gulch","[object Object]","US","[object Object]","false","41.64033"
"PACIFICORP","MFR282","null","[object Object]","America/Los_Angeles","NC04","PACIFICORP","4410","PC160","null","NOCC","PacifiCorp","ACTIVE","[object Object]","-122.23175","Siskiyou","CA","MFR","CA082","173513","247","Snowman","[object Object]","US","[object Object]","false","41.26833"
"PACIFICORP","PQR612","null","[object Object]","America/Los_Angeles","NW02","PACIFICORP","643","PC161","null","NWCC","PacifiCorp","ACTIVE","[object Object]","-123.90586","Lincoln","OR","PQR","OR004","173514","247","Echo Mountain","[object Object]","US","[object Object]","false","45.01476"
"PACIFICORP","PQR612","null","[object Object]","America/Los_Angeles","NW02","PACIFICORP","8","PC162","null","NWCC","PacifiCorp","ACTIVE","[object Object]","-124.00653","Lincoln","OR","PQR","OR002","173754","247","Cutler City","[object Object]","US","[object Object]","false","44.91587"
"PACIFICORP","MFR280","null","[object Object]","America/Los_Angeles","NC04","PACIFICORP","4307","PC163","null","NOCC","PacifiCorp","INACTIVE","[object Object]","-122.72752","Siskiyou","CA","MFR","CA080","173756","247","Schoolhouse","[object Object]","US","[object Object]","false","41.38261"
"PACIFICORP","MFR280","2749.3","[object Object]","America/Los_Angeles","NC04","PACIFICORP","2744","PC164","null","NOCC","PacifiCorp","ACTIVE","[object Object]","-122.84292","Siskiyou","CA","MFR","CA080","173762","247","Eastside Road","[object Object]","US","[object Object]","false","41.52923"
"PACIFICORP","PQR603","659.4","[object Object]","America/Los_Angeles","NW02","PACIFICORP","671","PC165","null","NWCC","PacifiCorp","ACTIVE","[object Object]","-123.71740","Polk","OR","PQR","OR004","173763","247","Murphy Hill","[object Object]","US","[object Object]","false","45.07417"
"PACIFICORP","MFR280","2772.3","[object Object]","America/Los_Angeles","NC04","PACIFICORP","2769","PC166","null","NOCC","PacifiCorp","ACTIVE","[object Object]","-122.91016","Siskiyou","CA","MFR","CA080","173774","247","Oro Fino Creek 2","[object Object]","US","[object Object]","false","41.58043"
"PACIFICORP","PDT640","2726.4","[object Object]","America/Los_Angeles","NW06","PACIFICORP","2718","PC167","null","NWCC","PacifiCorp","ACTIVE","[object Object]","-121.28307","Jefferson","OR","PDT","OR511","173909","247","Steelhead Falls","[object Object]","US","[object Object]","false","44.42042"
"PACIFICORP","MFR281","2673.9","[object Object]","America/Los_Angeles","NC06","PACIFICORP","2668","PC168","null","NOCC","PacifiCorp","ACTIVE","[object Object]","-122.44569","Siskiyou","CA","MFR","CA081","173912","247","Montague-Siskiyou AP","[object Object]","US","[object Object]","false","41.79374"
"PACIFICORP","PDT610","2713.3","[object Object]","America/Los_Angeles","NW06","PACIFICORP","2705","PC169","null","NWCC","PacifiCorp","ACTIVE","[object Object]","-121.47208","Wasco","OR","PDT","OR510","173913","247","Mill Creek Hehe","[object Object]","US","[object Object]","false","44.86969"
"PACIFICORP","SLC496","null","[object Object]","America/Denver","GB34","PACIFICORP","8366","PC170","null","GBCC","PacifiCorp","ACTIVE","[object Object]","-112.61339","Garfield","UT","SLC","UT125","173943","247","Panguitch Lake","[object Object]","US","[object Object]","false","37.74153"
"PACIFICORP","MFR284","null","[object Object]","America/Los_Angeles","NC06","PACIFICORP","4606","PC171","null","NOCC","PacifiCorp","ACTIVE","[object Object]","-121.97157","Siskiyou","CA","MFR","CA084","173944","247","Horse Shoe Trail","[object Object]","US","[object Object]","false","41.98034"
"PACIFICORP","SLC493","null","[object Object]","America/Denver","GB28","PACIFICORP","6197","PC172","null","GBCC","PacifiCorp","ACTIVE","[object Object]","-112.22536","Piute","UT","SLC","UT126","173947","247","Junction South","[object Object]","US","[object Object]","false","38.21609"
"PACIFICORP","MFR284","null","[object Object]","America/Los_Angeles","NC06","PACIFICORP","4855","PC173","null","NOCC","PacifiCorp","ACTIVE","[object Object]","-121.57756","Siskiyou","CA","MFR","CA084","173948","247","Sheepy Saddle","[object Object]","US","[object Object]","false","41.92490"
"PACIFICORP","MFR284","null","[object Object]","America/Los_Angeles","NC06","PACIFICORP","4464","PC174","null","NOCC","PacifiCorp","ACTIVE","[object Object]","-121.73969","Siskiyou","CA","MFR","CA084","174062","247","Big Tableland","[object Object]","US","[object Object]","false","41.84952"
"PACIFICORP","MFR616","null","[object Object]","America/Los_Angeles","NW04","PACIFICORP","1555","PC175","null","NWCC","PacifiCorp","INACTIVE","[object Object]","-123.19803","Douglas","OR","MFR","OR023","174063","247","Packsaddle Lane","[object Object]","US","[object Object]","false","43.04984"
"PACIFICORP","MFR284","null","[object Object]","America/Los_Angeles","NC06","PACIFICORP","4504","PC176","null","NOCC","PacifiCorp","ACTIVE","[object Object]","-121.73531","Siskiyou","CA","MFR","CA084","174097","247","Big Tableland 2","","US","[object Object]","false","41.88012"
"PACIFICORP","MFR284","null","[object Object]","America/Los_Angeles","NC06","PACIFICORP","4455","PC177","null","NOCC","PacifiCorp","ACTIVE","[object Object]","-121.90649","Siskiyou","CA","MFR","CA084","174099","247","Dorris","","US","[object Object]","false","41.97120"
"PACIFICORP","MFR615","null","[object Object]","America/Los_Angeles","NW03","PACIFICORP","515","PC178","null","NWCC","PacifiCorp","ACTIVE","[object Object]","-124.30575","Coos","OR","MFR","OR021","174100","247","Beaver","","US","[object Object]","false","43.20444"
"PACIFICORP","PDT640","null","[object Object]","America/Los_Angeles","NW06","PACIFICORP","3152","PC179","null","NWCC","PacifiCorp","ACTIVE","[object Object]","-120.72299","Crook","OR","PDT","OR506","174105","247","Ochoco Reservoir","[object Object]","US","[object Object]","false","44.29968"
"PACIFICORP","GJT491","null","[object Object]","America/Denver","GB32","PACIFICORP","6112","PC180","null","GBCC","PacifiCorp","ACTIVE","[object Object]","-109.45790","San Juan","UT","GJT","UT022","174112","247","Blanding East","[object Object]","US","[object Object]","false","37.63641"
"PACIFICORP","PDT640","null","[object Object]","America/Los_Angeles","NW06","PACIFICORP","3178","PC181","null","NWCC","PacifiCorp","ACTIVE","[object Object]","-120.81038","Crook","OR","PDT","OR506","174113","247","Allen Creek","[object Object]","US","[object Object]","false","44.41405"
"PACIFICORP","PDT640","null","[object Object]","America/Los_Angeles","NW06","PACIFICORP","2987","PC182","null","NWCC","PacifiCorp","ACTIVE","[object Object]","-121.02805","Crook","OR","PDT","OR511","174114","247","Dry River","[object Object]","US","[object Object]","false","44.27839"
"PACIFICORP","PDT640","null","[object Object]","America/Los_Angeles","NW06","PACIFICORP","3692","PC183","null","NWCC","PacifiCorp","ACTIVE","[object Object]","-121.37339","Deschutes","OR","PDT","OR509","174115","247","Shevlin Park","[object Object]","US","[object Object]","false","44.08295"
"PACIFICORP","GJT491","null","[object Object]","America/Denver","GB32","PACIFICORP","7181","PC184","null","GBCC","PacifiCorp","ACTIVE","[object Object]","-109.19110","San Juan","UT","GJT","UT028","174122","247","Vanadium","[object Object]","US","[object Object]","false","38.09564"
"PACIFICORP","PDT611","null","[object Object]","America/Los_Angeles","NW07","PACIFICORP","3896","PC185","null","NWCC","PacifiCorp","ACTIVE","[object Object]","-121.37332","Deschutes","OR","PDT","OR509","174123","247","Rimrock Trail","[object Object]","US","[object Object]","false","44.01463"
"PACIFICORP","PDT611","null","[object Object]","America/Los_Angeles","NW07","PACIFICORP","4617","PC186","null","NWCC","PacifiCorp","ACTIVE","[object Object]","-121.46795","Deschutes","OR","PDT","OR509","174124","247","Boulder Lane","[object Object]","US","[object Object]","false","44.04180"
"PACIFICORP","GJT491","null","[object Object]","America/Denver","GB32","PACIFICORP","6732","PC187","null","GBCC","PacifiCorp","ACTIVE","[object Object]","-109.26002","San Juan","UT","GJT","UT028","174125","247","Big Indian","[object Object]","US","[object Object]","false","38.18191"
"PACIFICORP","GJT491","null","[object Object]","America/Denver","GB32","PACIFICORP","6376","PC188","null","GBCC","PacifiCorp","ACTIVE","[object Object]","-109.43429","San Juan","UT","GJT","UT029","174258","247","Hole N The Rock","[object Object]","US","[object Object]","false","38.38878"
"PACIFICORP","GJT490","null","[object Object]","America/Denver","GB32","PACIFICORP","4797","PC189","null","GBCC","PacifiCorp","ACTIVE","[object Object]","-109.47304","Grand","UT","GJT","UT027","174259","247","Moab Southeast","[object Object]","US","[object Object]","false","38.53938"
"PACIFICORP","PDT640","null","[object Object]","America/Los_Angeles","NW06","PACIFICORP","3439","PC190","null","NWCC","PacifiCorp","ACTIVE","[object Object]","-121.24063","Deschutes","OR","PDT","OR511","174260","247","Butler Market Road","[object Object]","US","[object Object]","false","44.09484"
"PACIFICORP","PDT640","null","[object Object]","America/Los_Angeles","NW06","PACIFICORP","3535","PC191","null","NWCC","PacifiCorp","ACTIVE","[object Object]","-121.27861","Deschutes","OR","PDT","OR511","174261","247","Tumalo Northeast","[object Object]","US","[object Object]","false","44.17368"
"PACIFICORP","PDT640","null","[object Object]","America/Los_Angeles","NW06","PACIFICORP","2793","PC192","null","NWCC","PacifiCorp","ACTIVE","[object Object]","-121.30739","Jefferson","OR","PDT","OR511","174262","247","Culver Southwest","[object Object]","US","[object Object]","false","44.47985"
"PACIFICORP","PDT640","null","[object Object]","America/Los_Angeles","NW06","PACIFICORP","2939","PC193","null","NWCC","PacifiCorp","ACTIVE","[object Object]","-121.25059","Deschutes","OR","PDT","OR511","174263","247","Redmond West","[object Object]","US","[object Object]","false","44.27443"
"PACIFICORP","SLC478","null","[object Object]","America/Denver","GB25","PACIFICORP","8464","PC194","null","GBCC","PacifiCorp","ACTIVE","[object Object]","-112.16343","Salt Lake","UT","SLC","UT101","174284","247","Nelson Peak Road","[object Object]","US","[object Object]","false","40.60668"
"PACIFICORP","SLC492","null","[object Object]","America/Denver","GB27","PACIFICORP","7872","PC195","null","GBCC","PacifiCorp","ACTIVE","[object Object]","-112.10704","Juab","UT","SLC","UT115","174297","247","Eureka Ridge","[object Object]","US","[object Object]","false","39.93766"
"PACIFICORP","SLC479","null","[object Object]","America/Denver","GB26","PACIFICORP","5805","PC196","null","GBCC","PacifiCorp","ACTIVE","[object Object]","-111.48868","Utah","UT","SLC","UT113","174301","247","Thistle","[object Object]","US","[object Object]","false","40.00615"
"PACIFICORP","MFR616","null","[object Object]","America/Los_Angeles","NW03","PACIFICORP","1264","PC197","null","NWCC","PacifiCorp","ACTIVE","[object Object]","-123.38303","Douglas","OR","MFR","OR023","174302","247","Hutchins","[object Object]","US","[object Object]","false","43.20208"
"PACIFICORP","SLC493","null","[object Object]","America/Denver","GB28","PACIFICORP","6844","PC198","null","GBCC","PacifiCorp","ACTIVE","[object Object]","-112.21683","Piute","UT","SLC","UT125","174305","247","Iron Cap","[object Object]","US","[object Object]","false","38.49699"
"PACIFICORP","MFR285","null","[object Object]","America/Los_Angeles","NC08","PACIFICORP","5454","PC199","null","NOCC","PacifiCorp","INACTIVE","[object Object]","-120.23074","Modoc","CA","MFR","CA085","174306","247","Cedar Creek","[object Object]","US","[object Object]","false","41.53907"
"PACIFICORP","MFR617","null","[object Object]","America/Los_Angeles","NW04","PACIFICORP","4437","PC200","null","NWCC","PacifiCorp","ACTIVE","[object Object]","-122.17624","Douglas","OR","MFR","OR027","174307","247","Elbow Butte","[object Object]","US","[object Object]","false","43.28103"
"PACIFICORP","MFR617","null","[object Object]","America/Los_Angeles","NW04","PACIFICORP","5326","PC201","null","NWCC","PacifiCorp","ACTIVE","[object Object]","-122.13453","Douglas","OR","MFR","OR027","174308","247","Diamond Lake","[object Object]","US","[object Object]","false","43.18254"
"PACIFICORP","SLC493","null","[object Object]","America/Denver","GB28","PACIFICORP","7652","PC202","null","GBCC","PacifiCorp","ACTIVE","[object Object]","-112.18238","Sevier","UT","SLC","UT117","174309","247","Richfield West Mountain Rd","[object Object]","US","[object Object]","false","38.78475"
"PACIFICORP","SLC493","null","[object Object]","America/Denver","GB28","PACIFICORP","7171","PC203","null","GBCC","PacifiCorp","ACTIVE","[object Object]","-112.37966","Sevier","UT","SLC","UT117","174310","247","Fish Lake NF","[object Object]","US","[object Object]","false","38.57103"
"PACIFICORP","MFR285","null","[object Object]","America/Los_Angeles","NC06","PACIFICORP","5606","PC204","null","NOCC","PacifiCorp","ACTIVE","[object Object]","-120.32214","Modoc","CA","MFR","CA085","174311","247","Thomas Creek","[object Object]","US","[object Object]","false","41.55605"
"PACIFICORP","MFR281","null","[object Object]","America/Los_Angeles","NC06","PACIFICORP","3137","PC205","null","NOCC","PacifiCorp","ACTIVE","[object Object]","-122.37252","Siskiyou","CA","MFR","CA081","174400","247","Copco","[object Object]","US","[object Object]","false","41.98463"
"PACIFICORP","MFR616","null","[object Object]","America/Los_Angeles","NW03","PACIFICORP","685","PC206","null","NWCC","PacifiCorp","ACTIVE","[object Object]","-123.28911","Douglas","OR","MFR","OR023","174401","247","North Bank Road","[object Object]","US","[object Object]","false","43.31399"
"PACIFICORP","MFR616","null","[object Object]","America/Los_Angeles","NW04","PACIFICORP","714","PC207","null","NWCC","PacifiCorp","ACTIVE","[object Object]","-123.20673","Douglas","OR","MFR","OR023","174402","247","North Umpqua","[object Object]","US","[object Object]","false","43.31422"
"PACIFICORP","MFR616","null","[object Object]","America/Los_Angeles","NW04","PACIFICORP","2742","PC208","null","NWCC","PacifiCorp","ACTIVE","[object Object]","-123.24551","Douglas","OR","MFR","OR023","174403","247","Dodson Peak","[object Object]","US","[object Object]","false","43.11406"
"PACIFICORP","MFR616","null","[object Object]","America/Los_Angeles","NW04","PACIFICORP","886","PC209","null","NWCC","PacifiCorp","ACTIVE","[object Object]","-123.30631","Douglas","OR","MFR","OR023","174404","247","Dole Road","[object Object]","US","[object Object]","false","43.03359"
"PACIFICORP","SLC479","5590.6","[object Object]","America/Denver","GB26","PACIFICORP","5594","PC210","null","GBCC","PacifiCorp","ACTIVE","[object Object]","-111.95177","Box Elder","UT","SLC","UT110","174405","247","Mantua South","","US","[object Object]","false","41.48084"
"PACIFICORP","SLC479","4924.5","[object Object]","America/Denver","GB26","PACIFICORP","4933","PC211","null","GBCC","PacifiCorp","ACTIVE","[object Object]","-111.83216","Morgan","UT","SLC","UT108","174407","247","Weber Canyon","[object Object]","US","[object Object]","false","41.13983"
"PACIFICORP","MFR616","1456.7","[object Object]","America/Los_Angeles","NW04","PACIFICORP","1418","PC212","null","NWCC","PacifiCorp","ACTIVE","[object Object]","-123.26521","Douglas","OR","MFR","OR023","174408","247","Wild Iris Lane","[object Object]","US","[object Object]","false","43.23377"
"PACIFICORP","MFR280","3110.2","[object Object]","America/Los_Angeles","NC04","PACIFICORP","3112","PC213","null","NOCC","PacifiCorp","ACTIVE","[object Object]","-122.80866","Siskiyou","CA","MFR","CA080","174409","247","Scott River","[object Object]","US","[object Object]","false","41.32044"
"PACIFICORP","MFR616","1417.3","[object Object]","America/Los_Angeles","NW03","PACIFICORP","1417","PC214","null","NWCC","PacifiCorp","ACTIVE","[object Object]","-123.32350","Douglas","OR","MFR","OR023","174410","247","Mt Rose","[object Object]","US","[object Object]","false","43.23383"
"PACIFICORP","PIH413","null","[object Object]","America/Boise","GB09","PACIFICORP","7288","PC215","null","GBCC","PacifiCorp","ACTIVE","[object Object]","-111.47821","Bear Lake","ID","PIH","ID060","174432","247","Bartlett Lake","[object Object]","US","[object Object]","false","42.39937"
"PACIFICORP","MFR616","null","[object Object]","America/Los_Angeles","NW04","PACIFICORP","2246","PC216","null","NWCC","PacifiCorp","ACTIVE","[object Object]","-123.11856","Douglas","OR","MFR","OR023","174433","247","Lane Mountain","[object Object]","US","[object Object]","false","43.21072"
"PACIFICORP","MFR284","null","[object Object]","America/Los_Angeles","NC06","PACIFICORP","4400","PC217","null","NOCC","PacifiCorp","ACTIVE","[object Object]","-121.82081","Siskiyou","CA","MFR","CA083","174434","247","Long Prairie","[object Object]","US","[object Object]","false","41.72100"
"PACIFICORP","MFR616","null","[object Object]","America/Los_Angeles","NW04","PACIFICORP","1124","PC218","null","NWCC","PacifiCorp","ACTIVE","[object Object]","-123.03007","Douglas","OR","MFR","OR023","174435","247","Peel","[object Object]","US","[object Object]","false","43.26539"
"PACIFICORP","PIH410","6138.5","[object Object]","America/Boise","GB08","PACIFICORP","6135","PC219","null","GBCC","PacifiCorp","ACTIVE","[object Object]","-111.85758","Bonneville","ID","PIH","ID062","174499","247","Galbraith","[object Object]","US","[object Object]","false","43.42769"
"PACIFICORP","MFR615","114.8","[object Object]","America/Los_Angeles","NW03","PACIFICORP","117","PC220","null","NWCC","PacifiCorp","ACTIVE","[object Object]","-124.37557","Coos","OR","MFR","OR021","174500","247","Fox","[object Object]","US","[object Object]","false","43.16515"
"PACIFICORP","SLC478","7677.2","[object Object]","America/Denver","GB25","PACIFICORP","7675","PC221","null","GBCC","PacifiCorp","ACTIVE","[object Object]","-111.94242","Utah","UT","SLC","UT106","174689","247","Lake Mountain","[object Object]","US","[object Object]","false","40.27518"
"PACIFICORP","EKA203","1984.9","[object Object]","America/Los_Angeles","NC04","PACIFICORP","2007","PC222","null","NOCC","PacifiCorp","ACTIVE","[object Object]","-123.83694","Del Norte","CA","EKA","CA102","174690","247","Dead Horse","[object Object]","US","[object Object]","false","41.88048"
"PACIFICORP","MFR616","538.1","[object Object]","America/Los_Angeles","NW03","PACIFICORP","533","PC223","null","NWCC","PacifiCorp","ACTIVE","[object Object]","-123.31634","Douglas","OR","MFR","OR023","174691","247","Union Gap","[object Object]","US","[object Object]","false","43.40003"
"PACIFICORP","EKA203","1299.2","[object Object]","America/Los_Angeles","NC04","PACIFICORP","1316","PC224","null","NOCC","PacifiCorp","ACTIVE","[object Object]","-123.93667","Del Norte","CA","EKA","CA102","174692","247","Darlingtonia","[object Object]","US","[object Object]","false","41.84750"
"PACIFICORP","MFR616","null","[object Object]","America/Los_Angeles","NW04","PACIFICORP","633","PC225","null","NWCC","PacifiCorp","INACTIVE","[object Object]","-123.36894","Douglas","OR","MFR","OR023","174726","247","Round Prairie","[object Object]","US","[object Object]","false","43.09090"
"PACIFICORP","MFR615","null","[object Object]","America/Los_Angeles","NW03","PACIFICORP","388","PC226","null","NWCC","PacifiCorp","ACTIVE","[object Object]","-124.08546","Coos","OR","MFR","OR021","174739","247","Powers","[object Object]","US","[object Object]","false","42.89967"
"PACIFICORP","MFR616","1322.2","[object Object]","America/Los_Angeles","NW04","PACIFICORP","1330","PC227","null","NWCC","PacifiCorp","ACTIVE","[object Object]","-123.02348","Douglas","OR","MFR","OR023","174904","247","Rock Creek","[object Object]","US","[object Object]","false","43.33103"
"PACIFICORP","MFR616","1279.5","[object Object]","America/Los_Angeles","NW04","PACIFICORP","1267","PC228","null","NWCC","PacifiCorp","ACTIVE","[object Object]","-123.15774","Douglas","OR","MFR","OR023","174918","247","Douglas","[object Object]","US","[object Object]","false","42.95529"
"PACIFICORP","RIW279","7322.8","[object Object]","America/Denver","RM07","PACIFICORP","7321","PC229","null","RMCC","PacifiCorp","ACTIVE","[object Object]","-109.26968","Sweetwater","WY","RIW","WY029","174919","247","Little Bitter Creek","[object Object]","US","[object Object]","false","41.35923"
"PACIFICORP","RIW279","6246.7","[object Object]","America/Denver","RM07","PACIFICORP","6241","PC230","null","RMCC","PacifiCorp","ACTIVE","[object Object]","-109.27065","Sweetwater","WY","RIW","WY028","174920","247","Rock Springs","[object Object]","US","[object Object]","false","41.56231"
"PACIFICORP","PQR606","1102.4","[object Object]","America/Los_Angeles","NW03","PACIFICORP","1097","PC231","null","NWCC","PacifiCorp","ACTIVE","[object Object]","-122.39364","Linn","OR","PQR","OR011","174921","247","Old Santiam Wagon Road","[object Object]","US","[object Object]","false","44.39850"
"PACIFICORP","PQR603","570.9","[object Object]","America/Los_Angeles","NW02","PACIFICORP","565","PC232","null","NWCC","PacifiCorp","ACTIVE","[object Object]","-123.47015","Polk","OR","PQR","OR007","174922","247","Little Luckiamute","[object Object]","US","[object Object]","false","44.87156"
"PACIFICORP","CYS422","7050.5","[object Object]","America/Denver","RM08","PACIFICORP","7043","PC233","null","RMCC","PacifiCorp","ACTIVE","[object Object]","-106.53949","Carbon","WY","CYS","WY109","174936","247","Elmo","[object Object]","US","[object Object]","false","41.88749"
"PACIFICORP","MFR616","1089.2","[object Object]","America/Los_Angeles","NW04","PACIFICORP","1087","PC234","null","NWCC","PacifiCorp","ACTIVE","[object Object]","-122.95059","Douglas","OR","MFR","OR023","174937","247","Tiller","[object Object]","US","[object Object]","false","42.92916"
"PACIFICORP","MFR617","2290","[object Object]","America/Los_Angeles","NW04","PACIFICORP","2303","PC235","null","NWCC","PacifiCorp","ACTIVE","[object Object]","-122.95555","Douglas","OR","MFR","OR023","174938","247","Devil's Knob","[object Object]","US","[object Object]","false","42.90573"
"PACIFICORP","CYS429","8841.9","[object Object]","America/Denver","RM12","PACIFICORP","8842","PC236","null","RMCC","PacifiCorp","ACTIVE","[object Object]","-105.45423","Albany","WY","CYS","WY116","174960","247","Pilot Hill","[object Object]","US","[object Object]","false","41.31047"
"PACIFICORP","CYS428","7293.3","[object Object]","America/Denver","RM12","PACIFICORP","7289","PC237","null","RMCC","PacifiCorp","ACTIVE","[object Object]","-105.71261","Albany","WY","CYS","WY115","174961","247","Snowy Range","[object Object]","US","[object Object]","false","41.33793"
"PACIFICORP","MFR616","null","[object Object]","America/Los_Angeles","NW04","PACIFICORP","934","PC238","null","NWCC","PacifiCorp","ACTIVE","[object Object]","-123.04488","Douglas","OR","MFR","OR023","174968","247","Milo","[object Object]","US","[object Object]","false","42.93282"
"PACIFICORP","MFR616","null","[object Object]","America/Los_Angeles","NW04","PACIFICORP","1348","PC239","null","NWCC","PacifiCorp","ACTIVE","[object Object]","-123.09720","Douglas","OR","MFR","OR023","174969","247","Ash Creek","[object Object]","US","[object Object]","false","42.94764"
"PACIFICORP","CYS419","null","[object Object]","America/Denver","RM09","PACIFICORP","6042","PC240","null","RMCC","PacifiCorp","ACTIVE","[object Object]","-105.72423","Converse","WY","CYS","WY103","174970","247","Powderhorn","[object Object]","US","[object Object]","false","42.58748"
"PACIFICORP","MFR620","null","[object Object]","America/Los_Angeles","NW04","PACIFICORP","1822","PC241","null","NWCC","PacifiCorp","ACTIVE","[object Object]","-123.37914","Josephine","OR","MFR","OR024","174971","247","Golden","[object Object]","US","[object Object]","false","42.66849"
"PACIFICORP","RIW300","7657.5","[object Object]","America/Denver","RM08","PACIFICORP","7650","PC242","null","RMCC","PacifiCorp","ACTIVE","[object Object]","-106.32105","Natrona","WY","RIW","WY022","174977","247","Casper Mountain","[object Object]","US","[object Object]","false","42.76031"
"PACIFICORP","MFR616","1371.4","[object Object]","America/Los_Angeles","NW04","PACIFICORP","1376","PC243","null","NWCC","PacifiCorp","ACTIVE","[object Object]","-122.87743","Douglas","OR","MFR","OR025","174978","247","Paris","[object Object]","US","[object Object]","false","43.30422"
"PACIFICORP","MFR620","4012.5","[object Object]","America/Los_Angeles","NW04","PACIFICORP","4002","PC244","null","NWCC","PacifiCorp","INACTIVE","[object Object]","-123.66140","Josephine","OR","MFR","OR024","175091","247","Eight Dollar Mountain","[object Object]","US","[object Object]","false","42.25810"
"PACIFICORP","RIW279","6548.6","[object Object]","America/Denver","RM07","PACIFICORP","6534","PC245","null","RMCC","PacifiCorp","ACTIVE","[object Object]","-108.73830","Sweetwater","WY","RIW","WY030","175104","247","Point of Rocks","[object Object]","US","[object Object]","false","41.67590"
"PACIFICORP","MFR620","1410.8","[object Object]","America/Los_Angeles","NW04","PACIFICORP","1401","PC246","null","NWCC","PacifiCorp","ACTIVE","[object Object]","-123.68488","Josephine","OR","MFR","OR024","175105","247","Piller","[object Object]","US","[object Object]","false","42.13390"
"PACIFICORP","MFR621","3868.1","[object Object]","America/Los_Angeles","NW04","PACIFICORP","3865","PC247","null","NWCC","PacifiCorp","ACTIVE","[object Object]","-123.55108","Josephine","OR","MFR","OR024","175106","247","Page","[object Object]","US","[object Object]","false","42.04030"
"PACIFICORP","CYS419","null","[object Object]","America/Denver","RM09","PACIFICORP","6371","PC248","null","RMCC","PacifiCorp","ACTIVE","[object Object]","-105.35206","Converse","WY","CYS","WY103","175115","247","Esterbrook","[object Object]","US","[object Object]","false","42.44406"
"PACIFICORP","MFR620","null","[object Object]","America/Los_Angeles","NW04","PACIFICORP","2161","PC249","null","NWCC","PacifiCorp","ACTIVE","[object Object]","-123.15622","Jackson","OR","MFR","OR026","175116","247","Rogue River North","[object Object]","US","[object Object]","false","42.45451"
"PACIFICORP","RIW300","null","[object Object]","America/Denver","RM08","PACIFICORP","5990","PC250","null","RMCC","PacifiCorp","ACTIVE","[object Object]","-106.52318","Natrona","WY","RIW","WY022","175117","247","North Platte","[object Object]","US","[object Object]","false","42.72733"
"PACIFICORP","RIW281","5423.2","[object Object]","America/Denver","RM04","PACIFICORP","5411","PC251","null","RMCC","PacifiCorp","ACTIVE","[object Object]","-106.82634","Johnson","WY","RIW","WY010","175177","247","Johnson Creek","[object Object]","US","[object Object]","false","44.36861"
"PACIFICORP","SLC484","10059.1","[object Object]","America/Denver","GB31","PACIFICORP","10054","PC252","null","GBCC","PacifiCorp","ACTIVE","[object Object]","-110.34164","Carbon","UT","SLC","UT113","175178","247","Patmos Ridge","[object Object]","US","[object Object]","false","39.63823"
"PACIFICORP","SLC488","9809.7","[object Object]","America/Denver","GB31","PACIFICORP","9803","PC253","null","GBCC","PacifiCorp","ACTIVE","[object Object]","-110.99180","Carbon","UT","SLC","UT113","175184","247","Ford Ridge","[object Object]","US","[object Object]","false","39.75591"
"PACIFICORP","SLC488","9537.4","[object Object]","America/Denver","GB31","PACIFICORP","9535","PC254","null","GBCC","PacifiCorp","INACTIVE","[object Object]","-111.12962","Carbon","UT","SLC","UT113","175189","247","The Elbow","[object Object]","US","[object Object]","false","39.65353"
"PACIFICORP","SLC479","8881.2","[object Object]","America/Denver","GB26","PACIFICORP","8886","PC255","null","GBCC","PacifiCorp","INACTIVE","[object Object]","-111.11204","Utah","UT","SLC","UT113","175190","247","Soldier Summit Ridge","[object Object]","US","[object Object]","false","39.88577"
"PACIFICORP","RIW277","7631.2","[object Object]","America/Denver","RM07","PACIFICORP","7621","PC256","null","RMCC","PacifiCorp","ACTIVE","[object Object]","-110.85312","Lincoln","WY","RIW","WY024","175207","247","Nugget Canyon","[object Object]","US","[object Object]","false","41.84619"
"PACIFICORP","MFR620","1355","[object Object]","America/Los_Angeles","NW04","PACIFICORP","1357","PC257","null","NWCC","PacifiCorp","ACTIVE","[object Object]","-123.57094","Josephine","OR","MFR","OR024","175208","247","Onion Mountain Road","[object Object]","US","[object Object]","false","42.34937"
"PACIFICORP","RIW278","null","[object Object]","America/Denver","RM07","PACIFICORP","7858","PC258","null","RMCC","PacifiCorp","ACTIVE","[object Object]","-109.78779","Sublette","WY","RIW","WY025","175215","247","Half Moon Lake","[object Object]","US","[object Object]","false","42.92911"
"PACIFICORP","RIW283","5479","[object Object]","America/Denver","RM08","PACIFICORP","5471","PC259","null","RMCC","PacifiCorp","ACTIVE","[object Object]","-108.68443","Fremont","WY","RIW","WY018","175217","247","Wyopo","[object Object]","US","[object Object]","false","42.85408"
"PACIFICORP","RIW286","null","[object Object]","America/Denver","RM01","PACIFICORP","5983","PC260","null","RMCC","PacifiCorp","ACTIVE","[object Object]","-109.65188","Park","WY","RIW","WY002","175312","247","Fork","[object Object]","US","[object Object]","false","44.46721"
"PACIFICORP","RIW286","7568.9","[object Object]","America/Denver","RM02","PACIFICORP","7543","PC261","null","RMCC","PacifiCorp","ACTIVE","[object Object]","-109.15227","Park","WY","RIW","WY002","175315","247","Buffalo Bill","[object Object]","US","[object Object]","false","44.49718"
"PACIFICORP","RIW276","null","[object Object]","America/Denver","RM02","PACIFICORP","5550","PC262","null","RMCC","PacifiCorp","ACTIVE","[object Object]","-109.28128","Park","WY","RIW","WY003","175610","247","Dead Indian Hill","[object Object]","US","[object Object]","false","44.71408"
"PACIFICORP","RIW286","null","[object Object]","America/Denver","RM02","PACIFICORP","6698","PC263","null","RMCC","PacifiCorp","ACTIVE","[object Object]","-109.55900","Park","WY","RIW","WY002","175611","247","Swamp Lake","[object Object]","US","[object Object]","false","44.84675"
"PACIFICORP","BYZ284","null","[object Object]","America/Denver","RM03","PACIFICORP","9039","PC264","null","RMCC","PacifiCorp","ACTIVE","[object Object]","-107.82879","Big Horn","WY","RIW","WY008","175614","247","Medicine Mountain","[object Object]","US","[object Object]","false","44.83237"
"PACIFICORP","SLC492","null","[object Object]","America/Denver","GB27","PACIFICORP","6773","PC265","null","GBCC","PacifiCorp","ACTIVE","[object Object]","-111.54298","Sanpete","UT","SLC","UT117","175615","247","Canyon View Drive","[object Object]","US","[object Object]","false","39.70549"
"PACIFICORP","GJT485","8441.6","[object Object]","America/Denver","GB29","PACIFICORP","8426","PC266","null","GBCC","PacifiCorp","ACTIVE","[object Object]","-109.69963","Uintah","UT","GJT","UT023","175633","247","Little Mountain","[object Object]","US","[object Object]","false","40.54216"
"PACIFICORP","MFR622","1522.3","[object Object]","America/Los_Angeles","NW04","PACIFICORP","1518","PC267","null","NWCC","PacifiCorp","ACTIVE","[object Object]","-122.82552","Jackson","OR","MFR","OR026","175634","247","Sawyer","[object Object]","US","[object Object]","false","42.61603"
"PACIFICORP","MFR620","1131.9","[object Object]","America/Los_Angeles","NW04","PACIFICORP","1136","PC268","null","NWCC","PacifiCorp","ACTIVE","[object Object]","-123.29234","Josephine","OR","MFR","OR024","175635","247","Fruit Heights","[object Object]","US","[object Object]","false","42.42123"
"PACIFICORP","MFR622","2030.8","[object Object]","America/Los_Angeles","NW04","PACIFICORP","2033","PC269","null","NWCC","PacifiCorp","ACTIVE","[object Object]","-122.64400","Jackson","OR","MFR","OR026","175636","247","Dunn Butte","[object Object]","US","[object Object]","false","42.17645"
"PACIFICORP","MFR622","1456.7","[object Object]","America/Los_Angeles","NW04","PACIFICORP","1451","PC270","null","NWCC","PacifiCorp","ACTIVE","[object Object]","-122.81041","Jackson","OR","MFR","OR026","175637","247","Hammel","[object Object]","US","[object Object]","false","42.55106"
"PACIFICORP","MFR622","3809.1","[object Object]","America/Los_Angeles","NW04","PACIFICORP","3815","PC271","null","NWCC","PacifiCorp","ACTIVE","[object Object]","-122.74938","Jackson","OR","MFR","OR026","175638","247","Baldy","[object Object]","US","[object Object]","false","42.29817"
"PACIFICORP","MFR622","2693.6","[object Object]","America/Los_Angeles","NW04","PACIFICORP","2695","PC272","null","NWCC","PacifiCorp","ACTIVE","[object Object]","-123.00510","Jackson","OR","MFR","OR026","175639","247","Poor Mans","[object Object]","US","[object Object]","false","42.28649"
"PACIFICORP","MFR622","2076.8","[object Object]","America/Los_Angeles","NW04","PACIFICORP","2092","PC273","null","NWCC","PacifiCorp","ACTIVE","[object Object]","-123.00256","Jackson","OR","MFR","OR026","175640","247","Blackwell Hill","[object Object]","US","[object Object]","false","42.42777"
"PACIFICORP","MFR620","3802.5","[object Object]","America/Los_Angeles","NW04","PACIFICORP","3788","PC274","null","NWCC","PacifiCorp","ACTIVE","[object Object]","-123.36590","Josephine","OR","MFR","OR024","175641","247","Sexton Mountain","[object Object]","US","[object Object]","false","42.59955"
"PACIFICORP","MFR622","1446.9","[object Object]","America/Los_Angeles","NW04","PACIFICORP","1450","PC275","null","NWCC","PacifiCorp","ACTIVE","[object Object]","-122.70383","Jackson","OR","MFR","OR026","175642","247","Brownsboro","[object Object]","US","[object Object]","false","42.46690"
"PACIFICORP","RIW275","3874.7","[object Object]","America/Denver","RM02","PACIFICORP","3873","PC276","null","RMCC","PacifiCorp","ACTIVE","[object Object]","-108.04142","Big Horn","WY","RIW","WY004","175645","247","Rimrock","[object Object]","US","[object Object]","false","44.48870"
"PACIFICORP","MFR622","1939","[object Object]","America/Los_Angeles","NW04","PACIFICORP","1942","PC277","null","NWCC","PacifiCorp","ACTIVE","[object Object]","-122.60940","Jackson","OR","MFR","OR026","175646","247","South Fork Little Butte Creek","[object Object]","US","[object Object]","false","42.40186"
"PACIFICORP","MFR622","2280.2","[object Object]","America/Los_Angeles","NW04","PACIFICORP","2280","PC278","null","NWCC","PacifiCorp","ACTIVE","[object Object]","-122.70365","Jackson","OR","MFR","OR026","175647","247","Antelope Creek","[object Object]","US","[object Object]","false","42.35351"
"PACIFICORP","MFR620","1410.8","[object Object]","America/Los_Angeles","NW04","PACIFICORP","1430","PC279","null","NWCC","PacifiCorp","INACTIVE","[object Object]","-123.18881","Jackson","OR","MFR","OR026","175649","247","Thompson Creek","[object Object]","US","[object Object]","false","42.22861"
"PACIFICORP","RIW278","7398.3","[object Object]","America/Denver","RM07","PACIFICORP","7398","PC280","null","RMCC","PacifiCorp","ACTIVE","[object Object]","-109.84745","Sublette","WY","RIW","WY025","175652","247","Riverside","[object Object]","US","[object Object]","false","42.88872"
"PACIFICORP","MFR281","2447.5","[object Object]","America/Los_Angeles","NC06","PACIFICORP","2440","PC281","null","NOCC","PacifiCorp","ACTIVE","[object Object]","-122.57328","Siskiyou","CA","MFR","CA081","175655","247","Hornbrook West","[object Object]","US","[object Object]","false","41.91096"
"PACIFICORP","RIW278","null","[object Object]","America/Denver","RM07","PACIFICORP","7490","PC283","null","RMCC","PacifiCorp","ACTIVE","[object Object]","-109.03055","Fremont","WY","RIW","WY026","175804","247","Dickinson","[object Object]","US","[object Object]","false","42.34572"
"PACIFICORP","MFR281","null","[object Object]","America/Los_Angeles","NC06","PACIFICORP","2548","PC284","null","NOCC","PacifiCorp","ACTIVE","[object Object]","-122.52620","Siskiyou","CA","MFR","CA081","175805","247","Grenada","[object Object]","US","[object Object]","false","41.66803"
"PACIFICORP","MFR280","null","[object Object]","America/Los_Angeles","NC04","PACIFICORP","2723","PC282","null","NOCC","PacifiCorp","ACTIVE","[object Object]","-122.85317","Siskiyou","CA","MFR","CA080","175806","247","Fort Jones West","[object Object]","US","[object Object]","false","41.60391"
"PACIFICORP","RIW288","8517.1","[object Object]","America/Denver","RM08","PACIFICORP","8500","PC285","null","RMCC","PacifiCorp","ACTIVE","[object Object]","-108.77546","Fremont","WY","RIW","WY014","175813","247","Skyline","[object Object]","US","[object Object]","false","42.53060"
"PACIFICORP","RIW288","6256.6","[object Object]","America/Denver","RM08","PACIFICORP","6242","PC286","null","RMCC","PacifiCorp","ACTIVE","[object Object]","-108.80380","Fremont","WY","RIW","WY015","175823","247","Sinks Canyon","[object Object]","US","[object Object]","false","42.75314"
"PACIFICORP","MFR284","4603","[object Object]","America/Los_Angeles","NC06","PACIFICORP","4601","PC287","null","NOCC","PacifiCorp","ACTIVE","[object Object]","-122.05859","Siskiyou","CA","MFR","CA084","175824","247","Overland Trail","[object Object]","US","[object Object]","false","41.92052"
"PACIFICORP","MFR280","2437.7","[object Object]","America/Los_Angeles","NC04","PACIFICORP","2444","PC288","null","NOCC","PacifiCorp","ACTIVE","[object Object]","-123.47956","Siskiyou","CA","MFR","CA080","175839","247","West Branch Indian Creek","[object Object]","US","[object Object]","false","41.93353"
"PACIFICORP","SLC493","9694.9","[object Object]","America/Denver","GB28","PACIFICORP","9691","PC289","null","GBCC","PacifiCorp","ACTIVE","[object Object]","-112.22974","Millard","UT","SLC","UT117","175848","247","Sunset Ridge","[object Object]","US","[object Object]","false","38.85034"
"PACIFICORP","SLC493","null","[object Object]","America/Denver","GB28","PACIFICORP","6458","PC290","null","GBCC","PacifiCorp","ACTIVE","[object Object]","-111.87663","Sevier","UT","SLC","UT117","175867","247","Carter Peak","[object Object]","US","[object Object]","false","38.87578"
"PACIFICORP","SLC493","null","[object Object]","America/Denver","GB28","PACIFICORP","6812","PC291","null","GBCC","PacifiCorp","ACTIVE","[object Object]","-112.14391","Millard","UT","SLC","UT117","175868","247","Scipio Summit","[object Object]","US","[object Object]","false","39.20267"
"PACIFICORP","MFR623","null","[object Object]","America/Los_Angeles","NW04","PACIFICORP","3644","PC292","null","NWCC","PacifiCorp","ACTIVE","[object Object]","-122.39021","Jackson","OR","MFR","OR028","175869","247","Mountain View","[object Object]","US","[object Object]","false","42.11105"
"PACIFICORP","MFR623","null","[object Object]","America/Los_Angeles","NW04","PACIFICORP","5367","PC293","null","NWCC","PacifiCorp","INACTIVE","[object Object]","-122.48448","Jackson","OR","MFR","OR028","175870","247","Hobart Bluff","[object Object]","US","[object Object]","false","42.08910"
"PACIFICORP","SLC493","null","[object Object]","America/Denver","GB28","PACIFICORP","5695","PC294","null","GBCC","PacifiCorp","ACTIVE","[object Object]","-111.95079","Sevier","UT","SLC","UT117","175873","247","Sigurd","[object Object]","US","[object Object]","false","38.81414"
"PACIFICORP","SLC492","null","[object Object]","America/Denver","GB27","PACIFICORP","8427","PC295","null","GBCC","PacifiCorp","ACTIVE","[object Object]","-111.77027","Sanpete","UT","SLC","UT117","175878","247","Gunnison Ridge","[object Object]","US","[object Object]","false","39.32128"
"PACIFICORP","MFR623","null","[object Object]","America/Los_Angeles","NW04","PACIFICORP","4463","PC296","null","NWCC","PacifiCorp","ACTIVE","[object Object]","-122.74518","Jackson","OR","MFR","OR026","175879","247","Buckhorn","[object Object]","US","[object Object]","false","42.82209"
"PACIFICORP","MFR620","null","[object Object]","America/Los_Angeles","NW04","PACIFICORP","1196","PC297","null","NWCC","PacifiCorp","ACTIVE","[object Object]","-123.34204","Josephine","OR","MFR","OR024","176008","247","Murphy Creek","[object Object]","US","[object Object]","false","42.32633"
"PACIFICORP","SLC479","null","[object Object]","America/Denver","GB26","PACIFICORP","8539","PC298","null","GBCC","PacifiCorp","ACTIVE","[object Object]","-111.64168","Morgan","UT","SLC","UT110","176009","247","The Head","[object Object]","US","[object Object]","false","41.10794"
"PACIFICORP","SLC479","6158.1","[object Object]","America/Denver","GB26","PACIFICORP","6153","PC299","null","GBCC","PacifiCorp","ACTIVE","[object Object]","-111.62937","Weber","UT","SLC","UT110","176019","247","Evergreen Park","[object Object]","US","[object Object]","false","41.31478"
"PACIFICORP","STO213","2244.1","[object Object]","America/Los_Angeles","NC04","PACIFICORP","2217","PC300","null","NOCC","PacifiCorp","ACTIVE","[object Object]","-122.36596","Shasta","CA","STO","CA013","176020","247","Sims","[object Object]","US","[object Object]","false","41.07232"
"PACIFICORP","MFR284","4603","[object Object]","America/Los_Angeles","NC06","PACIFICORP","4602","PC301","null","NOCC","PacifiCorp","ACTIVE","[object Object]","-121.87967","Siskiyou","CA","MFR","CA084","176023","247","D Hill","[object Object]","US","[object Object]","false","41.94581"
"PACIFICORP","MFR624","5439.6","[object Object]","America/Los_Angeles","NW07","PACIFICORP","5430","PC302","null","NWCC","PacifiCorp","ACTIVE","[object Object]","-120.85791","Lake","OR","MFR","OR030","176024","247","Quartz","[object Object]","US","[object Object]","false","42.33355"
"PACIFICORP","MFR624","null","[object Object]","America/Los_Angeles","NW07","PACIFICORP","6420","PC303","null","NWCC","PacifiCorp","ACTIVE","[object Object]","-120.32825","Lake","OR","MFR","OR031","176029","247","Black Cap","[object Object]","US","[object Object]","false","42.20500"
"PACIFICORP","MFR282","2890.4","[object Object]","America/Los_Angeles","NC04","PACIFICORP","2878","PC304","null","NOCC","PacifiCorp","ACTIVE","[object Object]","-122.14865","Siskiyou","CA","MFR","CA082","176051","247","Squaw Valley Creek","[object Object]","US","[object Object]","false","41.20401"
"PACIFICORP","MFR624","5679.1","[object Object]","America/Los_Angeles","NW07","PACIFICORP","5670","PC305","null","NWCC","PacifiCorp","ACTIVE","[object Object]","-121.22073","Klamath","OR","MFR","OR030","176052","247","Beatty","[object Object]","US","[object Object]","false","42.41794"
"PACIFICORP","MFR624","4517.7","[object Object]","America/Los_Angeles","NW07","PACIFICORP","4515","PC306","null","NWCC","PacifiCorp","ACTIVE","[object Object]","-121.40862","Klamath","OR","MFR","OR030","176053","247","Rim","[object Object]","US","[object Object]","false","42.47756"
"PACIFICORP","MFR281","2831.4","[object Object]","America/Los_Angeles","NC06","PACIFICORP","2813","PC307","null","NOCC","PacifiCorp","ACTIVE","[object Object]","-122.46611","Siskiyou","CA","MFR","CA081","176060","247","Palomino","[object Object]","US","[object Object]","false","41.88527"
"PACIFICORP","EKA201","null","[object Object]","America/Los_Angeles","NC01","PACIFICORP","12","PC308","null","NOCC","PacifiCorp","ACTIVE","[object Object]","-124.17848","Del Norte","CA","EKA","CA101","176137","247","Smith River","[object Object]","US","[object Object]","false","41.92176"
"PACIFICORP","MFR624","null","[object Object]","America/Los_Angeles","NW07","PACIFICORP","5189","PC309","null","NWCC","PacifiCorp","ACTIVE","[object Object]","-121.63264","Klamath","OR","MFR","OR029","176150","247","Stukel Mountain","[object Object]","US","[object Object]","false","42.11358"
"PACIFICORP","MFR285","null","[object Object]","America/Los_Angeles","NC06","PACIFICORP","4226","PC310","null","NOCC","PacifiCorp","ACTIVE","[object Object]","-121.25261","Modoc","CA","MFR","CA085","176151","247","Tickner Road","[object Object]","US","[object Object]","false","41.63933"
"PACIFICORP","MFR624","null","[object Object]","America/Los_Angeles","NW07","PACIFICORP","6335","PC311","null","NWCC","PacifiCorp","ACTIVE","[object Object]","-121.99354","Klamath","OR","MFR","OR029","176152","247","Chase Mountain","[object Object]","US","[object Object]","false","42.09446"
"PACIFICORP","MFR620","null","[object Object]","America/Los_Angeles","NW04","PACIFICORP","1223","PC312","null","NWCC","PacifiCorp","ACTIVE","[object Object]","-123.22987","Jackson","OR","MFR","OR024","176169","247","Applegate","[object Object]","US","[object Object]","false","42.29996"
"PACIFICORP","MFR281","4065","[object Object]","America/Los_Angeles","NC06","PACIFICORP","4057","PC313","null","NOCC","PacifiCorp","ACTIVE","[object Object]","-122.58607","Siskiyou","CA","MFR","CA081","176201","247","Guys Gulch Ridge","[object Object]","US","[object Object]","false","41.60478"
"PACIFICORP","LOX366","null","[object Object]","America/Los_Angeles","SC08","PACIFICORP","66","P064C","null","SOCC","PacifiCorp","INACTIVE","[object Object]","-118.31085","Los Angeles","CA","LOX","CA366","177571","247","MWS 7006","[object Object]","US","[object Object]","false","33.83904"
"PACIFICORP","MFR280","1656.8","[object Object]","America/Los_Angeles","NC04","PACIFICORP","1659","PC314","null","NOCC","PacifiCorp","ACTIVE","[object Object]","-123.01276","Siskiyou","CA","MFR","CA080","177711","247","Horse Creek","[object Object]","US","[object Object]","false","41.83887"
"PACIFICORP","MFR280","1686.4","[object Object]","America/Los_Angeles","NC04","PACIFICORP","1687","PC315","null","NOCC","PacifiCorp","ACTIVE","[object Object]","-122.87869","Siskiyou","CA","MFR","CA080","177714","247","Dogget","[object Object]","US","[object Object]","false","41.84351"
"PACIFICORP","PQR604","null","[object Object]","America/Los_Angeles","NW03","PACIFICORP","226","P065C","null","NWCC","PacifiCorp","INACTIVE","[object Object]","-123.06415","Linn","OR","PQR","OR008","177883","247","MWS 7752","[object Object]","US","[object Object]","false","44.64715"
"PACIFICORP","LOX366","null","[object Object]","America/Los_Angeles","SC08","PACIFICORP","39","P066C","null","SOCC","PacifiCorp","INACTIVE","[object Object]","-118.31070","Los Angeles","CA","LOX","CA366","177884","247","MWS 8101","[object Object]","US","[object Object]","false","33.83911"
"PACIFICORP","LOX366","null","[object Object]","America/Los_Angeles","SC08","PACIFICORP","-23","P067C","null","SOCC","PacifiCorp","INACTIVE","[object Object]","-118.31060","Los Angeles","CA","LOX","CA366","177885","247","MWS 6677","[object Object]","US","[object Object]","false","33.83918"
"PACIFICORP","LOX366","null","[object Object]","America/Los_Angeles","SC08","PACIFICORP","-20","P068C","null","SOCC","PacifiCorp","INACTIVE","[object Object]","-118.31054","Los Angeles","CA","LOX","CA366","177886","247","MWS 5335","[object Object]","US","[object Object]","false","33.83918"
"PACIFICORP","PQR606","null","[object Object]","America/Los_Angeles","NW03","PACIFICORP","705","P069C","null","NWCC","PacifiCorp","INACTIVE","[object Object]","-122.65750","Linn","OR","PQR","OR010","177981","247","MWS 7117","[object Object]","US","[object Object]","false","44.40855"
"PACIFICORP","PDT639","null","[object Object]","America/Los_Angeles","NW06","PACIFICORP","691","PC316","null","NWCC","PacifiCorp","ACTIVE","[object Object]","-121.31328","Wasco","OR","PDT","OR041","178253","247","US 30 Rowena","[object Object]","US","[object Object]","false","45.68547"
"PACIFICORP","PDT639","null","[object Object]","America/Los_Angeles","NW06","PACIFICORP","1553","PC317","null","NWCC","PacifiCorp","ACTIVE","[object Object]","-121.41294","Wasco","OR","PDT","OR041","178254","247","Flat Top Ridge","[object Object]","US","[object Object]","false","45.64720"
"PACIFICORP","PDT643","null","[object Object]","America/Los_Angeles","NW10","PACIFICORP","3472","PC318","null","NWCC","PacifiCorp","ACTIVE","[object Object]","-118.17992","Umatilla","OR","PDT","OR507","179795","247","Pikes Peak","[object Object]","US","[object Object]","false","45.99330"
"PACIFICORP","PDT692","null","[object Object]","America/Los_Angeles","NW10","PACIFICORP","1892","PC319","null","NWCC","PacifiCorp","ACTIVE","[object Object]","-118.13575","Walla Walla","WA","PDT","WA029","179796","247","Bluejay Loop","[object Object]","US","[object Object]","false","46.02441"
"PACIFICORP","PDT695","null","[object Object]","America/Los_Angeles","NW05","PACIFICORP","3794","PC320","null","NWCC","PacifiCorp","ACTIVE","[object Object]","-120.86193","Yakima","WA","PDT","WA523","179808","247","Cleman Mountain","[object Object]","US","[object Object]","false","46.81593"
"PACIFICORP","PDT644","null","[object Object]","America/Los_Angeles","NW11","PACIFICORP","3766","PC321","null","NWCC","PacifiCorp","ACTIVE","[object Object]","-118.85854","Umatilla","OR","PDT","OR503","180041","247","Blue Gulch","[object Object]","US","[object Object]","false","45.34595"
"PACIFICORP","PDT643","3536.7","[object Object]","America/Los_Angeles","NW10","PACIFICORP","3531","PC322","null","NWCC","PacifiCorp","ACTIVE","[object Object]","-118.58109","Umatilla","OR","PDT","OR502","180071","247","Boiling Point","[object Object]","US","[object Object]","false","45.59006"
"PACIFICORP","PDT645","2608.3","[object Object]","America/Los_Angeles","NW11","PACIFICORP","3674","PC323","null","NWCC","PacifiCorp","ACTIVE","[object Object]","-117.68478","Wallowa","OR","PDT","OR502","180073","247","Smith Mountain Road","[object Object]","US","[object Object]","false","45.63702"
"PACIFICORP","PDT691","null","[object Object]","America/Los_Angeles","NW10","PACIFICORP","1785","PC324","null","NWCC","PacifiCorp","ACTIVE","[object Object]","-119.93708","Yakima","WA","PDT","WA027","180123","247","Hanford Road","[object Object]","US","[object Object]","false","46.43936"
"PACIFICORP","PQR601","null","[object Object]","America/Los_Angeles","NW02","PACIFICORP","51","PC325","null","NWCC","PacifiCorp","ACTIVE","[object Object]","-123.79099","Clatsop","OR","PQR","OR001","181066","247","Youngs River","[object Object]","US","[object Object]","false","46.11511"
"PACIFICORP","PQR601","null","[object Object]","America/Los_Angeles","NW02","PACIFICORP","4","PC326","null","NWCC","PacifiCorp","ACTIVE","[object Object]","-123.52745","Clatsop","OR","PQR","OR001","181067","247","Aldrich Point","[object Object]","US","[object Object]","false","46.19758"
"PACIFICORP","PDT690","null","[object Object]","America/Los_Angeles","NW05","PACIFICORP","2600","PC327","null","NWCC","PacifiCorp","ACTIVE","[object Object]","-120.92399","Yakima","WA","PDT","WA523","216587","247","South Fork Ahtanum","[object Object]","US","[object Object]","false","46.51111"
"PACIFICORP","PQR605","null","[object Object]","America/Los_Angeles","NW03","PACIFICORP","541","PC328","null","NWCC","PacifiCorp","ACTIVE","[object Object]","-122.72491","Marion","OR","PQR","OR007","216910","247","Stayton East","[object Object]","US","[object Object]","false","44.79806"
"PACIFICORP","PDT690","null","[object Object]","America/Los_Angeles","NW05","PACIFICORP","2184","PC329","null","NWCC","PacifiCorp","ACTIVE","[object Object]","-120.80559","Yakima","WA","PDT","WA523","216972","247","Titeon","[object Object]","US","[object Object]","false","46.71094"
"PACIFICORP","PDT690","null","[object Object]","America/Los_Angeles","NW05","PACIFICORP","1950","PC330","null","NWCC","PacifiCorp","ACTIVE","[object Object]","-120.76911","Yakima","WA","PDT","WA523","216973","247","Cowiche Creek","[object Object]","US","[object Object]","false","46.66190"
"PACIFICORP","SLC495","null","[object Object]","America/Denver","GB33","PACIFICORP","5575","PC331","null","GBCC","PacifiCorp","ACTIVE","[object Object]","-112.81569","Beaver","UT","SLC","UT122","216974","247","Minersville Reservoir","[object Object]","US","[object Object]","false","38.22091"
"PACIFICORP","SLC492","null","[object Object]","America/Denver","GB27","PACIFICORP","6187","PC332","null","GBCC","PacifiCorp","ACTIVE","[object Object]","-112.61628","Millard","UT","SLC","UT117","216975","247","Cove Fort","[object Object]","US","[object Object]","false","38.63275"
"PACIFICORP","SLC478","null","[object Object]","America/Denver","GB25","PACIFICORP","4532","PC333","null","GBCC","PacifiCorp","ACTIVE","[object Object]","-111.83460","Salt Lake","UT","SLC","UT105","216976","247","3300 South","[object Object]","US","[object Object]","false","40.69997"
"PACIFICORP","PDT690","null","[object Object]","America/Los_Angeles","NW05","PACIFICORP","2961","PC334","null","NWCC","PacifiCorp","ACTIVE","[object Object]","-120.73852","Yakima","WA","PDT","WA523","216980","247","Cowiche Mountain","[object Object]","US","[object Object]","false","46.62667"
"PACIFICORP","PDT691","null","[object Object]","America/Los_Angeles","NW10","PACIFICORP","1314","PC335","null","NWCC","PacifiCorp","ACTIVE","[object Object]","-118.88776","Walla Walla","WA","PDT","WA028","216981","247","Clover Hill","[object Object]","US","[object Object]","false","46.03790"
"PACIFICORP","SLC495","null","[object Object]","America/Denver","GB33","PACIFICORP","7217","PC336","null","GBCC","PacifiCorp","ACTIVE","[object Object]","-113.65749","Washington","UT","SLC","UT125","216982","247","Big Mountain","[object Object]","US","[object Object]","false","37.51118"
"PACIFICORP","PDT690","null","[object Object]","America/Los_Angeles","NW05","PACIFICORP","1745","PC337","null","NWCC","PacifiCorp","ACTIVE","[object Object]","-120.53630","Yakima","WA","PDT","WA027","216983","247","Lookout Point","[object Object]","US","[object Object]","false","46.63119"
"PACIFICORP","SLC492","null","[object Object]","America/Denver","GB27","PACIFICORP","7563","PC338","null","GBCC","PacifiCorp","ACTIVE","[object Object]","-111.84207","Juab","UT","SLC","UT117","217142","247","Horse Haven","[object Object]","US","[object Object]","false","39.48794"
"PACIFICORP","PQR603","908.8","[object Object]","America/Los_Angeles","NW02","PACIFICORP","905","PC339","null","NWCC","PacifiCorp","ACTIVE","[object Object]","-123.38288","Polk","OR","PQR","OR007","217144","247","Reuben Boise Road","[object Object]","US","[object Object]","false","44.96321"
"PACIFICORP","PQR606","656.2","[object Object]","America/Los_Angeles","NW03","PACIFICORP","659","PC340","null","NWCC","PacifiCorp","ACTIVE","[object Object]","-122.65757","Linn","OR","PQR","OR010","217145","247","Foster Lake","[object Object]","US","[object Object]","false","44.40854"
"PACIFICORP","PQR612","246.1","[object Object]","America/Los_Angeles","NW02","PACIFICORP","249","PC341","null","NWCC","PacifiCorp","ACTIVE","[object Object]","-123.84825","Lincoln","OR","PQR","OR004","217146","247","Treat River","[object Object]","US","[object Object]","false","45.02131"
"PACIFICORP","PQR606","1023.6","[object Object]","America/Los_Angeles","NW03","PACIFICORP","1034","PC342","null","NWCC","PacifiCorp","ACTIVE","[object Object]","-122.78727","Linn","OR","PQR","OR010","217147","247","Fern Ridge","[object Object]","US","[object Object]","false","44.37246"
"PACIFICORP","PQR606","787.4","[object Object]","America/Los_Angeles","NW03","PACIFICORP","789","PC343","null","NWCC","PacifiCorp","ACTIVE","[object Object]","-122.73317","Linn","OR","PQR","OR010","217148","247","Sweet Home North","[object Object]","US","[object Object]","false","44.41887"
"PACIFICORP","PDT690","3694.2","[object Object]","America/Los_Angeles","NW05","PACIFICORP","3694","PC344","null","NWCC","PacifiCorp","ACTIVE","[object Object]","-120.57780","Kittitas","WA","PDT","WA523","217149","247","Old Durr","[object Object]","US","[object Object]","false","46.84978"
"undefined","PDT695","2595.1","[object Object]","America/Los_Angeles","NW05","PACIFICORP","2579","PC345","null","NWCC","undefined","INACTIVE","[object Object]","-121.10069","Yakima","WA","PDT","WA523","217150","247","Bumping River","[object Object]","US","[object Object]","false","46.98683"
"PACIFICORP","SLC492","5272.3","[object Object]","America/Denver","GB27","PACIFICORP","5265","PC346","null","GBCC","PacifiCorp","ACTIVE","[object Object]","-112.33590","Millard","UT","SLC","UT116","217151","247","Fillmore-Cedar Mountain","[object Object]","US","[object Object]","false","39.03487"
"PACIFICORP","SLC479","null","[object Object]","America/Denver","GB26","PACIFICORP","5489","PC347","null","GBCC","PacifiCorp","ACTIVE","[object Object]","-111.65438","Utah","UT","SLC","UT111","217154","247","Alta Aquaduct","[object Object]","US","[object Object]","false","40.32304"
"PACIFICORP","SLC478","null","[object Object]","America/Denver","GB25","PACIFICORP","6575","PC348","null","GBCC","PacifiCorp","ACTIVE","[object Object]","-112.10214","Utah","UT","SLC","UT106","217179","247","Tintic","[object Object]","US","[object Object]","false","39.96019"
"PACIFICORP","SLC492","null","[object Object]","America/Denver","GB27","PACIFICORP","5796","PC349","null","GBCC","PacifiCorp","ACTIVE","[object Object]","-111.93369","Juab","UT","SLC","UT116","217180","247","Nephi West","[object Object]","US","[object Object]","false","39.72546"
"PACIFICORP","SLC493","null","[object Object]","America/Denver","GB28","PACIFICORP","6441","PC350","null","GBCC","PacifiCorp","ACTIVE","[object Object]","-111.37275","Sevier","UT","SLC","UT120","217333","247","Oak Spring Creek","[object Object]","US","[object Object]","false","38.79186"
"PACIFICORP","SLC488","null","[object Object]","America/Denver","GB30","PACIFICORP","8539","PC351","null","GBCC","PacifiCorp","ACTIVE","[object Object]","-111.15617","Emery","UT","SLC","UT117","217334","247","North Horn","[object Object]","US","[object Object]","false","39.21345"
"PACIFICORP","SLC488","null","[object Object]","America/Denver","GB31","PACIFICORP","7682","PC352","null","GBCC","PacifiCorp","ACTIVE","[object Object]","-111.16887","Carbon","UT","SLC","UT113","217350","247","Scofield Reservoir","[object Object]","US","[object Object]","false","39.77311"
"PACIFICORP","GJT486","null","[object Object]","America/Denver","GB29","PACIFICORP","5947","PC353","null","GBCC","PacifiCorp","ACTIVE","[object Object]","-109.59288","Uintah","UT","GJT","UT024","217351","247","Vernal West","[object Object]","US","[object Object]","false","40.41344"
"PACIFICORP","SLC479","null","[object Object]","America/Denver","GB26","PACIFICORP","6611","PC354","null","GBCC","PacifiCorp","ACTIVE","[object Object]","-111.26252","Summit","UT","SLC","UT108","217352","247","Samak","[object Object]","US","[object Object]","false","40.64012"
"PACIFICORP","SLC479","null","[object Object]","America/Denver","GB26","PACIFICORP","6789","PC355","null","GBCC","PacifiCorp","ACTIVE","[object Object]","-111.35275","Summit","UT","SLC","UT108","217353","247","East Jordanelle","[object Object]","US","[object Object]","false","40.63372"
"PACIFICORP","SLC479","null","[object Object]","America/Denver","GB26","PACIFICORP","7140","PC356","null","GBCC","PacifiCorp","ACTIVE","[object Object]","-111.23664","Wasatch","UT","SLC","UT112","217397","247","Woodland Crest","[object Object]","US","[object Object]","false","40.56949"
"PACIFICORP","SLC479","null","[object Object]","America/Denver","GB26","PACIFICORP","7609","PC357","null","GBCC","PacifiCorp","ACTIVE","[object Object]","-111.25761","Summit","UT","SLC","UT112","217793","247","Clarks Canyon","[object Object]","US","[object Object]","false","41.00647"
"PACIFICORP","SLC478","null","[object Object]","America/Denver","GB25","PACIFICORP","6224","PC358","null","GBCC","PacifiCorp","ACTIVE","[object Object]","-112.67298","Box Elder","UT","SLC","UT103","217947","247","Hansel Valley","[object Object]","US","[object Object]","false","41.84859"
"PACIFICORP","SLC479","5419.9","[object Object]","America/Denver","GB26","PACIFICORP","5418","PC359","null","GBCC","PacifiCorp","ACTIVE","[object Object]","-111.62848","Morgan","UT","SLC","UT110","217956","247","Red Rock Canyon","[object Object]","US","[object Object]","false","40.93416"
"PACIFICORP","PIH413","6420.6","[object Object]","America/Boise","GB09","PACIFICORP","6418","PC360","null","GBCC","PacifiCorp","ACTIVE","[object Object]","-111.52016","Caribou","ID","PIH","ID063","217978","247","Trail Canyon","[object Object]","US","[object Object]","false","42.69808"
"PACIFICORP","PIH413","null","[object Object]","America/Boise","GB08","PACIFICORP","5769","PC361","null","GBCC","PacifiCorp","ACTIVE","[object Object]","-111.65104","Caribou","ID","PIH","ID062","217982","247","Mullen","[object Object]","US","[object Object]","false","42.67050"
"PACIFICORP","PIH413","null","[object Object]","America/Boise","GB08","PACIFICORP","5889","PC362","null","GBCC","PacifiCorp","INACTIVE","[object Object]","-111.73569","Franklin","ID","PIH","ID059","217983","247","Oneida Narrows","[object Object]","US","[object Object]","false","42.27708"
"PACIFICORP","MFR616","null","[object Object]","America/Los_Angeles","NW03","PACIFICORP","423","PC363","null","NWCC","PacifiCorp","ACTIVE","[object Object]","-123.44930","Douglas","OR","MFR","OR023","218099","247","Garden Valley Road","[object Object]","US","[object Object]","false","43.32079"
"PACIFICORP","PIH413","null","[object Object]","America/Boise","GB08","PACIFICORP","5420","PC364","null","GBCC","PacifiCorp","ACTIVE","[object Object]","-111.92799","Caribou","ID","PIH","ID062","218100","247","Chesterfield Reservoir","[object Object]","US","[object Object]","false","42.88002"
"PACIFICORP","PIH413","null","[object Object]","America/Boise","GB08","PACIFICORP","6553","PC365","null","GBCC","PacifiCorp","ACTIVE","[object Object]","-112.06387","Bannock","ID","PIH","ID058","218101","247","Smith Canyon","[object Object]","US","[object Object]","false","42.54445"
"PACIFICORP","SLC480","null","[object Object]","America/Denver","GB26","PACIFICORP","7486","PC366","null","GBCC","PacifiCorp","ACTIVE","[object Object]","-111.25242","Summit","UT","SLC","UT112","218104","247","Branch Creek","[object Object]","US","[object Object]","false","40.86538"
"PACIFICORP","SLC479","null","[object Object]","America/Denver","GB26","PACIFICORP","7578","PC367","null","GBCC","PacifiCorp","ACTIVE","[object Object]","-111.27031","Rich","UT","SLC","UT110","218105","247","East Bearlake","[object Object]","US","[object Object]","false","41.88209"
"PACIFICORP","MFR617","null","[object Object]","America/Los_Angeles","NW04","PACIFICORP","2058","PC368","null","NWCC","PacifiCorp","ACTIVE","[object Object]","-122.59046","Douglas","OR","MFR","OR025","218116","247","Happy Creek","[object Object]","US","[object Object]","false","43.29328"
"PACIFICORP","MFR617","2398.3","[object Object]","America/Los_Angeles","NW04","PACIFICORP","2402","PC369","null","NWCC","PacifiCorp","ACTIVE","[object Object]","-122.42320","Douglas","OR","MFR","OR025","218124","247","Toketee Lake","[object Object]","US","[object Object]","false","43.26379"
"PACIFICORP","PIH410","null","[object Object]","America/Boise","GB08","PACIFICORP","5391","PC370","null","GBCC","PacifiCorp","ACTIVE","[object Object]","-111.44444","Fremont","ID","PIH","ID066","218137","247","Aspen Heights","[object Object]","US","[object Object]","false","44.12165"
"PACIFICORP","PIH410","null","[object Object]","America/Boise","GB09","PACIFICORP","6412","PC371","null","GBCC","PacifiCorp","ACTIVE","[object Object]","-112.51507","Clark","ID","PIH","ID067","218149","247","Medicine Lodge","[object Object]","US","[object Object]","false","44.30554"
"PACIFICORP","MFR280","null","[object Object]","America/Los_Angeles","NC04","PACIFICORP","2661","PC372","null","NOCC","PacifiCorp","ACTIVE","[object Object]","-122.99220","Siskiyou","CA","MFR","CA080","218150","247","Scott River Road","[object Object]","US","[object Object]","false","41.64035"
"PACIFICORP","MFR280","null","[object Object]","America/Los_Angeles","NC04","PACIFICORP","2971","PC373","null","NOCC","PacifiCorp","ACTIVE","[object Object]","-122.94803","Siskiyou","CA","MFR","CA080","218151","247","Doe Run","[object Object]","US","[object Object]","false","41.54327"
"PACIFICORP","PIH410","null","[object Object]","America/Boise","GB09","PACIFICORP","5696","PC374","null","GBCC","PacifiCorp","ACTIVE","[object Object]","-112.75165","Clark","ID","PIH","ID067","218152","247","Reno Gulch","[object Object]","US","[object Object]","false","44.03491"
"PACIFICORP","MFR281","2112.9","[object Object]","America/Los_Angeles","NC04","PACIFICORP","2113","PC375","null","NOCC","PacifiCorp","ACTIVE","[object Object]","-122.65823","Siskiyou","CA","MFR","CA081","218302","247","Klamath River Canyon","[object Object]","US","[object Object]","false","41.83035"
"PACIFICORP","SLC478","5049.2","[object Object]","America/Denver","GB25","PACIFICORP","5033","PC376","null","GBCC","PacifiCorp","ACTIVE","[object Object]","-111.75206","Utah","UT","SLC","UT106","218303","247","American Fork Canyon","[object Object]","US","[object Object]","false","40.43227"
"PACIFICORP","RIW280","null","[object Object]","America/Denver","RM08","PACIFICORP","5827","PC377","null","RMCC","PacifiCorp","ACTIVE","[object Object]","-106.30727","Natrona","WY","RIW","WY020","218373","247","Scenic Dr","[object Object]","US","[object Object]","false","42.79453"
"PACIFICORP","CYS418","null","[object Object]","America/Denver","RM25","PACIFICORP","4961","PC378","null","RMCC","PacifiCorp","ACTIVE","[object Object]","-104.93523","Platte","WY","CYS","WY107","218389","247","Sawmill","[object Object]","US","[object Object]","false","42.36666"
"PACIFICORP","PDT645","null","[object Object]","America/Los_Angeles","NW11","PACIFICORP","3173","PC379","null","NWCC","PacifiCorp","ACTIVE","[object Object]","-117.55531","Wallowa","OR","PDT","OR050","218391","247","Goebal Canyon","[object Object]","US","[object Object]","false","45.53975"
"PACIFICORP","CYS419","null","[object Object]","America/Denver","RM09","PACIFICORP","6532","PC380","null","RMCC","PacifiCorp","ACTIVE","[object Object]","-105.79832","Converse","WY","CYS","WY103","218392","247","Batts Creek","[object Object]","US","[object Object]","false","42.73665"
"PACIFICORP","CYS419","null","[object Object]","America/Denver","RM09","PACIFICORP","6737","PC381","null","RMCC","PacifiCorp","ACTIVE","[object Object]","-105.87715","Converse","WY","CYS","WY103","218393","247","Little Deer","[object Object]","US","[object Object]","false","42.74282"
"PACIFICORP","CYS418","null","[object Object]","America/Denver","RM08","PACIFICORP","5516","PC382","null","RMCC","PacifiCorp","ACTIVE","[object Object]","-106.01655","Converse","WY","CYS","WY101","218394","247","Banner Draw","[object Object]","US","[object Object]","false","42.73740"
"PACIFICORP","PDT645","null","[object Object]","America/Los_Angeles","NW11","PACIFICORP","2731","PC383","null","NWCC","PacifiCorp","ACTIVE","[object Object]","-116.78558","Wallowa","OR","PDT","OR050","218401","247","Blackmore Creek","[object Object]","US","[object Object]","false","45.42573"
"PACIFICORP","PDT645","null","[object Object]","America/Los_Angeles","NW11","PACIFICORP","2234","PC384","null","NWCC","PacifiCorp","ACTIVE","[object Object]","-116.85882","Wallowa","OR","PDT","OR050","218402","247","Imnaha South","[object Object]","US","[object Object]","false","45.52038"
"PACIFICORP","PDT645","null","[object Object]","America/Los_Angeles","NW11","PACIFICORP","3383","PC385","null","NWCC","PacifiCorp","ACTIVE","[object Object]","-116.80797","Wallowa","OR","PDT","OR050","218403","247","Leggett Gulch","[object Object]","US","[object Object]","false","45.27107"
"PACIFICORP","PDT645","null","[object Object]","America/Los_Angeles","NW11","PACIFICORP","3674","PC386","null","NWCC","PacifiCorp","ACTIVE","[object Object]","-117.42377","Wallowa","OR","PDT","OR050","218404","247","Lostine River","[object Object]","US","[object Object]","false","45.44015"
"PACIFICORP","RIW300","null","[object Object]","America/Denver","RM08","PACIFICORP","5866","PC387","null","RMCC","PacifiCorp","ACTIVE","[object Object]","-106.39176","Natrona","WY","RIW","WY022","218420","247","Coates Road","[object Object]","US","[object Object]","false","42.77463"
"PACIFICORP","PDT691","null","[object Object]","America/Los_Angeles","NW05","PACIFICORP","2961","PC388","null","NWCC","PacifiCorp","ACTIVE","[object Object]","-120.39858","Yakima","WA","PDT","WA027","218447","247","Eagle Way","[object Object]","US","[object Object]","false","46.63994"
"PACIFICORP","PDT690","null","[object Object]","America/Los_Angeles","NW05","PACIFICORP","1729","PC389","null","NWCC","PacifiCorp","ACTIVE","[object Object]","-120.66938","Yakima","WA","PDT","WA027","218448","247","Rocky Top","[object Object]","US","[object Object]","false","46.62624"
"PACIFICORP","RIW300","null","[object Object]","America/Denver","RM08","PACIFICORP","7988","PC390","null","RMCC","PacifiCorp","ACTIVE","[object Object]","-106.34841","Natrona","WY","RIW","WY022","218449","247","Whitcomb Road","[object Object]","US","[object Object]","false","42.73550"
"PACIFICORP","RIW300","null","[object Object]","America/Denver","RM08","PACIFICORP","8095","PC391","null","RMCC","PacifiCorp","ACTIVE","[object Object]","-106.30830","Natrona","WY","RIW","WY022","218450","247","Stag Run","[object Object]","US","[object Object]","false","42.73613"
"PACIFICORP","RIW300","null","[object Object]","America/Denver","RM08","PACIFICORP","6282","PC392","null","RMCC","PacifiCorp","ACTIVE","[object Object]","-106.25188","Natrona","WY","RIW","WY022","218514","247","Claude Creek","[object Object]","US","[object Object]","false","42.76969"
"PACIFICORP","RIW300","null","[object Object]","America/Denver","RM08","PACIFICORP","6302","PC393","null","RMCC","PacifiCorp","ACTIVE","[object Object]","-106.32819","Natrona","WY","RIW","WY022","218515","247","Casper Mountain Road","[object Object]","US","[object Object]","false","42.77453"
"PACIFICORP","PQR601","null","[object Object]","America/Los_Angeles","NW02","PACIFICORP","57","PC394","null","NWCC","PacifiCorp","ACTIVE","[object Object]","-123.85103","Clatsop","OR","PQR","OR001","218619","247","Lewis and Clark River","[object Object]","US","[object Object]","false","46.04925"
"PACIFICORP","RIW276","null","[object Object]","America/Denver","RM02","PACIFICORP","5897","PC395","null","RMCC","PacifiCorp","ACTIVE","[object Object]","-109.36780","Park","WY","RIW","WY003","218642","247","Shoshone Southfork","[object Object]","US","[object Object]","false","44.34295"
"PACIFICORP","RIW286","null","[object Object]","America/Denver","RM02","PACIFICORP","8146","PC396","null","RMCC","PacifiCorp","ACTIVE","[object Object]","-109.38104","Park","WY","RIW","WY002","218643","247","Dead Indian Ridge","[object Object]","US","[object Object]","false","44.74490"
"PACIFICORP","RIW282","null","[object Object]","America/Denver","RM02","PACIFICORP","5128","PC397","null","RMCC","PacifiCorp","ACTIVE","[object Object]","-108.11746","Hot Springs","WY","RIW","WY005","218649","247","Warm Springs","[object Object]","US","[object Object]","false","43.64950"
"PACIFICORP","RIW278","9019","[object Object]","America/Denver","RM07","PACIFICORP","9009","PC398","null","RMCC","PacifiCorp","ACTIVE","[object Object]","-110.32000","Sublette","WY","RIW","WY024","218718","247","Hogsback","[object Object]","US","[object Object]","false","42.32513"
"PACIFICORP","RIW279","8733.6","[object Object]","America/Denver","RM07","PACIFICORP","8731","PC399","null","RMCC","PacifiCorp","ACTIVE","[object Object]","-108.67901","Sweetwater","WY","RIW","WY030","218727","247","Pine Butte","[object Object]","US","[object Object]","false","41.30763"
"PACIFICORP","PIH410","6410.8","[object Object]","America/Boise","GB09","PACIFICORP","6413","PC400","null","GBCC","PacifiCorp","ACTIVE","[object Object]","-113.04724","Butte","ID","PIH","ID067","218780","247","North Creek Road","[object Object]","US","[object Object]","false","43.96960"
"PACIFICORP","PIH413","7139.1","[object Object]","America/Boise","GB08","PACIFICORP","7142","PC401","null","GBCC","PacifiCorp","ACTIVE","[object Object]","-112.45367","Oneida","ID","PIH","ID059","218781","247","Pleasant View Hill","[object Object]","US","[object Object]","false","42.18518"
"PACIFICORP","EKA201","72.2","[object Object]","America/Los_Angeles","NC01","PACIFICORP","74","PC402","null","NOCC","PacifiCorp","ACTIVE","[object Object]","-124.14911","Del Norte","CA","EKA","CA101","218782","247","Elk Valley Rd","[object Object]","US","[object Object]","false","41.78255"
"PACIFICORP","EKA201","49.2","[object Object]","America/Los_Angeles","NC01","PACIFICORP","48","PC403","null","NOCC","PacifiCorp","INACTIVE","[object Object]","-123.99693","Del Norte","CA","EKA","CA101","218787","247","Andy McBeth","[object Object]","US","[object Object]","false","41.51383"
"PACIFICORP","SLC478","6729","[object Object]","America/Denver","GB25","PACIFICORP","6732","PC404","null","GBCC","PacifiCorp","ACTIVE","[object Object]","-112.23084","Box Elder","UT","SLC","UT103","218788","247","Riverside West","[object Object]","US","[object Object]","false","41.78526"
"undefined","MFR281","null","[object Object]","America/Los_Angeles","NC06","PACIFICORP","2882","PC405","null","NOCC","undefined","null","[object Object]","-122.66050","Siskiyou","CA","MFR","CA081","218789","247","Yreka West","[object Object]","US","[object Object]","false","41.73596"
"undefined","MFR281","null","[object Object]","America/Los_Angeles","NC06","PACIFICORP","2924","PC406","null","NOCC","undefined","null","[object Object]","-122.36454","Siskiyou","CA","MFR","CA081","218866","247","East Lake Shastina","[object Object]","US","[object Object]","false","41.51128"
"undefined","MFR281","null","[object Object]","America/Los_Angeles","NC06","PACIFICORP","2677","PC407","null","NOCC","undefined","null","[object Object]","-122.46830","Siskiyou","CA","MFR","CA081","218867","247","East Louie Road","[object Object]","US","[object Object]","false","41.56870"
"undefined","MFR281","null","[object Object]","America/Los_Angeles","NC06","PACIFICORP","2720","PC408","null","NOCC","undefined","null","[object Object]","-122.38841","Siskiyou","CA","MFR","CA081","218868","247","Stags Leap Ranch","[object Object]","US","[object Object]","false","41.59629"
"undefined","SLC479","null","[object Object]","America/Denver","GB26","PACIFICORP","7432","PC409","null","GBCC","undefined","null","[object Object]","-111.65374","Salt Lake","UT","SLC","UT110","218869","247","MWS UT 5 Big Mountain Pass","[object Object]","US","[object Object]","false","40.82792"
"undefined","SLC478","null","[object Object]","America/Denver","GB25","PACIFICORP","5596","PC410","null","GBCC","undefined","null","[object Object]","-111.70955","Salt Lake","UT","SLC","UT110","218870","247","Mountain Dell","[object Object]","US","[object Object]","false","40.76337"